{
"type": "FeatureCollection",
"name": "amenities",
"crs": { "type": "name", "properties": { "name": "urn:ogc:def:crs:OGC:1.3:CRS84" } },
"features": [
{"type":"Feature","properties":{"fid":1,"Building name":"GuardHouse","id":1},"geometry":{"type":"Polygon","coordinates":[[[-0.000975020014312,-0.002251899216092],[-0.000908394546838,-0.002269507105487],[-0.000927598448389,-0.002341128650869],[-0.000994663850668,-0.002323095968106],[-0.000975020014312,-0.002251899216092]]]}},
{"type":"Feature","properties":{"fid":2,"Building name":"OpenSpace","id":2},"geometry":{"type":"Polygon","coordinates":[[[-0.001044002262389,-0.001408289107547],[-0.001090088181936,-0.00139551366588],[-0.001366647557641,-0.001318848857921],[-0.001587720575152,-0.001259196872144],[-0.001542828637026,-0.001114419244953],[-0.001087109640096,-0.000966484050549],[-0.000879776296696,-0.000411199705884],[-0.000808316569604,-0.000591655649786],[-0.000748696165629,-0.000564575851908],[-0.000965588061286,-0.001183867800704],[-0.000966551512129,-0.001186618744203],[-0.000967608939872,-0.001189638020166],[-0.00100005368374,-0.00127745145195],[-0.00100005368374,-0.00127745145195],[-0.001022744163661,-0.001345002423758],[-0.001044002262389,-0.001408289107547]]]}},
{"type":"Feature","properties":{"fid":3,"Building name":"BasketballCourt","id":3},"geometry":{"type":"Polygon","coordinates":[[[-0.001366647557641,-0.001318848857921],[-0.001321331370564,-0.001146779961196],[-0.001177692891465,-0.001183916846309],[-0.001037480937227,-0.001221523192817],[-0.001037480937227,-0.001221523192817],[-0.001072846137639,-0.001334163390102],[-0.001090088181936,-0.00139551366588],[-0.001366647557641,-0.001318848857921]]]}},
{"type":"Feature","properties":{"fid":4,"Building name":"Front_left_background","id":4},"geometry":{"type":"Polygon","coordinates":[[[-0.002084889048385,-0.001755624533217],[-0.001002469548346,-0.002047412603818],[-0.001078400334337,-0.002322614720273],[-0.002257724450308,-0.002006477775403],[-0.002143944299606,-0.00173684260947],[-0.002084889048385,-0.001755624533217]]]}},
{"type":"Feature","properties":{"fid":5,"Building name":"front_right_bachground","id":5},"geometry":{"type":"Polygon","coordinates":[[[0.000422496310091,-0.002724954393641],[-0.000838962773617,-0.002386799839443],[-0.000908306882527,-0.002368211027059],[-0.001000307002996,-0.002343548903546],[-0.000994663850668,-0.002323095968106],[-0.000927598448389,-0.002341128650869],[-0.000908394546838,-0.002269507105487],[-0.000975020014312,-0.002251899216092],[-0.000924750907391,-0.002069704807899],[-0.000223361332034,-0.002266467146242],[-0.000218854709446,-0.002253410803022],[-0.000219460193282,-0.002261614764649],[-0.000216312468258,-0.002267719658331],[-0.000196610031607,-0.002274996506481],[-0.000187482967324,-0.002277390363137],[-0.000178085439174,-0.002278521634587],[-0.000169796563754,-0.002275327317625],[-0.000165828209578,-0.002267890174252],[-0.00017029328895,-0.002281562499755],[-0.000080032149365,-0.002309877327552],[0.000194735412563,-0.001538392492888],[0.000283092961585,-0.001590756726785],[0.000353661699946,-0.001602394434399],[0.000353661699946,-0.001602394434399],[0.000422376043262,-0.001637398009312],[0.000422376043262,-0.001637398009312],[0.000463499366713,-0.001639708465443],[0.000463499366713,-0.001639708465443],[0.000507905569853,-0.001660708600345],[0.000507905569853,-0.001660708600345],[0.000544693755067,-0.00167533978792],[0.000541889884998,-0.001720201708994],[0.000543761697257,-0.001745830245462],[0.000546676595297,-0.001774655348287],[0.000548292572553,-0.001790635567818],[0.000550625072202,-0.001813701397667],[0.000554033610873,-0.001847408057834],[0.000555077820784,-0.001949740629149],[0.000555347464523,-0.001976165715553],[0.000551293520281,-0.002044503632745],[0.000548836897048,-0.002085915281502],[0.000544221452646,-0.002195906515903],[0.000543263253756,-0.002230401675922],[0.000527934645358,-0.0023249280943],[0.00048837321906,-0.002477932193511],[0.000467240714248,-0.00255116725322],[0.000422496310091,-0.002724954393641]]]}},
{"type":"Feature","properties":{"fid":6,"Building name":"eatery","id":6},"geometry":{"type":"Polygon","coordinates":[[[-0.000908306882527,-0.002368211027059],[-0.000895538366486,-0.002319335466822],[-0.000825196402391,-0.002341837900711],[-0.000838962773617,-0.002386799839443],[-0.000908306882527,-0.002368211027059]]]}},
{"type":"Feature","properties":{"fid":7,"Building name":"house1","id":7},"geometry":{"type":"Polygon","coordinates":[[[-0.001310084631369,-0.002229877269538],[-0.001315912279129,-0.002251259651169],[-0.001279924974135,-0.002260232294044],[-0.001274446909863,-0.002240252015204],[-0.001310084631369,-0.002229877269538]]]}},
{"type":"Feature","properties":{"fid":8,"Building name":"house2","id":8},"geometry":{"type":"Polygon","coordinates":[[[-0.00058765336628,-0.00240652466517],[-0.0005315692546,-0.002420508004714],[-0.000536227855228,-0.002443174705025],[-0.000593945869081,-0.002431762515404],[-0.00058765336628,-0.00240652466517]]]}},
{"type":"Feature","properties":{"fid":9,"Building name":null,"id":9},"geometry":{"type":"Polygon","coordinates":[[[-0.00025892576806,-0.00246237160217],[-0.000272445508856,-0.002512614246976],[-0.000246272923405,-0.002519139805429],[-0.00023374555358,-0.002469890787872],[-0.00025892576806,-0.00246237160217]]]}},
{"type":"Feature","properties":{"fid":10,"Building name":"mid_left_background","id":10},"geometry":{"type":"Polygon","coordinates":[[[-0.002084889048385,-0.001755624533217],[-0.002143944299606,-0.00173684260947],[-0.001919261662099,-0.001204391739215],[-0.00185587036752,-0.001054099309399],[-0.001825418728535,-0.000981897233265],[-0.001792869753797,-0.000904722288647],[-0.001785073206377,-0.000886236357212],[-0.001763142159955,-0.000834236953032],[-0.001760485263453,-0.000827937343226],[-0.001755149569905,-0.000813833764777],[-0.001736658545311,-0.000764524365864],[-0.001717879631531,-0.000714446801886],[-0.001703527007542,-0.000675886085439],[-0.001690555666185,-0.000641036414997],[-0.001671417867874,-0.000589619530203],[-0.001465048447993,-0.000386859940846],[-0.001380006084834,-0.000320040941222],[-0.001272065406681,-0.000238086174236],[-0.001225835643072,-0.000204698011629],[-0.001216872000471,-0.000201250456782],[-0.001127522437475,-0.000166885240246],[-0.001091149374737,-0.000152895600731],[-0.001080600218492,-0.00014743589312],[-0.001060108205353,-0.000133774551027],[-0.001026434906054,-0.000111325684828],[-0.001017529245473,-0.000137626302462],[-0.001010051363915,-0.000139490747736],[-0.001013767397908,-0.000145078203564],[-0.001004665958176,-0.000157711802638],[-0.001007726724993,-0.000162239421336],[-0.001001266550656,-0.000175934113819],[-0.000993659578482,-0.000197191173685],[-0.00098781183026,-0.000207584763541],[-0.000979156107619,-0.000224635515031],[-0.000988476304268,-0.000237540185041],[-0.000980066973517,-0.000262136425532],[-0.000962526241411,-0.000289345198661],[-0.000948264620159,-0.000303822287669],[-0.000944753709924,-0.000313633238377],[-0.000949632803423,-0.000357094656091],[-0.000959300844447,-0.000401844161326],[-0.000973551651636,-0.00041898405582],[-0.000968514080661,-0.000426850212201],[-0.000956543522928,-0.000426079385442],[-0.000947649295242,-0.000425506654508],[-0.000938794060951,-0.000424936434498],[-0.000933702104193,-0.000424608545304],[-0.000928375425568,-0.000424015465067],[-0.000902045173077,-0.000421083816003],[-0.000879776296696,-0.000411199705884],[-0.001087109640096,-0.000966484050549],[-0.001542828637026,-0.001114419244953],[-0.001809395207184,-0.001192838526246],[-0.002084889048385,-0.001755624533217]]]}},
{"type":"Feature","properties":{"fid":11,"Building name":"grass_top","id":11},"geometry":{"type":"Polygon","coordinates":[[[-0.001026434906054,-0.000111325684828],[-0.001017529245473,-0.000137626302462],[-0.001010051363915,-0.000139490747736],[-0.001013767397908,-0.000145078203564],[-0.001004665958176,-0.000157711802638],[-0.001007726724993,-0.000162239421336],[-0.000979156107619,-0.000224635515031],[-0.000988476304268,-0.000237540185041],[-0.000980066973517,-0.000262136425532],[-0.000962526241411,-0.000289345198661],[-0.000948264620159,-0.000303822287669],[-0.000944753709924,-0.000313633238377],[-0.000959300844447,-0.000401844161326],[-0.000973551651636,-0.00041898405582],[-0.000968514080661,-0.000426850212201],[-0.000956543522928,-0.000426079385442],[-0.000947649295242,-0.000425506654508],[-0.000938794060951,-0.000424936434498],[-0.000928375425568,-0.000424015465067],[-0.000902045173077,-0.000421083816003],[-0.000879776296696,-0.000411199705884],[-0.000810835434,-0.000381775249456],[-0.000808622277394,-0.000380830658286],[-0.000808615694148,-0.000380808685536],[-0.000844330440214,-0.000394677253256],[-0.000855317832668,-0.000397057214508],[-0.000866502912332,-0.000395925401174],[-0.000876790805677,-0.000391392603028],[-0.000885174462023,-0.000383902521934],[-0.000890833230673,-0.000374188339216],[-0.000893213191926,-0.000363200946762],[-0.000892081378592,-0.000352015867099],[-0.000887548580445,-0.000341727973754],[-0.000880058499351,-0.000333344317409],[-0.000323054878325,-0.000115164910268],[-0.000315490611987,-0.000111975538628],[-0.000306159830383,-0.000108057610291],[-0.000305382195554,-0.000107731086999],[-0.000304095569507,-0.000107190841941],[-0.00030290732891,-0.0001067754427],[-0.000300182824482,-0.000105830279728],[-0.000293245538046,-0.000103423652601],[-0.000289617513454,-0.000102442683007],[-0.00026595206177,-0.000093621867823],[-0.000234588559415,-0.000081931761018],[-0.000168583255482,-0.000057329628132],[-0.000086904208006,-0.000026885426526],[-0.000044054463502,-0.000010914056869],[-0.000009326136133,0.000002030219938],[0.000003177361307,0.000004292983986],[0.000011482415134,0.000004303671702],[0.000019346078118,0.000004313791396],[0.00013430384298,0.000004461729755],[0.000195978418352,0.000004541098344],[0.000234360786053,0.000004590492349],[0.000300861088608,0.000004676071133],[0.000362456588698,0.000004755337959],[0.000388391997764,0.000004788714059],[0.000474081047632,0.00000489898671],[0.000566262964955,0.000005017614987],[0.000623470022711,0.000005091234357],[0.000675040374134,0.000005157599889],[0.000686146415719,0.000003413223543],[0.000696169847002,-0.000001677732538],[0.000704129504693,-0.000009616930102],[0.000709246242039,-0.000019627225174],[0.000711019197138,-0.000030728740329],[0.000709274820792,-0.000041834781914],[0.000703874729444,-0.000052168145137],[0.000696244667147,-0.000059817870888],[0.000686234372074,-0.000064934608234],[0.00067513285692,-0.000066707563333],[0.000675183291345,-0.000067661929471],[0.000710153394247,-0.000068150969186],[0.000617436342196,-0.000334167935818],[0.00029960563688,-0.001243976979588],[0.000194735412563,-0.001538392492888],[0.000283092961585,-0.001590756726785],[0.000353661699946,-0.001602394434399],[0.000422376043262,-0.001637398009312],[0.000463499366713,-0.001639708465443],[0.000544693755067,-0.00167533978792],[0.000548839866234,-0.001609002009269],[0.000554603206249,-0.001516788569056],[0.000563945454267,-0.001452774924243],[0.000564784356405,-0.001448001860358],[0.000581743548322,-0.001351509906374],[0.000594517905606,-0.001278828218402],[0.000595556098809,-0.001272921257075],[0.000597271732679,-0.001265933986944],[0.000601699107848,-0.001251995954007],[0.000625602654094,-0.001176744049176],[0.000640798049637,-0.001138692351493],[0.000643425991175,-0.001134166033184],[0.000645664967514,-0.0011303096614],[0.000722026469023,-0.001047429495144],[0.000752087767165,-0.001014801988629],[0.000769903806078,-0.000980283413241],[0.000795321216415,-0.000924827245239],[0.000804042797533,-0.000820168271835],[0.000820971380602,-0.000722941350186],[0.000842137342174,-0.000661829337884],[0.000866369336036,-0.000596781105094],[0.000884856746822,-0.000547693841974],[0.000887430559488,-0.000540859925587],[0.000893354008678,-0.00052869275261],[0.000899757873353,-0.000516485385574],[0.000906498581482,-0.000503635910703],[0.00091437641996,-0.000488618781106],[0.000921738798108,-0.000474584247762],[0.000927424101512,-0.000463746638148],[0.000927424101512,-0.000388458377354],[0.000927424101512,-0.000296548323953],[0.000927889798286,-0.000251493159925],[0.000928980687871,-0.000221705692813],[0.000930603325333,-0.000177398495562],[0.000932153794713,-0.000135061895891],[0.00093281893533,-0.000116899788097],[0.000935882162649,-0.000100858608562],[0.000981625095277,0.000028138389057],[0.001014498979789,0.000120844128684],[0.001044996342523,0.000206847976755],[0.001068363779671,0.000272745134215],[0.000927643591148,0.000301077951816],[0.000838349396319,0.000317613913821],[0.000782311687804,0.000327991267249],[0.000677824991388,0.000343664271711],[0.000489062874806,0.000348907663839],[0.000291570201156,0.000328652005003],[0.000132075793936,0.000241218323938],[0.00011540160196,0.000235379588203],[0.000081584614169,0.000229498372935],[-0.000128994607536,0.000192875899595],[-0.000242623341608,0.000147897859025],[-0.00031040745566,0.000121066647213],[-0.000474959434855,0.000059768453684],[-0.000542487336752,0.000023753572673],[-0.000552843062357,0.000018230519017],[-0.000580485002524,0.000014242245049],[-0.000619295938943,0.000007317767711],[-0.000688454894669,0.000000113709823],[-0.000826235928364,-0.000014238481187],[-0.00095521524454,-0.000063845910485],[-0.001026434906054,-0.000111325684828]]]}}
]
}
