{
"type": "FeatureCollection",
"name": "buffered_road_design",
"crs": { "type": "name", "properties": { "name": "urn:ogc:def:crs:OGC:1.3:CRS84" } },
"features": [
{"type":"Feature","properties":{"fid":1,"name":"Main Road","width":4.5},"geometry":{"type":"MultiPolygon","coordinates":[[[[-0.002009854819595,-0.001141807361804],[-0.00186023318755,-0.000787048379088],[-0.001818883277245,-0.000676781951616],[-0.00176798563928,-0.000540036964292],[-0.001754163173768,-0.000519355886197],[-0.001621092926025,-0.000395694645874],[-0.00154088994178,-0.000310144796014],[-0.001534868589109,-0.000304626775268],[-0.00138278553204,-0.000185132944716],[-0.001381042926256,-0.000183819919149],[-0.001283275246712,-0.000113209928367],[-0.001271066523536,-0.000106598343446],[-0.00113542376611,-0.000054428052128],[-0.001010038792158,0.000029161930507],[-0.000999489635913,0.000034621638118],[-0.000858269654349,0.000088937015642],[-0.000844505326473,0.000092239553352],[-0.000594273023817,0.000118305418212],[-0.000522098388585,0.000156798557002],[-0.000514672836245,0.000160066846785],[-0.000423292762236,0.000192318637612],[-0.000163521651348,0.000295144702337],[-0.000152919342183,0.000298130979476],[0.000088109287523,0.000340049002033],[0.000249313814999,0.000428420158659],[0.000269723865382,0.000434774689987],[0.000481553837728,0.000456500840996],[0.000488549697939,0.000456761333494],[0.000684085057028,0.000451329795742],[0.000690583831941,0.000450754259452],[0.00079921458699,0.000434459646195],[0.000801033611153,0.000434154882968],[0.000947685130469,0.000406997194206],[0.000948509313071,0.00040683791993],[0.001096854513803,0.000376969870731],[0.001100244097032,0.000395376000584],[0.001100410104795,0.00039623798684],[0.001108200619871,0.000434987837407],[0.001108102139306,0.000474627052449],[0.001108988010479,0.000484493783701],[0.001119884434001,0.000543844573265],[0.001129895449065,0.000566606870634],[0.0011691625405,0.000618570306194],[0.001180936432204,0.000656856066577],[0.001193748903038,0.00070824408031],[0.001198519215615,0.000778664399197],[0.001196608194209,0.000824459806038],[0.00119869306626,0.000841715444415],[0.001206161262342,0.000857410341501],[0.001254775734152,0.000927551681516],[0.001273268694914,0.000962278869692],[0.001284483088038,0.000990241365905],[0.001214811099282,0.001101504625747],[0.001208207347946,0.001117021108511],[0.001206721664075,0.001133818831942],[0.001210499476755,0.001150253517835],[0.001219170987362,0.001164716424627],[0.001231887368018,0.001175791822232],[0.001247403850785,0.001182395573566],[0.001264201574219,0.001183881257437],[0.001280636260115,0.001180103444757],[0.00129509916691,0.001171431934153],[0.001306174564518,0.001158715553499],[0.001390392760011,0.00102422260826],[0.001396989476651,0.001008734194432],[0.001398486146489,0.000991966141095],[0.001394736761251,0.000975554262967],[0.001372236593169,0.000919451283711],[0.001369784762353,0.000914180057524],[0.001348442972231,0.000874103167126],[0.001345168050736,0.000868733960697],[0.001305066714062,0.000810875438615],[0.001306346296027,0.000780211744052],[0.001306269922111,0.000774321727667],[0.00130097755735,0.000696194768865],[0.001299499770449,0.000686798235638],[0.001285180052701,0.000629364984726],[0.001284400015568,0.000626561200458],[0.001269407083975,0.000577807924917],[0.001260891096716,0.000561155916026],[0.001223602824175,0.000511811116691],[0.001215911998842,0.000469920623449],[0.001216011616738,0.000429823623787],[0.001214954443195,0.000419066111577],[0.001206179772811,0.000375421094163],[0.00120253537294,0.000355631257857],[0.001353172144428,0.000325125837686],[0.00137605564342,0.000326900668569],[0.001381348256601,0.00032705031728],[0.001407884188611,0.00032649644539],[0.001442827687524,0.000331644073614],[0.001460286388714,0.000342134319618],[0.001466783225848,0.000345461411629],[0.001496147427093,0.000358068061827],[0.001712644765719,0.000589033438147],[0.001724208814478,0.000598373104621],[0.001917774962501,0.000714679380137],[0.00193969066039,0.000722060120566],[0.002050525059612,0.000734149247933],[0.002054694447084,0.000734441005124],[0.002317772202698,0.000742620097729],[0.002325898993931,0.000742258578599],[0.002502191356749,0.000721002954018],[0.002508778802814,0.000719789475153],[0.00264768713061,0.000685155739208],[0.002663209876892,0.000678566724334],[0.002675936768321,0.000667503406401],[0.002684622008092,0.000653048740052],[0.002688415424421,0.000636617648742],[0.002686945691289,0.000619818522168],[0.002680356676414,0.000604295775887],[0.002669293358481,0.000591568884458],[0.002654838692131,0.000582883644688],[0.002638407600819,0.000579090228359],[0.002621608474244,0.000580559961491],[0.002485956095249,0.000614381898225],[0.002317044945509,0.000634747567668],[0.002060134619371,0.000626760220566],[0.001963147643774,0.000616181484098],[0.001786160977776,0.000509837166412],[0.00156708916852,0.000276125273289],[0.001549028282627,0.000263458514803],[0.001512670860257,0.000247849532216],[0.001489107598628,0.000233691296247],[0.001469202833962,0.00022656825139],[0.001419128262343,0.000219191620939],[0.00141014827105,0.000218627875013],[0.001381748719829,0.000219220645341],[0.001354011433013,0.000217069357496],[0.001339145680766,0.000217980302858],[0.001175098954099,0.000251201370166],[0.001040242222249,-0.000129100296517],[0.001035221935606,-0.000266182568884],[0.001035221935606,-0.00047702591713],[0.001033656996688,-0.000489919636224],[0.001029053054999,-0.00050206462477],[0.000987141729842,-0.000581958088346],[0.000949071261846,-0.000683041744745],[0.000926326643315,-0.000746221240659],[0.000911263279595,-0.000831580301731],[0.000901963080781,-0.000943182687482],[0.000897247953103,-0.000961163863728],[0.000867374495465,-0.001026342316747],[0.000866272577066,-0.001028605435756],[0.000844546426056,-0.00107069985333],[0.000836289978511,-0.001082501046865],[0.000733051313133,-0.001194552769021],[0.00070110244553,-0.001295132537378],[0.000662868898657,-0.001512668235036],[0.000649752750659,-0.001722526602934],[0.0006615302262,-0.001838992749898],[0.000661800909278,-0.001843865585679],[0.000663158793716,-0.00197693826054],[0.0006630670112,-0.001980680003067],[0.000653612066059,-0.00214006336392],[0.000650919857311,-0.002236982878778],[0.000650245638835,-0.002244113926015],[0.000633951025577,-0.002344597374355],[0.00063295112845,-0.002349379919005],[0.000594930364183,-0.002497389322626],[0.000594512376448,-0.002498922348816],[0.000555452356293,-0.002634285521975],[0.000526692389327,-0.002752686944289],[0.001574985177315,-0.003029578876073],[0.001595558131091,-0.003038650899373],[0.001612320763462,-0.00305363629858],[0.00162363223118,-0.003073068198411],[0.001628385288973,-0.00309504446912],[0.001626114674427,-0.003117413920212],[0.001617042651114,-0.003137986873957],[0.001602057251886,-0.003154749506303],[0.001582625352027,-0.003166060974004],[0.001560649081286,-0.003170814031789],[0.001538279630161,-0.003168543417247],[0.000439251190757,-0.002878250370186],[0.000439129051774,-0.002878196510749],[0.000438996297588,-0.002878182543068],[-0.002924177943279,-0.001976629174515],[-0.004156662412623,-0.001657843205368],[-0.004177281655147,-0.001648876886629],[-0.004194120975242,-0.001633977714417],[-0.004205532022931,-0.001614604123516],[-0.00421039780536,-0.001592652535987],[-0.004208242025844,-0.001570271726164],[-0.004199275707101,-0.001549652483648],[-0.004184376534883,-0.001532813163559],[-0.004165002943974,-0.001521402115875],[-0.004143051356437,-0.001516536333447],[-0.004120670546605,-0.001518692112962],[-0.002887879855863,-0.001837557287257],[-0.002887586383902,-0.001837684904124],[-0.002887268122126,-0.001837718389915],[-0.002362836747317,-0.001978300720428],[-0.002009854819595,-0.001141807361804]],[[-0.000984092364343,-0.001980806682822],[-0.00192176112193,-0.001718527319943],[-0.001929324386919,-0.001716438719643],[-0.001937059761394,-0.001714275331336],[-0.001952581103471,-0.001709934233945],[-0.001946999201615,-0.001698222737731],[-0.001943127580598,-0.001690099614814],[-0.001938819036395,-0.001680957821863],[-0.001837027379365,-0.001467866862856],[-0.001836866574423,-0.001467536056676],[-0.001743557372717,-0.001278866901633],[-0.001737362380467,-0.001270722793892],[-0.001728577920653,-0.001265475157693],[-0.00166649811632,-0.001242991172405],[-0.001658451559822,-0.001241404205384],[-0.001650300289599,-0.001242311029275],[-0.001366647557641,-0.001318848857921],[-0.001044002262389,-0.001408289107547],[-0.00100005368374,-0.00127745145195],[-0.000967608939872,-0.001189638020166],[-0.000966551512129,-0.001186618744203],[-0.000965588061286,-0.001183867800704],[-0.000752234762213,-0.000574780828864],[-0.000748696165629,-0.000564575851908],[-0.000743473067375,-0.00056220350225],[-0.000736251497985,-0.000558521718016],[-0.000442105844807,-0.000445547787518],[-0.000419110027447,-0.00037763613596],[-0.000418963399458,-0.000377210913866],[-0.000358922825372,-0.00020618624829],[-0.000808615694148,-0.000380808685536],[-0.000844330440214,-0.000394677253256],[-0.000855317832668,-0.000397057214508],[-0.000866502912332,-0.000395925401174],[-0.000876790805677,-0.000391392603028],[-0.000885174462023,-0.000383902521934],[-0.000890833230673,-0.000374188339216],[-0.000893213191926,-0.000363200946762],[-0.000892081378592,-0.000352015867099],[-0.000887548580445,-0.000341727973754],[-0.000880058499351,-0.000333344317409],[-0.000870344316633,-0.000327685548758],[-0.000806300524156,-0.000302816390474],[-0.000323054878325,-0.000115164910268],[-0.000315490611987,-0.000111975538628],[-0.000306159830383,-0.000108057610291],[-0.000305382195554,-0.000107731086999],[-0.000304095569507,-0.000107190841941],[-0.000304051935466,-0.00010717252032],[-0.00030290732891,-0.0001067754427],[-0.000300182824482,-0.000105830279728],[-0.000293245538046,-0.000103423652601],[-0.000289617513454,-0.000102442683007],[-0.00026595206177,-0.000093621867823],[-0.000234588559415,-0.000081931761018],[-0.000168583255482,-0.000057329628132],[-0.000086904208006,-0.000026885426526],[-0.000044054463502,-0.000010914056869],[-0.000009326136133,0.000002030219938],[0.000003177361307,0.000004292983986],[0.000011482415134,0.000004303671702],[0.000019346078118,0.000004313791396],[0.00013430384298,0.000004461729755],[0.000195978418352,0.000004541098344],[0.000234360786053,0.000004590492349],[0.000300861088608,0.000004676071133],[0.000362456588698,0.000004755337959],[0.000388391997764,0.000004788714059],[0.000474081047632,0.00000489898671],[0.000566262964955,0.000005017614987],[0.000623470022711,0.000005091234357],[0.000675040374134,0.000005157599889],[0.000686146415719,0.000003413223543],[0.000696169847002,-0.000001677732538],[0.000704129504693,-0.000009616930102],[0.000709246242039,-0.000019627225174],[0.000711019197138,-0.000030728740329],[0.000709274820792,-0.000041834781914],[0.000704183864711,-0.000051858213197],[0.000703874729444,-0.000052168145137],[0.000696244667147,-0.000059817870888],[0.000686234372074,-0.000064934608234],[0.00067513285692,-0.000066707563333],[0.00000972483627,-0.000067563872351],[-0.000259845548711,-0.000168040743726],[-0.000332575381864,-0.000375210571493],[-0.00029354935225,-0.000385273502591],[0.000041369965931,-0.000253511820884],[0.000051388135343,-0.000251641290656],[0.000489661929771,-0.00025411256803],[0.000520710814781,-0.000170363311748],[0.000525636363279,-0.000157057348739],[0.000532490015937,-0.0001568776724],[0.000539606155443,-0.000156691114668],[0.000546202870637,-0.000156518174239],[0.000553507209579,-0.000156326682644],[0.000559764638591,-0.000156162636989],[0.000569643030897,-0.000155903663643],[0.000582364243563,-0.000155570162511],[0.000572577491854,-0.000184226419669],[0.000571532202799,-0.00018949108992],[0.000534984743959,-0.000291142133921],[0.000419716345171,-0.000614829230734],[0.000338310964492,-0.000839621751471],[0.000338216240149,-0.000839893428781],[0.000259586494257,-0.001061596018495],[0.000180201889018,-0.001290265392179],[0.000180140863124,-0.001290439258004],[0.000100265320101,-0.001515543061],[0.000100236371776,-0.001515624230617],[0.000021061862913,-0.001736508638691],[-0.000057087663645,-0.001961033748916],[-0.000057217169608,-0.001961397411196],[-0.000138878319129,-0.002187069315992],[-0.000163961812901,-0.002262013158121],[-0.000165828209578,-0.002267890174252],[-0.000169796563754,-0.002275327317625],[-0.000178085439174,-0.002278521634587],[-0.000187482967324,-0.002277390363137],[-0.000196610031607,-0.002274996506481],[-0.000206349645997,-0.002271858804187],[-0.000216312468258,-0.002267719658331],[-0.000219460193282,-0.002261614764649],[-0.000218854709446,-0.002253410803022],[-0.000216097127315,-0.002245421685217],[-0.000199257077046,-0.002196633602379],[-0.000906182427517,-0.002002405557739],[-0.000924750907391,-0.002069704807899],[-0.000975020014312,-0.002251899216092],[-0.000994663850668,-0.002323095968106],[-0.001000307002996,-0.002343548903546],[-0.000908306882527,-0.002368211027059],[-0.000838962773617,-0.002386799839443],[0.000422496310091,-0.002724954393641],[0.000431371535976,-0.00268841612608],[0.000442839337365,-0.002641204528202],[0.00044442776076,-0.002634665174751],[0.000446836900946,-0.002624747026205],[0.000449746994717,-0.002612766510304],[0.000450971765411,-0.002607724272517],[0.000451374519243,-0.002606207882545],[0.000451561664943,-0.002605503268858],[0.000453611298969,-0.00259840022681],[0.000455500567615,-0.002591852933752],[0.000463718172139,-0.002563374683619],[0.000467240714248,-0.00255116725322],[0.00048837321906,-0.002477932193511],[0.000490720019809,-0.002469799315059],[0.000500464957094,-0.002431863666379],[0.000510550820702,-0.002392600840227],[0.000527934645358,-0.0023249280943],[0.000529272133298,-0.002316680252012],[0.000535024413112,-0.002281207859854],[0.000540396315184,-0.002248081130433],[0.000543263253756,-0.002230401675922],[0.000543548856776,-0.002220119967199],[0.000544221452646,-0.002195906515903],[0.000544857529508,-0.00217300774888],[0.000545879356711,-0.0021362219696],[0.000545953162765,-0.002134526802244],[0.000548836897048,-0.002085915281502],[0.000549776153955,-0.002070082093646],[0.000551293520281,-0.002044503632745],[0.000555347464523,-0.001976165715553],[0.000555077820784,-0.001949740629149],[0.000554681165253,-0.00191086838706],[0.000554133359766,-0.001857183449413],[0.000554033610873,-0.001847408057834],[0.000550625072202,-0.001813701397667],[0.000549780124377,-0.001805345802511],[0.000548292572553,-0.001790635567818],[0.000548042826118,-0.001788165853065],[0.000546676595297,-0.001774655348287],[0.000543761697257,-0.001745830245462],[0.000542058410012,-0.001728986627164],[0.000541889884998,-0.001720201708994],[0.000544693755067,-0.00167533978792],[0.000547369190597,-0.001632532819451],[0.000548839866234,-0.001609002009269],[0.000554603206249,-0.001516788569056],[0.000555468729379,-0.001502940198982],[0.000556177450104,-0.001496972189298],[0.000563945454267,-0.001452774924243],[0.000564784356405,-0.001448001860358],[0.000581743548322,-0.001351509906374],[0.000594517905606,-0.001278828218402],[0.000595556098809,-0.001272921257075],[0.000597271732679,-0.001265933986944],[0.000601699107848,-0.001251995954007],[0.000625602654094,-0.001176744049176],[0.000633934612508,-0.00115051380973],[0.000640798049637,-0.001138692351493],[0.000643425991175,-0.001134166033184],[0.000645664967514,-0.0011303096614],[0.000722026469023,-0.001047429495144],[0.000752087767165,-0.001014801988629],[0.000769903806078,-0.000980283413241],[0.000795321216415,-0.000924827245239],[0.000804042797533,-0.000820168271835],[0.000804676767344,-0.000815277491969],[0.000820971380602,-0.000722941350186],[0.000823337335385,-0.00071405157896],[0.000842137342174,-0.000661829337884],[0.000847779255271,-0.000646157357059],[0.000848051910782,-0.000645417027316],[0.000866369336036,-0.000596781105094],[0.000884856746822,-0.000547693841974],[0.000887430559488,-0.000540859925587],[0.000890140680099,-0.000534818160213],[0.000893354008678,-0.00052869275261],[0.000899757873353,-0.000516485385574],[0.000906498581482,-0.000503635910703],[0.00091437641996,-0.000488618781106],[0.000921738798108,-0.000474584247762],[0.000927424101512,-0.000463746638148],[0.000927424101512,-0.000388458377354],[0.000927424101512,-0.000296548323953],[0.000927424101512,-0.000265195944789],[0.000927460209882,-0.000263223357567],[0.000927889798286,-0.000251493159925],[0.000928980687871,-0.000221705692813],[0.000930603325333,-0.000177398495562],[0.000932153794713,-0.000135061895891],[0.00093281893533,-0.000116899788097],[0.000935882162649,-0.000100858608562],[0.000981625095277,0.000028138389057],[0.001014498979789,0.000120844128684],[0.001044996342523,0.000206847976755],[0.001068363779671,0.000272745134215],[0.000927643591148,0.000301077951816],[0.000838349396319,0.000317613913821],[0.000782311687804,0.000327991267249],[0.000677824991388,0.000343664271711],[0.000489062874806,0.000348907663839],[0.000291570201156,0.000328652005003],[0.000132075793936,0.000241218323938],[0.00011540160196,0.000235379588203],[0.000081584614169,0.000229498372935],[-0.000128994607536,0.000192875899595],[-0.000242623341608,0.000147897859025],[-0.00031040745566,0.000121066647213],[-0.000384560637605,0.000091714346026],[-0.000386459406618,0.000091003757768],[-0.000474959434855,0.000059768453684],[-0.000542487336752,0.000023753572673],[-0.000552843062357,0.000018230519017],[-0.000552843062357,0.000018230519017],[-0.000580485002524,0.000014242245049],[-0.000619295938943,0.000007317767711],[-0.000688454894669,0.000000113709823],[-0.000725765277476,-0.000003772788386],[-0.000826235928364,-0.000014238481187],[-0.00095521524454,-0.000063845910485],[-0.001026434906054,-0.000111325684828],[-0.001060108205353,-0.000133774551027],[-0.001080600218492,-0.00014743589312],[-0.001091149374737,-0.000152895600731],[-0.001127522437475,-0.000166885240246],[-0.001216872000471,-0.000201250456782],[-0.001225835643072,-0.000204698011629],[-0.001272065406681,-0.000238086174236],[-0.001317043718765,-0.00027057051074],[-0.001380006084834,-0.000320040941222],[-0.001465048447993,-0.000386859940846],[-0.001543720477569,-0.000470776772391],[-0.00154635087124,-0.000473395654548],[-0.001671417867874,-0.000589619530203],[-0.001690555666185,-0.000641036414997],[-0.001703527007542,-0.000675886085439],[-0.001717879631531,-0.000714446801886],[-0.00171792583995,-0.000714570484905],[-0.001736658545311,-0.000764524365864],[-0.001755149569905,-0.000813833764777],[-0.001759680786422,-0.00082591700882],[-0.001760485263453,-0.000827937343226],[-0.001763142159955,-0.000834236953032],[-0.001785073206377,-0.000886236357212],[-0.001792869753797,-0.000904722288647],[-0.001825418728535,-0.000981897233265],[-0.00185587036752,-0.001054099309399],[-0.001910531493864,-0.001183703065956],[-0.001919261662099,-0.001204391739215],[-0.002143944299606,-0.00173684260947],[-0.002257724450308,-0.002006477775403],[-0.001078400334337,-0.002322614720273],[-0.001002469548346,-0.002047412603818],[-0.000984092364343,-0.001980806682822]],[[-0.000365994828741,-0.000472855057909],[-0.00036601381028,-0.000472891201981],[-0.000366020773942,-0.00047293142884],[-0.000409132465847,-0.00059941828801],[0.000295587982815,-0.000798030288217],[0.000355859377983,-0.000622152421311],[-0.000298800526206,-0.000439581365915],[-0.000350236881133,-0.000426318410377],[-0.000365994828741,-0.000472855057909]],[[-0.000484292982895,-0.000823219383218],[0.000217178137893,-0.001019922550087],[0.000277793197644,-0.000849013747442],[-0.000426423318274,-0.000650543771057],[-0.000484292982895,-0.000823219383218]],[[-0.00056398396956,-0.001048227360704],[0.000137640134013,-0.001248518745635],[0.000199305933835,-0.001070888841438],[-0.000501901656215,-0.000874259572597],[-0.00056398396956,-0.001048227360704]],[[-0.000644279216805,-0.001273178271842],[0.000057932192209,-0.001473669285553],[0.000119747327331,-0.001299462995717],[-0.000582139445332,-0.001099096627112],[-0.000644279216805,-0.001273178271842]],[[-0.000727563102812,-0.001500335189524],[-0.000021285279212,-0.001694912971568],[0.000039783617504,-0.001524540369365],[-0.000662661687851,-0.001323982575037],[-0.000727563102812,-0.001500335189524]],[[-0.00074608959539,-0.001551138132631],[-0.00079623263328,-0.001690263189777],[-0.000808914700871,-0.001726282664107],[-0.000099722454232,-0.001919559602207],[-0.000039265758758,-0.001745866339902],[-0.00074608959539,-0.001551138132631]],[[-0.000827037697746,-0.001777208276021],[-0.000889725259041,-0.001951030907663],[-0.000181657600197,-0.002145572802027],[-0.000117885445961,-0.001970474314274],[-0.000827037697746,-0.001777208276021]],[[-0.001700043824299,-0.001312465790584],[-0.001774002221738,-0.001462008044703],[-0.001120168581024,-0.001638303062753],[-0.001058340410858,-0.001457865749884],[-0.001656135449688,-0.00129656311081],[-0.001700043824299,-0.001312465790584]],[[-0.000967861982525,-0.001929378811896],[-0.000905116369421,-0.001755395211823],[-0.00111075601643,-0.001696664819915],[-0.001798063351223,-0.001511344194842],[-0.001876363492825,-0.001675257945253],[-0.000967861982525,-0.001929378811896]],[[-0.000872342383639,-0.001662990712034],[-0.000814042626855,-0.001501234318011],[-0.000814004538352,-0.001501248045756],[-0.000813949756907,-0.001500979330855],[-0.000735530015521,-0.001287894201215],[-0.000921255336345,-0.001226881329296],[-0.000998031219978,-0.001448136416694],[-0.00106815320112,-0.001652778116686],[-0.000886967182308,-0.00170452458702],[-0.000872442633988,-0.001663272118398],[-0.000872342383639,-0.001662990712034]],[[-0.000570043143653,-0.000824658541055],[-0.000495133163633,-0.000601136826496],[-0.000495066901728,-0.000600940776511],[-0.000464745872842,-0.000511980878604],[-0.000705234746482,-0.000604346592672],[-0.000903583450591,-0.001175953948949],[-0.000717267328262,-0.001237160905856],[-0.000650085523868,-0.001048954239633],[-0.000570043143653,-0.000824658541055]],[[0.000056273397281,-0.000305568610877],[-0.000207123684279,-0.00040919250039],[0.000373836349111,-0.000571210191959],[0.000469849781304,-0.000307900627925],[0.000056273397281,-0.000305568610877]]]]}}
]
}
