{
"type": "FeatureCollection",
"name": "house_nodes",
"crs": { "type": "name", "properties": { "name": "urn:ogc:def:crs:OGC:1.3:CRS84" } },
"features": [
{"type":"Feature","properties":{"fid":1,"id":1,"lot_number":1,"block_num":15,"name":null,"house_id":1},"geometry":{"type":"Point","coordinates":[-0.000986834039113,-0.001873704029711]}},
{"type":"Feature","properties":{"fid":2,"id":2,"lot_number":1,"block_num":1,"name":null,"house_id":2},"geometry":{"type":"Point","coordinates":[-0.000255383653765,-0.00221912911433]}},
{"type":"Feature","properties":{"fid":3,"id":3,"lot_number":2,"block_num":1,"name":null,"house_id":3},"geometry":{"type":"Point","coordinates":[-0.000342937624912,-0.002195006973162]}},
{"type":"Feature","properties":{"fid":4,"id":4,"lot_number":3,"block_num":1,"name":null,"house_id":4},"geometry":{"type":"Point","coordinates":[-0.000428876519313,-0.002171125353206]}},
{"type":"Feature","properties":{"fid":5,"id":5,"lot_number":4,"block_num":1,"name":null,"house_id":5},"geometry":{"type":"Point","coordinates":[-0.000514677212622,-0.002147212458092]}},
{"type":"Feature","properties":{"fid":6,"id":6,"lot_number":5,"block_num":1,"name":null,"house_id":6},"geometry":{"type":"Point","coordinates":[-0.00060135056125,-0.002123274210121]}},
{"type":"Feature","properties":{"fid":7,"id":7,"lot_number":6,"block_num":1,"name":null,"house_id":7},"geometry":{"type":"Point","coordinates":[-0.000687920034288,-0.002099227042707]}},
{"type":"Feature","properties":{"fid":8,"id":8,"lot_number":8,"block_num":1,"name":null,"house_id":8},"geometry":{"type":"Point","coordinates":[-0.000866273812561,-0.002049704449156]}},
{"type":"Feature","properties":{"fid":9,"id":9,"lot_number":7,"block_num":1,"name":null,"house_id":9},"geometry":{"type":"Point","coordinates":[-0.000774138518197,-0.002075312788358]}},
{"type":"Feature","properties":{"fid":10,"id":10,"lot_number":1,"block_num":16,"name":null,"house_id":10},"geometry":{"type":"Point","coordinates":[-0.001040369794765,-0.00200115469357]}},
{"type":"Feature","properties":{"fid":11,"id":11,"lot_number":2,"block_num":16,"name":null,"house_id":11},"geometry":{"type":"Point","coordinates":[-0.001130118431351,-0.00197659514815]}},
{"type":"Feature","properties":{"fid":12,"id":12,"lot_number":3,"block_num":16,"name":null,"house_id":12},"geometry":{"type":"Point","coordinates":[-0.001215932727393,-0.001952942838663]}},
{"type":"Feature","properties":{"fid":13,"id":13,"lot_number":4,"block_num":16,"name":null,"house_id":13},"geometry":{"type":"Point","coordinates":[-0.001302221982026,-0.001929301980035]}},
{"type":"Feature","properties":{"fid":14,"id":14,"lot_number":5,"block_num":16,"name":null,"house_id":14},"geometry":{"type":"Point","coordinates":[-0.001388315901226,-0.001905538078384]}},
{"type":"Feature","properties":{"fid":15,"id":15,"lot_number":6,"block_num":16,"name":null,"house_id":15},"geometry":{"type":"Point","coordinates":[-0.001474948277806,-0.001881806841922]}},
{"type":"Feature","properties":{"fid":16,"id":16,"lot_number":7,"block_num":16,"name":null,"house_id":16},"geometry":{"type":"Point","coordinates":[-0.001562282789743,-0.001857926782509]}},
{"type":"Feature","properties":{"fid":17,"id":17,"lot_number":8,"block_num":16,"name":null,"house_id":17},"geometry":{"type":"Point","coordinates":[-0.00164840189587,-0.001834168763949]}},
{"type":"Feature","properties":{"fid":18,"id":18,"lot_number":9,"block_num":16,"name":null,"house_id":18},"geometry":{"type":"Point","coordinates":[-0.001734089311358,-0.001810733102408]}},
{"type":"Feature","properties":{"fid":19,"id":19,"lot_number":10,"block_num":16,"name":null,"house_id":19},"geometry":{"type":"Point","coordinates":[-0.001820571626498,-0.001786854541692]}},
{"type":"Feature","properties":{"fid":20,"id":20,"lot_number":11,"block_num":16,"name":null,"house_id":20},"geometry":{"type":"Point","coordinates":[-0.001906605468971,-0.001763526580477]}},
{"type":"Feature","properties":{"fid":21,"id":21,"lot_number":12,"block_num":16,"name":null,"house_id":21},"geometry":{"type":"Point","coordinates":[-0.00200852210946,-0.001735951445478]}},
{"type":"Feature","properties":{"fid":22,"id":22,"lot_number":1,"block_num":17,"name":null,"house_id":22},"geometry":{"type":"Point","coordinates":[-0.000114747436741,-0.002263104148978]}},
{"type":"Feature","properties":{"fid":23,"id":23,"lot_number":2,"block_num":17,"name":null,"house_id":23},"geometry":{"type":"Point","coordinates":[-0.00009282247155,-0.002201967348105]}},
{"type":"Feature","properties":{"fid":24,"id":24,"lot_number":3,"block_num":17,"name":null,"house_id":24},"geometry":{"type":"Point","coordinates":[-0.000071705276187,-0.002142553064084]}},
{"type":"Feature","properties":{"fid":25,"id":25,"lot_number":4,"block_num":17,"name":null,"house_id":25},"geometry":{"type":"Point","coordinates":[-0.000050239953514,-0.002083066010872]}},
{"type":"Feature","properties":{"fid":26,"id":26,"lot_number":5,"block_num":17,"name":null,"house_id":26},"geometry":{"type":"Point","coordinates":[-0.000029287826193,-0.002024191130156]}},
{"type":"Feature","properties":{"fid":27,"id":27,"lot_number":1,"block_num":2,"name":null,"house_id":27},"geometry":{"type":"Point","coordinates":[-0.000199468854011,-0.002091962524898]}},
{"type":"Feature","properties":{"fid":28,"id":28,"lot_number":2,"block_num":2,"name":null,"house_id":28},"geometry":{"type":"Point","coordinates":[-0.000171440487135,-0.002003604156848]}},
{"type":"Feature","properties":{"fid":29,"id":29,"lot_number":4,"block_num":2,"name":null,"house_id":29},"geometry":{"type":"Point","coordinates":[-0.000268974515348,-0.002073846719116]}},
{"type":"Feature","properties":{"fid":30,"id":30,"lot_number":3,"block_num":2,"name":null,"house_id":30},"geometry":{"type":"Point","coordinates":[-0.000244810297375,-0.001984158013322]}},
{"type":"Feature","properties":{"fid":31,"id":31,"lot_number":5,"block_num":2,"name":null,"house_id":31},"geometry":{"type":"Point","coordinates":[-0.00033871546905,-0.002054807966404]}},
{"type":"Feature","properties":{"fid":32,"id":32,"lot_number":6,"block_num":2,"name":null,"house_id":32},"geometry":{"type":"Point","coordinates":[-0.000313979388365,-0.001965506580557]}},
{"type":"Feature","properties":{"fid":33,"id":33,"lot_number":8,"block_num":2,"name":null,"house_id":33},"geometry":{"type":"Point","coordinates":[-0.00040815617316,-0.002035503143168]}},
{"type":"Feature","properties":{"fid":34,"id":34,"lot_number":7,"block_num":2,"name":null,"house_id":34},"geometry":{"type":"Point","coordinates":[-0.000382620226163,-0.001946488748978]}},
{"type":"Feature","properties":{"fid":35,"id":35,"lot_number":9,"block_num":2,"name":null,"house_id":35},"geometry":{"type":"Point","coordinates":[-0.000477408894589,-0.002016397585086]}},
{"type":"Feature","properties":{"fid":36,"id":36,"lot_number":10,"block_num":2,"name":null,"house_id":36},"geometry":{"type":"Point","coordinates":[-0.000452021043996,-0.001927417627533]}},
{"type":"Feature","properties":{"fid":37,"id":37,"lot_number":12,"block_num":2,"name":null,"house_id":37},"geometry":{"type":"Point","coordinates":[-0.000546235814337,-0.001997479759735]}},
{"type":"Feature","properties":{"fid":38,"id":38,"lot_number":11,"block_num":2,"name":null,"house_id":38},"geometry":{"type":"Point","coordinates":[-0.00052096508385,-0.001908547960133]}},
{"type":"Feature","properties":{"fid":39,"id":39,"lot_number":13,"block_num":2,"name":null,"house_id":39},"geometry":{"type":"Point","coordinates":[-0.000615694168275,-0.001978264370977]}},
{"type":"Feature","properties":{"fid":40,"id":40,"lot_number":14,"block_num":2,"name":null,"house_id":40},"geometry":{"type":"Point","coordinates":[-0.000590893523993,-0.001889281575652]}},
{"type":"Feature","properties":{"fid":41,"id":41,"lot_number":16,"block_num":2,"name":null,"house_id":41},"geometry":{"type":"Point","coordinates":[-0.000685164303069,-0.001959359789873]}},
{"type":"Feature","properties":{"fid":42,"id":42,"lot_number":15,"block_num":2,"name":null,"house_id":42},"geometry":{"type":"Point","coordinates":[-0.000660395570904,-0.001870443671002]}},
{"type":"Feature","properties":{"fid":43,"id":43,"lot_number":17,"block_num":2,"name":null,"house_id":43},"geometry":{"type":"Point","coordinates":[-0.000754254531084,-0.001940271881638]}},
{"type":"Feature","properties":{"fid":44,"id":44,"lot_number":20,"block_num":2,"name":null,"house_id":44},"geometry":{"type":"Point","coordinates":[-0.000831549526895,-0.001919539356821]}},
{"type":"Feature","properties":{"fid":45,"id":45,"lot_number":19,"block_num":2,"name":null,"house_id":45},"geometry":{"type":"Point","coordinates":[-0.00080315821332,-0.001831803941843]}},
{"type":"Feature","properties":{"fid":46,"id":46,"lot_number":18,"block_num":2,"name":null,"house_id":46},"geometry":{"type":"Point","coordinates":[-0.000728937739519,-0.001851581549758]}},
{"type":"Feature","properties":{"fid":47,"id":47,"lot_number":2,"block_num":15,"name":null,"house_id":47},"geometry":{"type":"Point","coordinates":[-0.000959000423163,-0.001785749422673]}},
{"type":"Feature","properties":{"fid":48,"id":48,"lot_number":4,"block_num":15,"name":null,"house_id":48},"geometry":{"type":"Point","coordinates":[-0.001056951622427,-0.001854968447571]}},
{"type":"Feature","properties":{"fid":49,"id":49,"lot_number":3,"block_num":15,"name":null,"house_id":49},"geometry":{"type":"Point","coordinates":[-0.001032715799616,-0.001765713618062]}},
{"type":"Feature","properties":{"fid":50,"id":50,"lot_number":5,"block_num":16,"name":null,"house_id":50},"geometry":{"type":"Point","coordinates":[-0.001126305555466,-0.001835935414507]}},
{"type":"Feature","properties":{"fid":51,"id":51,"lot_number":6,"block_num":15,"name":null,"house_id":51},"geometry":{"type":"Point","coordinates":[-0.001101801106424,-0.001746479618988]}},
{"type":"Feature","properties":{"fid":52,"id":52,"lot_number":8,"block_num":15,"name":null,"house_id":52},"geometry":{"type":"Point","coordinates":[-0.001196196755401,-0.001816239269272]}},
{"type":"Feature","properties":{"fid":53,"id":53,"lot_number":7,"block_num":15,"name":null,"house_id":53},"geometry":{"type":"Point","coordinates":[-0.001171394501008,-0.001727037909218]}},
{"type":"Feature","properties":{"fid":54,"id":54,"lot_number":9,"block_num":15,"name":null,"house_id":54},"geometry":{"type":"Point","coordinates":[-0.001264907552506,-0.001797203032191]}},
{"type":"Feature","properties":{"fid":55,"id":55,"lot_number":10,"block_num":15,"name":null,"house_id":55},"geometry":{"type":"Point","coordinates":[-0.001240017109789,-0.00170839176729]}},
{"type":"Feature","properties":{"fid":56,"id":56,"lot_number":12,"block_num":15,"name":null,"house_id":56},"geometry":{"type":"Point","coordinates":[-0.001333362727069,-0.001778083163794]}},
{"type":"Feature","properties":{"fid":57,"id":57,"lot_number":13,"block_num":15,"name":null,"house_id":57},"geometry":{"type":"Point","coordinates":[-0.001403084415339,-0.00175848128854]}},
{"type":"Feature","properties":{"fid":58,"id":58,"lot_number":16,"block_num":15,"name":null,"house_id":58},"geometry":{"type":"Point","coordinates":[-0.001472494635966,-0.001738995012586]}},
{"type":"Feature","properties":{"fid":59,"id":59,"lot_number":11,"block_num":15,"name":null,"house_id":59},"geometry":{"type":"Point","coordinates":[-0.001300250957455,-0.001691847546656]}},
{"type":"Feature","properties":{"fid":60,"id":60,"lot_number":14,"block_num":15,"name":null,"house_id":60},"geometry":{"type":"Point","coordinates":[-0.001361987073031,-0.001674907297152]}},
{"type":"Feature","properties":{"fid":61,"id":61,"lot_number":15,"block_num":15,"name":null,"house_id":61},"geometry":{"type":"Point","coordinates":[-0.001431339937527,-0.001655935323221]}},
{"type":"Feature","properties":{"fid":62,"id":62,"lot_number":17,"block_num":15,"name":null,"house_id":62},"geometry":{"type":"Point","coordinates":[-0.001541424902091,-0.001720383218226]}},
{"type":"Feature","properties":{"fid":63,"id":63,"lot_number":20,"block_num":15,"name":null,"house_id":63},"geometry":{"type":"Point","coordinates":[-0.001609867314979,-0.001700833880074]}},
{"type":"Feature","properties":{"fid":64,"id":64,"lot_number":21,"block_num":15,"name":null,"house_id":64},"geometry":{"type":"Point","coordinates":[-0.001680155764818,-0.001681278110116]}},
{"type":"Feature","properties":{"fid":65,"id":65,"lot_number":24,"block_num":15,"name":null,"house_id":65},"geometry":{"type":"Point","coordinates":[-0.001786308599454,-0.001652626089944]}},
{"type":"Feature","properties":{"fid":66,"id":66,"lot_number":23,"block_num":15,"name":null,"house_id":66},"geometry":{"type":"Point","coordinates":[-0.001745796251835,-0.00157041140613]}},
{"type":"Feature","properties":{"fid":67,"id":67,"lot_number":22,"block_num":15,"name":null,"house_id":67},"geometry":{"type":"Point","coordinates":[-0.00163963593088,-0.001599231017235]}},
{"type":"Feature","properties":{"fid":68,"id":68,"lot_number":19,"block_num":15,"name":null,"house_id":68},"geometry":{"type":"Point","coordinates":[-0.001569568019784,-0.001617867571413]}},
{"type":"Feature","properties":{"fid":69,"id":69,"lot_number":18,"block_num":15,"name":null,"house_id":69},"geometry":{"type":"Point","coordinates":[-0.001500390242984,-0.001636994521535]}},
{"type":"Feature","properties":{"fid":70,"id":70,"lot_number":1,"block_num":3,"name":null,"house_id":70},"geometry":{"type":"Point","coordinates":[-0.000119936420878,-0.001867076804735]}},
{"type":"Feature","properties":{"fid":71,"id":71,"lot_number":2,"block_num":3,"name":null,"house_id":71},"geometry":{"type":"Point","coordinates":[-0.000092563767761,-0.001779398372976]}},
{"type":"Feature","properties":{"fid":72,"id":72,"lot_number":4,"block_num":3,"name":null,"house_id":72},"geometry":{"type":"Point","coordinates":[-0.000190248251135,-0.001848274938909]}},
{"type":"Feature","properties":{"fid":73,"id":73,"lot_number":3,"block_num":3,"name":null,"house_id":73},"geometry":{"type":"Point","coordinates":[-0.000166182591565,-0.001759565332916]}},
{"type":"Feature","properties":{"fid":74,"id":74,"lot_number":5,"block_num":3,"name":null,"house_id":74},"geometry":{"type":"Point","coordinates":[-0.00026038761008,-0.001829248004522]}},
{"type":"Feature","properties":{"fid":75,"id":75,"lot_number":6,"block_num":3,"name":null,"house_id":75},"geometry":{"type":"Point","coordinates":[-0.000236038889667,-0.001740539205988]}},
{"type":"Feature","properties":{"fid":76,"id":76,"lot_number":8,"block_num":3,"name":null,"house_id":76},"geometry":{"type":"Point","coordinates":[-0.000329909258524,-0.001809887103827]}},
{"type":"Feature","properties":{"fid":77,"id":77,"lot_number":7,"block_num":3,"name":null,"house_id":77},"geometry":{"type":"Point","coordinates":[-0.000304738141772,-0.00172155848326]}},
{"type":"Feature","properties":{"fid":78,"id":78,"lot_number":9,"block_num":3,"name":null,"house_id":78},"geometry":{"type":"Point","coordinates":[-0.000398749087952,-0.001791027391646]}},
{"type":"Feature","properties":{"fid":79,"id":79,"lot_number":10,"block_num":3,"name":null,"house_id":79},"geometry":{"type":"Point","coordinates":[-0.000374007104898,-0.00170193520694]}},
{"type":"Feature","properties":{"fid":80,"id":80,"lot_number":12,"block_num":3,"name":null,"house_id":80},"geometry":{"type":"Point","coordinates":[-0.000468232686223,-0.001771974088514]}},
{"type":"Feature","properties":{"fid":81,"id":81,"lot_number":11,"block_num":3,"name":null,"house_id":81},"geometry":{"type":"Point","coordinates":[-0.000444178505419,-0.001682885968719]}},
{"type":"Feature","properties":{"fid":82,"id":82,"lot_number":13,"block_num":3,"name":null,"house_id":82},"geometry":{"type":"Point","coordinates":[-0.000538238100861,-0.001752815077905]}},
{"type":"Feature","properties":{"fid":83,"id":83,"lot_number":16,"block_num":3,"name":null,"house_id":83},"geometry":{"type":"Point","coordinates":[-0.000607521982375,-0.001733613189527]}},
{"type":"Feature","properties":{"fid":84,"id":84,"lot_number":17,"block_num":3,"name":null,"house_id":84},"geometry":{"type":"Point","coordinates":[-0.000677575055533,-0.001714720382335]}},
{"type":"Feature","properties":{"fid":85,"id":85,"lot_number":20,"block_num":3,"name":null,"house_id":85},"geometry":{"type":"Point","coordinates":[-0.000753266226258,-0.00169409303482]}},
{"type":"Feature","properties":{"fid":86,"id":86,"lot_number":19,"block_num":3,"name":null,"house_id":86},"geometry":{"type":"Point","coordinates":[-0.000724521057225,-0.001605965089161]}},
{"type":"Feature","properties":{"fid":87,"id":87,"lot_number":18,"block_num":3,"name":null,"house_id":87},"geometry":{"type":"Point","coordinates":[-0.000652557310045,-0.001625537964361]}},
{"type":"Feature","properties":{"fid":88,"id":88,"lot_number":15,"block_num":3,"name":null,"house_id":88},"geometry":{"type":"Point","coordinates":[-0.000582983735935,-0.001644368765988]}},
{"type":"Feature","properties":{"fid":89,"id":89,"lot_number":14,"block_num":3,"name":null,"house_id":89},"geometry":{"type":"Point","coordinates":[-0.000513548551272,-0.001663816894079]}},
{"type":"Feature","properties":{"fid":90,"id":90,"lot_number":1,"block_num":4,"name":null,"house_id":90},"geometry":{"type":"Point","coordinates":[-0.000040521460482,-0.001641281300371]}},
{"type":"Feature","properties":{"fid":91,"id":91,"lot_number":2,"block_num":4,"name":null,"house_id":91},"geometry":{"type":"Point","coordinates":[-0.000013015076224,-0.001555213142808]}},
{"type":"Feature","properties":{"fid":92,"id":92,"lot_number":4,"block_num":4,"name":null,"house_id":92},"geometry":{"type":"Point","coordinates":[-0.000110123239805,-0.001622544072674]}},
{"type":"Feature","properties":{"fid":93,"id":93,"lot_number":3,"block_num":4,"name":null,"house_id":93},"geometry":{"type":"Point","coordinates":[-0.000085980487181,-0.00153503423948]}},
{"type":"Feature","properties":{"fid":94,"id":94,"lot_number":5,"block_num":4,"name":null,"house_id":94},"geometry":{"type":"Point","coordinates":[-0.000179318883989,-0.001603452320465]}},
{"type":"Feature","properties":{"fid":95,"id":95,"lot_number":6,"block_num":4,"name":null,"house_id":95},"geometry":{"type":"Point","coordinates":[-0.000155484658686,-0.001515500117684]}},
{"type":"Feature","properties":{"fid":96,"id":96,"lot_number":8,"block_num":4,"name":null,"house_id":96},"geometry":{"type":"Point","coordinates":[-0.000248540411675,-0.001584166733078]}},
{"type":"Feature","properties":{"fid":97,"id":97,"lot_number":7,"block_num":4,"name":null,"house_id":97},"geometry":{"type":"Point","coordinates":[-0.000224561697987,-0.001495910126156]}},
{"type":"Feature","properties":{"fid":98,"id":98,"lot_number":9,"block_num":4,"name":null,"house_id":98},"geometry":{"type":"Point","coordinates":[-0.000317986349086,-0.001564846319995]}},
{"type":"Feature","properties":{"fid":99,"id":99,"lot_number":10,"block_num":4,"name":null,"house_id":99},"geometry":{"type":"Point","coordinates":[-0.000293840164209,-0.001476293275438]}},
{"type":"Feature","properties":{"fid":100,"id":100,"lot_number":12,"block_num":4,"name":null,"house_id":100},"geometry":{"type":"Point","coordinates":[-0.000386958302231,-0.001545590196437]}},
{"type":"Feature","properties":{"fid":101,"id":101,"lot_number":11,"block_num":4,"name":null,"house_id":101},"geometry":{"type":"Point","coordinates":[-0.000362731953086,-0.001456713180117]}},
{"type":"Feature","properties":{"fid":102,"id":102,"lot_number":13,"block_num":4,"name":null,"house_id":102},"geometry":{"type":"Point","coordinates":[-0.000455639296489,-0.001526543131497]}},
{"type":"Feature","properties":{"fid":103,"id":103,"lot_number":14,"block_num":4,"name":null,"house_id":103},"geometry":{"type":"Point","coordinates":[-0.000431316774811,-0.001437345678962]}},
{"type":"Feature","properties":{"fid":104,"id":104,"lot_number":16,"block_num":4,"name":null,"house_id":104},"geometry":{"type":"Point","coordinates":[-0.000525259345664,-0.001507210901828]}},
{"type":"Feature","properties":{"fid":105,"id":105,"lot_number":17,"block_num":4,"name":null,"house_id":105},"geometry":{"type":"Point","coordinates":[-0.000594585801195,-0.001487867883533]}},
{"type":"Feature","properties":{"fid":106,"id":106,"lot_number":20,"block_num":4,"name":null,"house_id":106},"geometry":{"type":"Point","coordinates":[-0.000670266123394,-0.001467528016]}},
{"type":"Feature","properties":{"fid":107,"id":107,"lot_number":19,"block_num":4,"name":null,"house_id":107},"geometry":{"type":"Point","coordinates":[-0.000641409259899,-0.001378559263371]}},
{"type":"Feature","properties":{"fid":108,"id":108,"lot_number":15,"block_num":4,"name":null,"house_id":108},"geometry":{"type":"Point","coordinates":[-0.000500429174338,-0.001417809729873]}},
{"type":"Feature","properties":{"fid":109,"id":109,"lot_number":18,"block_num":4,"name":null,"house_id":109},"geometry":{"type":"Point","coordinates":[-0.000569368982938,-0.0013982095501]}},
{"type":"Feature","properties":{"fid":110,"id":110,"lot_number":1,"block_num":5,"name":null,"house_id":110},"geometry":{"type":"Point","coordinates":[0.000039038495686,-0.001417821156842]}},
{"type":"Feature","properties":{"fid":111,"id":111,"lot_number":4,"block_num":5,"name":null,"house_id":111},"geometry":{"type":"Point","coordinates":[-0.000030384785302,-0.001398955763409]}},
{"type":"Feature","properties":{"fid":112,"id":112,"lot_number":5,"block_num":5,"name":null,"house_id":112},"geometry":{"type":"Point","coordinates":[-0.000099835045058,-0.001379551664759]}},
{"type":"Feature","properties":{"fid":113,"id":113,"lot_number":8,"block_num":5,"name":null,"house_id":113},"geometry":{"type":"Point","coordinates":[-0.000169017942738,-0.00135989127148]}},
{"type":"Feature","properties":{"fid":114,"id":114,"lot_number":9,"block_num":5,"name":null,"house_id":114},"geometry":{"type":"Point","coordinates":[-0.000237629498335,-0.001340617030147]}},
{"type":"Feature","properties":{"fid":115,"id":115,"lot_number":12,"block_num":5,"name":null,"house_id":115},"geometry":{"type":"Point","coordinates":[-0.000306482705006,-0.001321165803566]}},
{"type":"Feature","properties":{"fid":116,"id":116,"lot_number":13,"block_num":5,"name":null,"house_id":116},"geometry":{"type":"Point","coordinates":[-0.000375456686942,-0.001301780840929]}},
{"type":"Feature","properties":{"fid":117,"id":117,"lot_number":16,"block_num":5,"name":null,"house_id":117},"geometry":{"type":"Point","coordinates":[-0.000444761984967,-0.001282229410853]}},
{"type":"Feature","properties":{"fid":118,"id":118,"lot_number":17,"block_num":5,"name":null,"house_id":118},"geometry":{"type":"Point","coordinates":[-0.000514259750699,-0.001262785404557]}},
{"type":"Feature","properties":{"fid":119,"id":119,"lot_number":20,"block_num":5,"name":null,"house_id":119},"geometry":{"type":"Point","coordinates":[-0.000589240102982,-0.001242031678569]}},
{"type":"Feature","properties":{"fid":120,"id":120,"lot_number":19,"block_num":5,"name":null,"house_id":120},"geometry":{"type":"Point","coordinates":[-0.000561020201208,-0.001154251867047]}},
{"type":"Feature","properties":{"fid":121,"id":121,"lot_number":18,"block_num":5,"name":null,"house_id":121},"geometry":{"type":"Point","coordinates":[-0.000489413432985,-0.001173970508582]}},
{"type":"Feature","properties":{"fid":122,"id":122,"lot_number":15,"block_num":5,"name":null,"house_id":122},"geometry":{"type":"Point","coordinates":[-0.000420569029554,-0.001193272561942]}},
{"type":"Feature","properties":{"fid":123,"id":123,"lot_number":14,"block_num":5,"name":null,"house_id":123},"geometry":{"type":"Point","coordinates":[-0.000351346931526,-0.001212745276986]}},
{"type":"Feature","properties":{"fid":124,"id":124,"lot_number":11,"block_num":5,"name":null,"house_id":124},"geometry":{"type":"Point","coordinates":[-0.000282387093401,-0.001232165231011]}},
{"type":"Feature","properties":{"fid":125,"id":125,"lot_number":2,"block_num":5,"name":null,"house_id":125},"geometry":{"type":"Point","coordinates":[0.000066652655503,-0.001329937738533]}},
{"type":"Feature","properties":{"fid":126,"id":126,"lot_number":3,"block_num":5,"name":null,"house_id":126},"geometry":{"type":"Point","coordinates":[-0.000006225630966,-0.001310036232405]}},
{"type":"Feature","properties":{"fid":127,"id":127,"lot_number":6,"block_num":5,"name":null,"house_id":127},"geometry":{"type":"Point","coordinates":[-0.000075532970083,-0.001290561217899]}},
{"type":"Feature","properties":{"fid":128,"id":128,"lot_number":7,"block_num":5,"name":null,"house_id":128},"geometry":{"type":"Point","coordinates":[-0.000144511561916,-0.001270971228563]}},
{"type":"Feature","properties":{"fid":129,"id":129,"lot_number":10,"block_num":5,"name":null,"house_id":129},"geometry":{"type":"Point","coordinates":[-0.000213336520047,-0.001251637110752]}},
{"type":"Feature","properties":{"fid":130,"id":130,"lot_number":1,"block_num":6,"name":null,"house_id":130},"geometry":{"type":"Point","coordinates":[0.000118163105762,-0.001193180133016]}},
{"type":"Feature","properties":{"fid":131,"id":131,"lot_number":4,"block_num":6,"name":null,"house_id":131},"geometry":{"type":"Point","coordinates":[0.000047600342789,-0.001174106437818]}},
{"type":"Feature","properties":{"fid":132,"id":132,"lot_number":5,"block_num":6,"name":null,"house_id":132},"geometry":{"type":"Point","coordinates":[-0.000021872755586,-0.001154585632524]}},
{"type":"Feature","properties":{"fid":133,"id":133,"lot_number":8,"block_num":6,"name":null,"house_id":133},"geometry":{"type":"Point","coordinates":[-0.000090598868236,-0.001135145535503]}},
{"type":"Feature","properties":{"fid":134,"id":134,"lot_number":9,"block_num":6,"name":null,"house_id":134},"geometry":{"type":"Point","coordinates":[-0.000160802241646,-0.001115675751339]}},
{"type":"Feature","properties":{"fid":135,"id":135,"lot_number":12,"block_num":6,"name":null,"house_id":135},"geometry":{"type":"Point","coordinates":[-0.000229948926815,-0.001096002519453]}},
{"type":"Feature","properties":{"fid":136,"id":136,"lot_number":13,"block_num":6,"name":null,"house_id":136},"geometry":{"type":"Point","coordinates":[-0.000298037228719,-0.001076927626628]}},
{"type":"Feature","properties":{"fid":137,"id":137,"lot_number":16,"block_num":6,"name":null,"house_id":137},"geometry":{"type":"Point","coordinates":[-0.000367398729283,-0.001057456710979]}},
{"type":"Feature","properties":{"fid":138,"id":138,"lot_number":17,"block_num":6,"name":null,"house_id":138},"geometry":{"type":"Point","coordinates":[-0.000436147757732,-0.001038200019334]}},
{"type":"Feature","properties":{"fid":139,"id":139,"lot_number":20,"block_num":6,"name":null,"house_id":139},"geometry":{"type":"Point","coordinates":[-0.00050971679425,-0.001017937844706]}},
{"type":"Feature","properties":{"fid":140,"id":140,"lot_number":2,"block_num":6,"name":null,"house_id":140},"geometry":{"type":"Point","coordinates":[0.000145897985509,-0.001103652896968]}},
{"type":"Feature","properties":{"fid":141,"id":141,"lot_number":3,"block_num":6,"name":null,"house_id":141},"geometry":{"type":"Point","coordinates":[0.000072531256612,-0.001083893032741]}},
{"type":"Feature","properties":{"fid":142,"id":142,"lot_number":6,"block_num":6,"name":null,"house_id":142},"geometry":{"type":"Point","coordinates":[0.000003447333479,-0.001064663415981]}},
{"type":"Feature","properties":{"fid":143,"id":143,"lot_number":7,"block_num":6,"name":null,"house_id":143},"geometry":{"type":"Point","coordinates":[-0.000065412656674,-0.001045354122092]}},
{"type":"Feature","properties":{"fid":144,"id":144,"lot_number":10,"block_num":6,"name":null,"house_id":144},"geometry":{"type":"Point","coordinates":[-0.000135195896769,-0.001026194221414]}},
{"type":"Feature","properties":{"fid":145,"id":145,"lot_number":11,"block_num":6,"name":null,"house_id":145},"geometry":{"type":"Point","coordinates":[-0.000203865819254,-0.00100681289031]}},
{"type":"Feature","properties":{"fid":146,"id":146,"lot_number":14,"block_num":6,"name":null,"house_id":146},"geometry":{"type":"Point","coordinates":[-0.000272365663479,-0.000987796775384]}},
{"type":"Feature","properties":{"fid":147,"id":147,"lot_number":15,"block_num":6,"name":null,"house_id":147},"geometry":{"type":"Point","coordinates":[-0.000341836840333,-0.000968471317084]}},
{"type":"Feature","properties":{"fid":148,"id":148,"lot_number":18,"block_num":6,"name":null,"house_id":148},"geometry":{"type":"Point","coordinates":[-0.000410360192342,-0.000949459925209]}},
{"type":"Feature","properties":{"fid":149,"id":149,"lot_number":19,"block_num":6,"name":null,"house_id":149},"geometry":{"type":"Point","coordinates":[-0.000481253936837,-0.000930237999857]}},
{"type":"Feature","properties":{"fid":150,"id":150,"lot_number":1,"block_num":7,"name":null,"house_id":150},"geometry":{"type":"Point","coordinates":[0.000197853397156,-0.000966281101657]}},
{"type":"Feature","properties":{"fid":151,"id":151,"lot_number":4,"block_num":7,"name":null,"house_id":151},"geometry":{"type":"Point","coordinates":[0.000128249365325,-0.000947501976728]}},
{"type":"Feature","properties":{"fid":152,"id":152,"lot_number":5,"block_num":7,"name":null,"house_id":152},"geometry":{"type":"Point","coordinates":[0.000058815553141,-0.000928233905131]}},
{"type":"Feature","properties":{"fid":153,"id":153,"lot_number":8,"block_num":7,"name":null,"house_id":153},"geometry":{"type":"Point","coordinates":[-0.00001096262324,-0.000908802188941]}},
{"type":"Feature","properties":{"fid":154,"id":154,"lot_number":9,"block_num":7,"name":null,"house_id":154},"geometry":{"type":"Point","coordinates":[-0.000080166429731,-0.000889593797097]}},
{"type":"Feature","properties":{"fid":155,"id":155,"lot_number":12,"block_num":7,"name":null,"house_id":155},"geometry":{"type":"Point","coordinates":[-0.000149045063043,-0.000870381099785]}},
{"type":"Feature","properties":{"fid":156,"id":156,"lot_number":13,"block_num":7,"name":null,"house_id":156},"geometry":{"type":"Point","coordinates":[-0.000218248006874,-0.000851077650856]}},
{"type":"Feature","properties":{"fid":157,"id":157,"lot_number":16,"block_num":7,"name":null,"house_id":157},"geometry":{"type":"Point","coordinates":[-0.000287472660311,-0.000831771309146]}},
{"type":"Feature","properties":{"fid":158,"id":158,"lot_number":17,"block_num":7,"name":null,"house_id":158},"geometry":{"type":"Point","coordinates":[-0.000356703296948,-0.000812612792119]}},
{"type":"Feature","properties":{"fid":159,"id":159,"lot_number":20,"block_num":7,"name":null,"house_id":159},"geometry":{"type":"Point","coordinates":[-0.000430862661895,-0.000792290681484]}},
{"type":"Feature","properties":{"fid":160,"id":160,"lot_number":2,"block_num":7,"name":null,"house_id":160},"geometry":{"type":"Point","coordinates":[0.000225347946792,-0.00088013676707]}},
{"type":"Feature","properties":{"fid":161,"id":161,"lot_number":3,"block_num":7,"name":null,"house_id":161},"geometry":{"type":"Point","coordinates":[0.000152803331944,-0.000860356912977]}},
{"type":"Feature","properties":{"fid":162,"id":162,"lot_number":6,"block_num":7,"name":null,"house_id":162},"geometry":{"type":"Point","coordinates":[0.000083137156459,-0.00084097176176]}},
{"type":"Feature","properties":{"fid":163,"id":163,"lot_number":7,"block_num":7,"name":null,"house_id":163},"geometry":{"type":"Point","coordinates":[0.000013381724555,-0.000821497162271]}},
{"type":"Feature","properties":{"fid":164,"id":164,"lot_number":10,"block_num":7,"name":null,"house_id":164},"geometry":{"type":"Point","coordinates":[-0.000055571110591,-0.000802311255771]}},
{"type":"Feature","properties":{"fid":165,"id":165,"lot_number":11,"block_num":7,"name":null,"house_id":165},"geometry":{"type":"Point","coordinates":[-0.000124113113821,-0.000783144409698]}},
{"type":"Feature","properties":{"fid":166,"id":166,"lot_number":14,"block_num":7,"name":null,"house_id":166},"geometry":{"type":"Point","coordinates":[-0.000193307543253,-0.000763792963546]}},
{"type":"Feature","properties":{"fid":167,"id":167,"lot_number":15,"block_num":7,"name":null,"house_id":167},"geometry":{"type":"Point","coordinates":[-0.000262885651735,-0.000744336331616]}},
{"type":"Feature","properties":{"fid":168,"id":168,"lot_number":18,"block_num":7,"name":null,"house_id":168},"geometry":{"type":"Point","coordinates":[-0.000332128843609,-0.000725131918429]}},
{"type":"Feature","properties":{"fid":169,"id":169,"lot_number":19,"block_num":7,"name":null,"house_id":169},"geometry":{"type":"Point","coordinates":[-0.000404026952913,-0.000705444223467]}},
{"type":"Feature","properties":{"fid":170,"id":170,"lot_number":1,"block_num":8,"name":null,"house_id":170},"geometry":{"type":"Point","coordinates":[0.000277107513847,-0.000743217505125]}},
{"type":"Feature","properties":{"fid":171,"id":171,"lot_number":4,"block_num":8,"name":null,"house_id":171},"geometry":{"type":"Point","coordinates":[0.000207663355838,-0.000724521571426]}},
{"type":"Feature","properties":{"fid":172,"id":172,"lot_number":5,"block_num":8,"name":null,"house_id":172},"geometry":{"type":"Point","coordinates":[0.000137988683074,-0.000704931034877]}},
{"type":"Feature","properties":{"fid":173,"id":173,"lot_number":8,"block_num":8,"name":null,"house_id":173},"geometry":{"type":"Point","coordinates":[0.000069146807352,-0.000685640735831]}},
{"type":"Feature","properties":{"fid":174,"id":174,"lot_number":9,"block_num":8,"name":null,"house_id":174},"geometry":{"type":"Point","coordinates":[-0.000000404686449,-0.000666343437897]}},
{"type":"Feature","properties":{"fid":175,"id":175,"lot_number":12,"block_num":8,"name":null,"house_id":175},"geometry":{"type":"Point","coordinates":[-0.000069765605792,-0.000646827801724]}},
{"type":"Feature","properties":{"fid":176,"id":176,"lot_number":13,"block_num":8,"name":null,"house_id":176},"geometry":{"type":"Point","coordinates":[-0.000139139048275,-0.000627289860685]}},
{"type":"Feature","properties":{"fid":177,"id":177,"lot_number":16,"block_num":8,"name":null,"house_id":177},"geometry":{"type":"Point","coordinates":[-0.000208526157096,-0.00060802157801]}},
{"type":"Feature","properties":{"fid":178,"id":178,"lot_number":17,"block_num":8,"name":null,"house_id":178},"geometry":{"type":"Point","coordinates":[-0.000277654209848,-0.000588579081411]}},
{"type":"Feature","properties":{"fid":179,"id":179,"lot_number":20,"block_num":8,"name":null,"house_id":179},"geometry":{"type":"Point","coordinates":[-0.000353578248432,-0.00056775964951]}},
{"type":"Feature","properties":{"fid":180,"id":180,"lot_number":2,"block_num":8,"name":null,"house_id":180},"geometry":{"type":"Point","coordinates":[0.000304308338905,-0.000654629911433]}},
{"type":"Feature","properties":{"fid":181,"id":181,"lot_number":3,"block_num":8,"name":null,"house_id":181},"geometry":{"type":"Point","coordinates":[0.000232167232626,-0.000635240199635]}},
{"type":"Feature","properties":{"fid":182,"id":182,"lot_number":6,"block_num":8,"name":null,"house_id":182},"geometry":{"type":"Point","coordinates":[0.000162512713322,-0.000615821811765]}},
{"type":"Feature","properties":{"fid":183,"id":183,"lot_number":7,"block_num":8,"name":null,"house_id":183},"geometry":{"type":"Point","coordinates":[0.000093281583584,-0.00059657528177]}},
{"type":"Feature","properties":{"fid":184,"id":184,"lot_number":10,"block_num":8,"name":null,"house_id":184},"geometry":{"type":"Point","coordinates":[0.000023994917737,-0.00057750124777]}},
{"type":"Feature","properties":{"fid":185,"id":185,"lot_number":11,"block_num":8,"name":null,"house_id":185},"geometry":{"type":"Point","coordinates":[-0.000044738604858,-0.000558318094144]}},
{"type":"Feature","properties":{"fid":186,"id":186,"lot_number":14,"block_num":8,"name":null,"house_id":186},"geometry":{"type":"Point","coordinates":[-0.000114340498401,-0.000538876575838]}},
{"type":"Feature","properties":{"fid":187,"id":187,"lot_number":15,"block_num":8,"name":null,"house_id":187},"geometry":{"type":"Point","coordinates":[-0.000183742742069,-0.000519754571327]}},
{"type":"Feature","properties":{"fid":188,"id":188,"lot_number":18,"block_num":8,"name":null,"house_id":188},"geometry":{"type":"Point","coordinates":[-0.000252585742331,-0.000500548259358]}},
{"type":"Feature","properties":{"fid":189,"id":189,"lot_number":19,"block_num":8,"name":null,"house_id":189},"geometry":{"type":"Point","coordinates":[-0.000326355762252,-0.000480512629122]}},
{"type":"Feature","properties":{"fid":190,"id":190,"lot_number":1,"block_num":9,"name":null,"house_id":190},"geometry":{"type":"Point","coordinates":[0.000343945474701,-0.000502590048825]}},
{"type":"Feature","properties":{"fid":191,"id":191,"lot_number":4,"block_num":9,"name":null,"house_id":191},"geometry":{"type":"Point","coordinates":[0.00025221470397,-0.000477603580293]}},
{"type":"Feature","properties":{"fid":192,"id":192,"lot_number":5,"block_num":9,"name":null,"house_id":192},"geometry":{"type":"Point","coordinates":[0.000166380039425,-0.000453937119865]}},
{"type":"Feature","properties":{"fid":193,"id":193,"lot_number":8,"block_num":9,"name":null,"house_id":193},"geometry":{"type":"Point","coordinates":[0.000078870327663,-0.000430112227434]}},
{"type":"Feature","properties":{"fid":194,"id":194,"lot_number":9,"block_num":9,"name":null,"house_id":194},"geometry":{"type":"Point","coordinates":[-0.000005858958812,-0.000406207413685]}},
{"type":"Feature","properties":{"fid":195,"id":195,"lot_number":10,"block_num":9,"name":null,"house_id":195},"geometry":{"type":"Point","coordinates":[-0.000100635134726,-0.000399520982132]}},
{"type":"Feature","properties":{"fid":196,"id":196,"lot_number":7,"block_num":9,"name":null,"house_id":196},"geometry":{"type":"Point","coordinates":[0.000082812904409,-0.000338902515963]}},
{"type":"Feature","properties":{"fid":197,"id":197,"lot_number":2,"block_num":9,"name":null,"house_id":197},"geometry":{"type":"Point","coordinates":[0.000386953342297,-0.000377198679586]}},
{"type":"Feature","properties":{"fid":198,"id":198,"lot_number":3,"block_num":9,"name":null,"house_id":198},"geometry":{"type":"Point","coordinates":[0.000284669099092,-0.000364730086785]}},
{"type":"Feature","properties":{"fid":199,"id":199,"lot_number":6,"block_num":9,"name":null,"house_id":199},"geometry":{"type":"Point","coordinates":[0.000195139868234,-0.000353050111464]}},
{"type":"Feature","properties":{"fid":200,"id":200,"lot_number":6,"block_num":17,"name":null,"house_id":200},"geometry":{"type":"Point","coordinates":[-0.000008088990154,-0.001965230829921]}},
{"type":"Feature","properties":{"fid":201,"id":201,"lot_number":7,"block_num":17,"name":null,"house_id":201},"geometry":{"type":"Point","coordinates":[0.000012808994618,-0.001905990674573]}},
{"type":"Feature","properties":{"fid":202,"id":202,"lot_number":7,"block_num":17,"name":null,"house_id":202},"geometry":{"type":"Point","coordinates":[0.000033773097569,-0.001846954123437]}},
{"type":"Feature","properties":{"fid":203,"id":203,"lot_number":9,"block_num":17,"name":null,"house_id":203},"geometry":{"type":"Point","coordinates":[0.000054367697846,-0.001787975395589]}},
{"type":"Feature","properties":{"fid":204,"id":204,"lot_number":10,"block_num":17,"name":null,"house_id":204},"geometry":{"type":"Point","coordinates":[0.000075853204031,-0.001729477202947]}},
{"type":"Feature","properties":{"fid":205,"id":205,"lot_number":11,"block_num":17,"name":null,"house_id":205},"geometry":{"type":"Point","coordinates":[0.000096080537529,-0.001670789728123]}},
{"type":"Feature","properties":{"fid":206,"id":206,"lot_number":12,"block_num":17,"name":null,"house_id":206},"geometry":{"type":"Point","coordinates":[0.000117436034107,-0.001611087882663]}},
{"type":"Feature","properties":{"fid":207,"id":207,"lot_number":13,"block_num":17,"name":null,"house_id":207},"geometry":{"type":"Point","coordinates":[0.000138832760485,-0.001550935459994]}},
{"type":"Feature","properties":{"fid":208,"id":208,"lot_number":14,"block_num":17,"name":null,"house_id":208},"geometry":{"type":"Point","coordinates":[0.000159894623168,-0.001491573275711]}},
{"type":"Feature","properties":{"fid":209,"id":209,"lot_number":15,"block_num":17,"name":null,"house_id":209},"geometry":{"type":"Point","coordinates":[0.000181200378055,-0.001432545706769]}},
{"type":"Feature","properties":{"fid":210,"id":210,"lot_number":16,"block_num":17,"name":null,"house_id":210},"geometry":{"type":"Point","coordinates":[0.00020175766372,-0.00137476599689]}},
{"type":"Feature","properties":{"fid":211,"id":211,"lot_number":17,"block_num":17,"name":null,"house_id":211},"geometry":{"type":"Point","coordinates":[0.000222176639133,-0.001315736611683]}},
{"type":"Feature","properties":{"fid":212,"id":212,"lot_number":19,"block_num":17,"name":null,"house_id":212},"geometry":{"type":"Point","coordinates":[0.000243976783363,-0.001255886170596]}},
{"type":"Feature","properties":{"fid":213,"id":213,"lot_number":20,"block_num":17,"name":null,"house_id":213},"geometry":{"type":"Point","coordinates":[0.000264355470576,-0.001197101713872]}},
{"type":"Feature","properties":{"fid":214,"id":214,"lot_number":21,"block_num":17,"name":null,"house_id":214},"geometry":{"type":"Point","coordinates":[0.000284830810794,-0.001138292065348]}},
{"type":"Feature","properties":{"fid":215,"id":215,"lot_number":22,"block_num":17,"name":null,"house_id":215},"geometry":{"type":"Point","coordinates":[0.000305695673196,-0.001078548936468]}},
{"type":"Feature","properties":{"fid":216,"id":216,"lot_number":1,"block_num":18,"name":null,"house_id":216},"geometry":{"type":"Point","coordinates":[0.000648300493117,-0.000113663938835]}},
{"type":"Feature","properties":{"fid":217,"id":217,"lot_number":2,"block_num":18,"name":null,"house_id":217},"geometry":{"type":"Point","coordinates":[0.000619191853683,-0.000189425320898]}},
{"type":"Feature","properties":{"fid":218,"id":218,"lot_number":3,"block_num":18,"name":null,"house_id":218},"geometry":{"type":"Point","coordinates":[0.000598442049846,-0.000249503905876]}},
{"type":"Feature","properties":{"fid":219,"id":219,"lot_number":4,"block_num":18,"name":null,"house_id":219},"geometry":{"type":"Point","coordinates":[0.000577553383069,-0.000308915353042]}},
{"type":"Feature","properties":{"fid":220,"id":220,"lot_number":5,"block_num":18,"name":null,"house_id":220},"geometry":{"type":"Point","coordinates":[0.000556870090408,-0.000367942135736]}},
{"type":"Feature","properties":{"fid":221,"id":221,"lot_number":6,"block_num":18,"name":null,"house_id":221},"geometry":{"type":"Point","coordinates":[0.000536268079221,-0.000426405498776]}},
{"type":"Feature","properties":{"fid":222,"id":222,"lot_number":7,"block_num":18,"name":null,"house_id":222},"geometry":{"type":"Point","coordinates":[0.000514739243945,-0.000486424060883]}},
{"type":"Feature","properties":{"fid":223,"id":223,"lot_number":8,"block_num":18,"name":null,"house_id":223},"geometry":{"type":"Point","coordinates":[0.000494021864462,-0.000546519386589]}},
{"type":"Feature","properties":{"fid":224,"id":224,"lot_number":9,"block_num":18,"name":null,"house_id":224},"geometry":{"type":"Point","coordinates":[0.000472608717052,-0.000605576873778]}},
{"type":"Feature","properties":{"fid":225,"id":225,"lot_number":10,"block_num":18,"name":null,"house_id":225},"geometry":{"type":"Point","coordinates":[0.000452655119275,-0.000664048077126]}},
{"type":"Feature","properties":{"fid":226,"id":226,"lot_number":11,"block_num":18,"name":null,"house_id":226},"geometry":{"type":"Point","coordinates":[0.000431663269694,-0.000722718578423]}},
{"type":"Feature","properties":{"fid":227,"id":227,"lot_number":12,"block_num":18,"name":null,"house_id":227},"geometry":{"type":"Point","coordinates":[0.000410470127058,-0.000782734088943]}},
{"type":"Feature","properties":{"fid":228,"id":228,"lot_number":13,"block_num":18,"name":null,"house_id":228},"geometry":{"type":"Point","coordinates":[0.000389466845288,-0.000841897215303]}},
{"type":"Feature","properties":{"fid":229,"id":229,"lot_number":14,"block_num":18,"name":null,"house_id":229},"geometry":{"type":"Point","coordinates":[0.000368643648629,-0.000901167615887]}},
{"type":"Feature","properties":{"fid":230,"id":230,"lot_number":15,"block_num":18,"name":null,"house_id":230},"geometry":{"type":"Point","coordinates":[0.000347939353282,-0.000960311096574]}},
{"type":"Feature","properties":{"fid":231,"id":231,"lot_number":16,"block_num":18,"name":null,"house_id":231},"geometry":{"type":"Point","coordinates":[0.000326695448971,-0.001019031511449]}},
{"type":"Feature","properties":{"fid":232,"id":232,"lot_number":1,"block_num":10,"name":null,"house_id":232},"geometry":{"type":"Point","coordinates":[-0.000272070396362,-0.000318883514989]}},
{"type":"Feature","properties":{"fid":233,"id":233,"lot_number":2,"block_num":10,"name":null,"house_id":233},"geometry":{"type":"Point","coordinates":[-0.000193594127936,-0.000295965384168]}},
{"type":"Feature","properties":{"fid":234,"id":234,"lot_number":3,"block_num":10,"name":null,"house_id":234},"geometry":{"type":"Point","coordinates":[-0.000229494811731,-0.000209655849365]}},
{"type":"Feature","properties":{"fid":235,"id":235,"lot_number":4,"block_num":10,"name":null,"house_id":235},"geometry":{"type":"Point","coordinates":[-0.000160643999113,-0.000181777222372]}},
{"type":"Feature","properties":{"fid":236,"id":236,"lot_number":5,"block_num":10,"name":null,"house_id":236},"geometry":{"type":"Point","coordinates":[-0.000127502906624,-0.0002698771784]}},
{"type":"Feature","properties":{"fid":237,"id":237,"lot_number":6,"block_num":10,"name":null,"house_id":237},"geometry":{"type":"Point","coordinates":[-0.000060933953132,-0.000244238421288]}},
{"type":"Feature","properties":{"fid":238,"id":238,"lot_number":7,"block_num":10,"name":null,"house_id":238},"geometry":{"type":"Point","coordinates":[-0.000093917717,-0.000156777553383]}},
{"type":"Feature","properties":{"fid":239,"id":239,"lot_number":8,"block_num":10,"name":null,"house_id":239},"geometry":{"type":"Point","coordinates":[-0.000019504287164,-0.000126868152182]}},
{"type":"Feature","properties":{"fid":240,"id":240,"lot_number":9,"block_num":10,"name":null,"house_id":240},"geometry":{"type":"Point","coordinates":[0.000004890221679,-0.000216919487267]}},
{"type":"Feature","properties":{"fid":241,"id":241,"lot_number":11,"block_num":10,"name":null,"house_id":241},"geometry":{"type":"Point","coordinates":[0.000066720022347,-0.000112467790826]}},
{"type":"Feature","properties":{"fid":242,"id":242,"lot_number":10,"block_num":10,"name":null,"house_id":242},"geometry":{"type":"Point","coordinates":[0.000074322300569,-0.00020420863975]}},
{"type":"Feature","properties":{"fid":243,"id":243,"lot_number":12,"block_num":10,"name":null,"house_id":243},"geometry":{"type":"Point","coordinates":[0.000146570779475,-0.000113565507652]}},
{"type":"Feature","properties":{"fid":244,"id":244,"lot_number":13,"block_num":10,"name":null,"house_id":244},"geometry":{"type":"Point","coordinates":[0.000146512450786,-0.00020596083898]}},
{"type":"Feature","properties":{"fid":245,"id":245,"lot_number":14,"block_num":10,"name":null,"house_id":245},"geometry":{"type":"Point","coordinates":[0.000218840200946,-0.000205996179911]}},
{"type":"Feature","properties":{"fid":246,"id":246,"lot_number":15,"block_num":10,"name":null,"house_id":246},"geometry":{"type":"Point","coordinates":[0.000219005086556,-0.000113352468954]}},
{"type":"Feature","properties":{"fid":247,"id":247,"lot_number":17,"block_num":10,"name":null,"house_id":247},"geometry":{"type":"Point","coordinates":[0.000291104480846,-0.000206127216936]}},
{"type":"Feature","properties":{"fid":248,"id":248,"lot_number":16,"block_num":10,"name":null,"house_id":248},"geometry":{"type":"Point","coordinates":[0.000291255278891,-0.000113231512303]}},
{"type":"Feature","properties":{"fid":249,"id":249,"lot_number":18,"block_num":10,"name":null,"house_id":249},"geometry":{"type":"Point","coordinates":[0.000362330133593,-0.000206152166189]}},
{"type":"Feature","properties":{"fid":250,"id":250,"lot_number":19,"block_num":10,"name":null,"house_id":250},"geometry":{"type":"Point","coordinates":[0.000362355044776,-0.00011301657021]}},
{"type":"Feature","properties":{"fid":251,"id":251,"lot_number":20,"block_num":10,"name":null,"house_id":251},"geometry":{"type":"Point","coordinates":[0.00043380633357,-0.000112826017468]}},
{"type":"Feature","properties":{"fid":252,"id":252,"lot_number":21,"block_num":10,"name":null,"house_id":252},"geometry":{"type":"Point","coordinates":[0.00045337602041,-0.000203507342304]}},
{"type":"Feature","properties":{"fid":253,"id":253,"lot_number":22,"block_num":10,"name":null,"house_id":253},"geometry":{"type":"Point","coordinates":[0.000533555010988,-0.000110165951834]}},
{"type":"Feature","properties":{"fid":254,"id":254,"lot_number":1,"block_num":11,"name":null,"house_id":254},"geometry":{"type":"Point","coordinates":[-0.000418867918274,-0.000275159754227]}},
{"type":"Feature","properties":{"fid":255,"id":255,"lot_number":2,"block_num":11,"name":null,"house_id":255},"geometry":{"type":"Point","coordinates":[-0.000489836656984,-0.00031145135115]}},
{"type":"Feature","properties":{"fid":256,"id":256,"lot_number":3,"block_num":11,"name":null,"house_id":256},"geometry":{"type":"Point","coordinates":[-0.000455016794664,-0.000393148621384]}},
{"type":"Feature","properties":{"fid":257,"id":257,"lot_number":4,"block_num":11,"name":null,"house_id":257},"geometry":{"type":"Point","coordinates":[-0.00052147592625,-0.000427303512006]}},
{"type":"Feature","properties":{"fid":258,"id":258,"lot_number":5,"block_num":11,"name":null,"house_id":258},"geometry":{"type":"Point","coordinates":[-0.000555996073989,-0.000337298526316]}},
{"type":"Feature","properties":{"fid":259,"id":259,"lot_number":6,"block_num":11,"name":null,"house_id":259},"geometry":{"type":"Point","coordinates":[-0.000623335923448,-0.000363337287464]}},
{"type":"Feature","properties":{"fid":260,"id":260,"lot_number":7,"block_num":11,"name":null,"house_id":260},"geometry":{"type":"Point","coordinates":[-0.000588936376915,-0.000453215420448]}},
{"type":"Feature","properties":{"fid":261,"id":261,"lot_number":8,"block_num":11,"name":null,"house_id":261},"geometry":{"type":"Point","coordinates":[-0.000656332066536,-0.000479020933246]}},
{"type":"Feature","properties":{"fid":262,"id":262,"lot_number":9,"block_num":11,"name":null,"house_id":262},"geometry":{"type":"Point","coordinates":[-0.000689894057404,-0.000388970662007]}},
{"type":"Feature","properties":{"fid":263,"id":263,"lot_number":10,"block_num":11,"name":null,"house_id":263},"geometry":{"type":"Point","coordinates":[-0.000756794317227,-0.000414421464369]}},
{"type":"Feature","properties":{"fid":264,"id":264,"lot_number":13,"block_num":11,"name":null,"house_id":264},"geometry":{"type":"Point","coordinates":[-0.000826015685163,-0.000441674106871]}},
{"type":"Feature","properties":{"fid":265,"id":265,"lot_number":12,"block_num":11,"name":null,"house_id":265},"geometry":{"type":"Point","coordinates":[-0.000791594170339,-0.0005319942619]}},
{"type":"Feature","properties":{"fid":266,"id":266,"lot_number":11,"block_num":11,"name":null,"house_id":266},"geometry":{"type":"Point","coordinates":[-0.000723302130549,-0.000504415273177]}},
{"type":"Feature","properties":{"fid":267,"id":267,"lot_number":15,"block_num":11,"name":null,"house_id":267},"geometry":{"type":"Point","coordinates":[-0.001597158453873,-0.001187356500793]}},
{"type":"Feature","properties":{"fid":268,"id":268,"lot_number":16,"block_num":11,"name":null,"house_id":268},"geometry":{"type":"Point","coordinates":[-0.001671917735649,-0.001193607212656]}},
{"type":"Feature","properties":{"fid":269,"id":269,"lot_number":17,"block_num":11,"name":null,"house_id":269},"geometry":{"type":"Point","coordinates":[-0.001745799408131,-0.001216672077038]}},
{"type":"Feature","properties":{"fid":270,"id":270,"lot_number":18,"block_num":11,"name":null,"house_id":270},"geometry":{"type":"Point","coordinates":[-0.001792696019288,-0.001259467532068]}},
{"type":"Feature","properties":{"fid":271,"id":271,"lot_number":19,"block_num":11,"name":null,"house_id":271},"geometry":{"type":"Point","coordinates":[-0.001820162534226,-0.001324581328927]}},
{"type":"Feature","properties":{"fid":272,"id":272,"lot_number":20,"block_num":11,"name":null,"house_id":272},"geometry":{"type":"Point","coordinates":[-0.001851475223053,-0.001387990789218]}},
{"type":"Feature","properties":{"fid":273,"id":273,"lot_number":21,"block_num":11,"name":null,"house_id":273},"geometry":{"type":"Point","coordinates":[-0.001882784442151,-0.001452398747902]}},
{"type":"Feature","properties":{"fid":274,"id":274,"lot_number":22,"block_num":11,"name":null,"house_id":274},"geometry":{"type":"Point","coordinates":[-0.001914305712249,-0.001517192416017]}},
{"type":"Feature","properties":{"fid":275,"id":275,"lot_number":23,"block_num":11,"name":null,"house_id":275},"geometry":{"type":"Point","coordinates":[-0.001945731083718,-0.001581715988758]}},
{"type":"Feature","properties":{"fid":276,"id":276,"lot_number":24,"block_num":11,"name":null,"house_id":276},"geometry":{"type":"Point","coordinates":[-0.001982750618653,-0.001654569440932]}},
{"type":"Feature","properties":{"fid":277,"id":277,"lot_number":1,"block_num":14,"name":null,"house_id":277},"geometry":{"type":"Point","coordinates":[-0.001711761166784,-0.001430862975896]}},
{"type":"Feature","properties":{"fid":278,"id":278,"lot_number":2,"block_num":14,"name":null,"house_id":278},"geometry":{"type":"Point","coordinates":[-0.001639889605174,-0.001352237616596]}},
{"type":"Feature","properties":{"fid":279,"id":279,"lot_number":3,"block_num":14,"name":null,"house_id":279},"geometry":{"type":"Point","coordinates":[-0.001634826003031,-0.001449742605061]}},
{"type":"Feature","properties":{"fid":280,"id":280,"lot_number":4,"block_num":14,"name":null,"house_id":280},"geometry":{"type":"Point","coordinates":[-0.001565643750204,-0.001468790650459]}},
{"type":"Feature","properties":{"fid":281,"id":281,"lot_number":5,"block_num":14,"name":null,"house_id":281},"geometry":{"type":"Point","coordinates":[-0.001538750177826,-0.001377441848671]}},
{"type":"Feature","properties":{"fid":282,"id":282,"lot_number":6,"block_num":14,"name":null,"house_id":282},"geometry":{"type":"Point","coordinates":[-0.00147027249187,-0.001396030336838]}},
{"type":"Feature","properties":{"fid":283,"id":283,"lot_number":7,"block_num":14,"name":null,"house_id":283},"geometry":{"type":"Point","coordinates":[-0.001496904162586,-0.001487442730392]}},
{"type":"Feature","properties":{"fid":284,"id":284,"lot_number":8,"block_num":14,"name":null,"house_id":284},"geometry":{"type":"Point","coordinates":[-0.001426744438801,-0.001506547198665]}},
{"type":"Feature","properties":{"fid":285,"id":285,"lot_number":9,"block_num":14,"name":null,"house_id":285},"geometry":{"type":"Point","coordinates":[-0.00140047814809,-0.001415044315955]}},
{"type":"Feature","properties":{"fid":286,"id":286,"lot_number":10,"block_num":14,"name":null,"house_id":286},"geometry":{"type":"Point","coordinates":[-0.00133097147015,-0.001433828688815]}},
{"type":"Feature","properties":{"fid":287,"id":287,"lot_number":11,"block_num":14,"name":null,"house_id":287},"geometry":{"type":"Point","coordinates":[-0.001357124860057,-0.001525357122752]}},
{"type":"Feature","properties":{"fid":288,"id":288,"lot_number":12,"block_num":14,"name":null,"house_id":288},"geometry":{"type":"Point","coordinates":[-0.001288139375637,-0.001544245484525]}},
{"type":"Feature","properties":{"fid":289,"id":289,"lot_number":13,"block_num":14,"name":null,"house_id":289},"geometry":{"type":"Point","coordinates":[-0.001262281404909,-0.001452649939375]}},
{"type":"Feature","properties":{"fid":290,"id":290,"lot_number":14,"block_num":14,"name":null,"house_id":290},"geometry":{"type":"Point","coordinates":[-0.001192363568147,-0.001471585693192]}},
{"type":"Feature","properties":{"fid":291,"id":291,"lot_number":15,"block_num":14,"name":null,"house_id":291},"geometry":{"type":"Point","coordinates":[-0.001217571373762,-0.001563352580627]}},
{"type":"Feature","properties":{"fid":292,"id":292,"lot_number":16,"block_num":14,"name":null,"house_id":292},"geometry":{"type":"Point","coordinates":[-0.001143332394657,-0.001582866514228]}},
{"type":"Feature","properties":{"fid":293,"id":293,"lot_number":17,"block_num":14,"name":null,"house_id":293},"geometry":{"type":"Point","coordinates":[-0.001115344883397,-0.001491865035317]}},
{"type":"Feature","properties":{"fid":294,"id":294,"lot_number":1,"block_num":13,"name":null,"house_id":294},"geometry":{"type":"Point","coordinates":[-0.00091987687131,-0.001654715712419]}},
{"type":"Feature","properties":{"fid":295,"id":295,"lot_number":2,"block_num":13,"name":null,"house_id":295},"geometry":{"type":"Point","coordinates":[-0.001009635605015,-0.001625874620225]}},
{"type":"Feature","properties":{"fid":296,"id":296,"lot_number":4,"block_num":13,"name":null,"house_id":296},"geometry":{"type":"Point","coordinates":[-0.000894382514066,-0.001584853764095]}},
{"type":"Feature","properties":{"fid":297,"id":297,"lot_number":3,"block_num":13,"name":null,"house_id":297},"geometry":{"type":"Point","coordinates":[-0.000983577901132,-0.001552961053588]}},
{"type":"Feature","properties":{"fid":298,"id":298,"lot_number":5,"block_num":13,"name":null,"house_id":298},"geometry":{"type":"Point","coordinates":[-0.00087058873054,-0.00151824931971]}},
{"type":"Feature","properties":{"fid":299,"id":299,"lot_number":6,"block_num":13,"name":null,"house_id":299},"geometry":{"type":"Point","coordinates":[-0.000960120373728,-0.001485939080013]}},
{"type":"Feature","properties":{"fid":300,"id":300,"lot_number":7,"block_num":13,"name":null,"house_id":300},"geometry":{"type":"Point","coordinates":[-0.000936341029576,-0.001418188926519]}},
{"type":"Feature","properties":{"fid":301,"id":301,"lot_number":8,"block_num":13,"name":null,"house_id":301},"geometry":{"type":"Point","coordinates":[-0.000846208467119,-0.001450644341742]}},
{"type":"Feature","properties":{"fid":302,"id":302,"lot_number":9,"block_num":13,"name":null,"house_id":302},"geometry":{"type":"Point","coordinates":[-0.000821628631407,-0.001382263610385]}},
{"type":"Feature","properties":{"fid":303,"id":303,"lot_number":10,"block_num":13,"name":null,"house_id":303},"geometry":{"type":"Point","coordinates":[-0.000912477269781,-0.001349611769607]}},
{"type":"Feature","properties":{"fid":304,"id":304,"lot_number":12,"block_num":13,"name":null,"house_id":304},"geometry":{"type":"Point","coordinates":[-0.000795355504419,-0.001310529247952]}},
{"type":"Feature","properties":{"fid":305,"id":305,"lot_number":11,"block_num":13,"name":null,"house_id":305},"geometry":{"type":"Point","coordinates":[-0.00088741725846,-0.001278824895579]}},
{"type":"Feature","properties":{"fid":306,"id":306,"lot_number":1,"block_num":12,"name":null,"house_id":306},"geometry":{"type":"Point","coordinates":[-0.000843637900134,-0.001153759218142]}},
{"type":"Feature","properties":{"fid":307,"id":307,"lot_number":2,"block_num":12,"name":null,"house_id":307},"geometry":{"type":"Point","coordinates":[-0.000750809497532,-0.001185830821282]}},
{"type":"Feature","properties":{"fid":308,"id":308,"lot_number":3,"block_num":12,"name":null,"house_id":308},"geometry":{"type":"Point","coordinates":[-0.000725755510338,-0.00111587501544]}},
{"type":"Feature","properties":{"fid":309,"id":309,"lot_number":4,"block_num":12,"name":null,"house_id":309},"geometry":{"type":"Point","coordinates":[-0.00081830457118,-0.001082018471757]}},
{"type":"Feature","properties":{"fid":310,"id":310,"lot_number":5,"block_num":12,"name":null,"house_id":310},"geometry":{"type":"Point","coordinates":[-0.000794603578051,-0.001014496264502]}},
{"type":"Feature","properties":{"fid":311,"id":311,"lot_number":6,"block_num":12,"name":null,"house_id":311},"geometry":{"type":"Point","coordinates":[-0.000701794831908,-0.001048575547143]}},
{"type":"Feature","properties":{"fid":312,"id":312,"lot_number":7,"block_num":12,"name":null,"house_id":312},"geometry":{"type":"Point","coordinates":[-0.000678074401567,-0.000981272970373]}},
{"type":"Feature","properties":{"fid":313,"id":313,"lot_number":8,"block_num":12,"name":null,"house_id":313},"geometry":{"type":"Point","coordinates":[-0.000771108008901,-0.000946886225683]}},
{"type":"Feature","properties":{"fid":314,"id":314,"lot_number":9,"block_num":12,"name":null,"house_id":314},"geometry":{"type":"Point","coordinates":[-0.000747018963561,-0.000877832060383]}},
{"type":"Feature","properties":{"fid":315,"id":315,"lot_number":10,"block_num":12,"name":null,"house_id":315},"geometry":{"type":"Point","coordinates":[-0.00065395922541,-0.000913542594793]}},
{"type":"Feature","properties":{"fid":316,"id":316,"lot_number":11,"block_num":12,"name":null,"house_id":316},"geometry":{"type":"Point","coordinates":[-0.00062946072969,-0.000844801114319]}},
{"type":"Feature","properties":{"fid":317,"id":317,"lot_number":12,"block_num":12,"name":null,"house_id":317},"geometry":{"type":"Point","coordinates":[-0.000722829909695,-0.000809484470222]}},
{"type":"Feature","properties":{"fid":318,"id":318,"lot_number":14,"block_num":12,"name":null,"house_id":318},"geometry":{"type":"Point","coordinates":[-0.000605875652159,-0.00077688660264]}},
{"type":"Feature","properties":{"fid":319,"id":319,"lot_number":13,"block_num":12,"name":null,"house_id":319},"geometry":{"type":"Point","coordinates":[-0.000699475918494,-0.000742199784511]}},
{"type":"Feature","properties":{"fid":320,"id":320,"lot_number":15,"block_num":12,"name":null,"house_id":320},"geometry":{"type":"Point","coordinates":[-0.000582609740598,-0.00070912616789]}},
{"type":"Feature","properties":{"fid":321,"id":321,"lot_number":17,"block_num":12,"name":null,"house_id":321},"geometry":{"type":"Point","coordinates":[-0.00054204521756,-0.000604536062811]}},
{"type":"Feature","properties":{"fid":322,"id":322,"lot_number":16,"block_num":12,"name":null,"house_id":322},"geometry":{"type":"Point","coordinates":[-0.000659364632622,-0.000644129595281]}}
]
}
