{
"type": "FeatureCollection",
"name": "roads",
"crs": { "type": "name", "properties": { "name": "urn:ogc:def:crs:OGC:1.3:CRS84" } },
"features": [
{"type":"Feature","properties":{"name":"Main Road","road_id":1.0},"geometry":{"type":"MultiLineString","coordinates":[[[-0.001039381294559,-0.002324952653394],[-0.000937994372474,-0.001965717080051],[-0.000856992676342,-0.001741112266935],[-0.000836644403171,-0.001683319316546],[-0.000834312830993,-0.001676697209891],[-0.000811468367477,-0.001613313788665],[-0.000787072601975,-0.001545626181121],[-0.000776013074209,-0.00151494081587],[-0.000776013074209,-0.00151494081587],[-0.000762620549128,-0.001478550132957],[-0.000738386844736,-0.001412701381728],[-0.000711439602704,-0.001339479301925],[-0.000692307198194,-0.001287491998432],[-0.000687912787699,-0.001275170602488],[-0.000666228172035,-0.001214422172575],[-0.000641596238897,-0.00114541697151],[-0.000618246733637,-0.001080004431771],[-0.000612013556297,-0.001062542478897],[-0.00059377278058,-0.001011427962802],[-0.000570310615546,-0.000945682008194],[-0.000545918048868,-0.000877328871162],[-0.000531838781603,-0.000837875782955],[-0.000521157136461,-0.000806003132131],[-0.000498681283252,-0.000738938086274],[-0.000462676192658,-0.000631503541768],[-0.000456804180581,-0.00061398221541],[-0.000404283495089,-0.000459889989941]]]}},
{"type":"Feature","properties":{"name":"Road left end 1","road_id":2.0},"geometry":{"type":"MultiLineString","coordinates":[[[-0.000164838351231,-0.002178142030027],[-0.000185041310884,-0.002239796610785],[-0.000189571417577,-0.002253621408427]]]}},
{"type":"Feature","properties":{"name":"Road - Block 17","road_id":3.0},"geometry":{"type":"MultiLineString","coordinates":[[[-0.000164838351231,-0.002178142030027],[-0.000142755935108,-0.002117510588056],[-0.000121384237479,-0.002058830557871],[-0.000100082620481,-0.002000342947286],[-0.000082539446707,-0.001952174852055],[-0.000078149572442,-0.001939562657886],[-0.000057340579908,-0.001879778017493],[-0.000037015533693,-0.001821383764285],[-0.000016082695216,-0.001761243312086],[-0.000004349053906,-0.001727532332317],[0.000004461986675,-0.001702950917023],[0.000025129812051,-0.001645290939844],[0.000046863333262,-0.001584657839152],[0.000068753089979,-0.001523588866007],[0.000074867402663,-0.001506530896751],[0.000089688034975,-0.00146476366025],[0.000110634998442,-0.001405731308678],[0.000131268022645,-0.001347583695033],[0.000152169291222,-0.001288680119968],[0.000154742945686,-0.001281427093754],[0.000173004981471,-0.001228822835377],[0.000192891943018,-0.001171537937031],[0.000212757344847,-0.001114315141999],[0.000234157077686,-0.001052672667481],[0.000255701995122,-0.000991925122942],[0.000276733240329,-0.000932625916585],[0.000297454921703,-0.000874199549164],[0.000312816917958,-0.000830885224358],[0.000317460404796,-0.000817335072451],[0.000338829235174,-0.000754978720908],[0.00035906053302,-0.000695941801321],[0.000379740249154,-0.000635596353009],[0.00039061360275,-0.000603866836357],[0.000399531878552,-0.000579409140597],[0.000421330498302,-0.000519628077348],[0.0004433296194,-0.000459297154339],[0.000465378087337,-0.000398830901362],[0.000485940856846,-0.000342439063768],[0.000507426890873,-0.000283515243182],[0.000508282991223,-0.000281167452826],[0.000529267118477,-0.000225340097134],[0.000550730614884,-0.00016823740071]]]}},
{"type":"Feature","properties":{"name":"Road - Block 1 & 2","road_id":4.0},"geometry":{"type":"MultiLineString","coordinates":[[[-0.000937994372474,-0.001965717080051],[-0.00085107818293,-0.001989597340581],[-0.000774641358344,-0.002010598391072],[-0.000757494345086,-0.002015309540353],[-0.000704200783272,-0.002029951969425],[-0.000670766662196,-0.002039138008597],[-0.000634241922339,-0.002049173196611],[-0.000584007170716,-0.002062975216265],[-0.000565128329757,-0.002068162185953],[-0.000497453371852,-0.002086755909797],[-0.000427643566635,-0.00210593618386],[-0.000412162938299,-0.002110189493166],[-0.000358703621808,-0.002124877463406],[-0.000324977220509,-0.002134143806695],[-0.000286367289959,-0.002144751901749],[-0.000236037821379,-0.002158579944927],[-0.000220958150782,-0.00216272309092],[-0.000164838351231,-0.002178142030027]]]}},
{"type":"Feature","properties":{"name":"Road - Block 2 & 3","road_id":5.0},"geometry":{"type":"MultiLineString","coordinates":[[[-0.000856992676342,-0.001741112266935],[-0.000783027007576,-0.001761270211486],[-0.0007759491954,-0.001763199135374],[-0.000708583950805,-0.001781558259112],[-0.000698576297624,-0.001784285655772],[-0.000641855048217,-0.001799743959867],[-0.000627142415744,-0.001803753609675],[-0.000571077851583,-0.001819032946623],[-0.00055670437999,-0.001822950164546],[-0.0005007479984,-0.001838200018379],[-0.000487348736419,-0.001841851733892],[-0.000433102583572,-0.001856635497216],[-0.000416311712791,-0.001861211531582],[-0.000363220262664,-0.001875680602512],[-0.000348817942386,-0.001879605682598],[-0.000294853253047,-0.001894312738365],[-0.000278783977055,-0.001898692115714],[-0.000225750224299,-0.001913145462316],[-0.000209123940186,-0.001917676641697],[-0.000151985489288,-0.00193324864617],[-0.000139075550512,-0.001936767005894],[-0.000082539446707,-0.001952174852055]]]}},
{"type":"Feature","properties":{"name":"Road - Block 3 & 4","road_id":6.0},"geometry":{"type":"MultiLineString","coordinates":[[[-0.000776013074209,-0.00151494081587],[-0.000705122125398,-0.001534471095777],[-0.000691777899937,-0.00153814739667],[-0.000632654170847,-0.001554435836839],[-0.000615156526124,-0.001559256394398],[-0.000562985824403,-0.001573629292838],[-0.000546248996155,-0.001578240247352],[-0.000493236258696,-0.001592845124541],[-0.000474735462009,-0.001597942047968],[-0.000424886497042,-0.001611675313712],[-0.000406369456502,-0.001616776712281],[-0.000355250638303,-0.001630859819428],[-0.000336660500426,-0.001635981356131],[-0.000285266859033,-0.001650140176384],[-0.000267930330535,-0.001654916346824],[-0.00021660978648,-0.001669055028943],[-0.000199289501834,-0.001673826724242],[-0.000146837472254,-0.001688277127805],[-0.000130333240306,-0.001692824002617],[-0.000072590627716,-0.001708731948629],[-0.000059273211735,-0.001712400863576],[-0.000004349053906,-0.001727532332317]]]}},
{"type":"Feature","properties":{"name":"Road - Block 4 & 5","road_id":7.0},"geometry":{"type":"MultiLineString","coordinates":[[[-0.000692307198194,-0.001287491998432],[-0.000620719393481,-0.001307931301116],[-0.000610963426321,-0.001310716763899],[-0.000548755533576,-0.001328477972728],[-0.000533536202911,-0.001332823300921],[-0.000481822955732,-0.001347588144123],[-0.000463102801895,-0.001352933005474],[-0.000412710483663,-0.001367320705297],[-0.000395608214595,-0.001372203638297],[-0.000344183492907,-0.001386886103505],[-0.000325760546901,-0.001392146107932],[-0.000276525781243,-0.001406203310577],[-0.00025674627784,-0.001411850630796],[-0.000204568651955,-0.001426748060505],[-0.000190641899073,-0.001430724339966],[-0.000136075177801,-0.001446303889261],[-0.000118411016751,-0.001451347250149],[-0.000066500152745,-0.001466168515673],[-0.000048980692164,-0.001471170562587],[0.000007099426506,-0.00148718220765],[0.000018709997964,-0.001490497185464],[0.000074867402663,-0.001506530896751]]]}},
{"type":"Feature","properties":{"name":"Road - Block 5 & 6","road_id":8.0},"geometry":{"type":"MultiLineString","coordinates":[[[-0.000612013556297,-0.001062542478897],[-0.000537452540193,-0.001083827279549],[-0.000530744990409,-0.001085742071856],[-0.000468991662526,-0.001103370684532],[-0.000457062579707,-0.001106776058587],[-0.000401224711982,-0.001122715995373],[-0.000385871679999,-0.001127098798106],[-0.000331225341514,-0.001142698591159],[-0.000318798656578,-0.001146246014805],[-0.000262513399588,-0.001162313667009],[-0.000251305613518,-0.001165513133764],[-0.000194152947625,-0.001181828403644],[-0.000181230923773,-0.00118551723081],[-0.000124822397854,-0.001201620072374],[-0.000110859483317,-0.001205606040753],[-0.000056311307335,-0.00122117781153],[-0.000041428507843,-0.00122542637783],[0.000013662956707,-0.001241153240228],[0.00002824900549,-0.001245317093631],[0.00008594495995,-0.001261787455132],[0.000097516789196,-0.001265090844645],[0.000154742945686,-0.001281427093754]]]}},
{"type":"Feature","properties":{"name":"Road - Block 7 & 8","road_id":9.0},"geometry":{"type":"MultiLineString","coordinates":[[[-0.000456804180581,-0.00061398221541],[-0.000381411915029,-0.000635230085669],[-0.000374493427322,-0.000637179929304],[-0.000311207393754,-0.000655015889274],[-0.000298386012812,-0.000658629350639],[-0.000242854699217,-0.000674279790879],[-0.000229039536618,-0.000678173330625],[-0.000174094794953,-0.000693658456768],[-0.000159297972028,-0.00069782865873],[-0.000104116501304,-0.000713380502437],[-0.000088913278602,-0.000717665240416],[-0.000037681881894,-0.000732103831197],[-0.00002136126229,-0.000736703486153],[0.000032996097497,-0.000752023069931],[0.000050547227816,-0.000756969520832],[0.000102455687503,-0.000771598928884],[0.000118449086999,-0.000776106363101],[0.00017335989452,-0.000791581925554],[0.000186644232147,-0.000795325862419],[0.000246566763628,-0.000812213883559],[0.000254918556964,-0.000814567677014],[0.000312816917958,-0.000830885224358]]]}},
{"type":"Feature","properties":{"name":"Road - Block 6 & 7","road_id":10.0},"geometry":{"type":"MultiLineString","coordinates":[[[-0.000531838781603,-0.000837875782955],[-0.000458717512975,-0.000858380098356],[-0.000452267079067,-0.000860188898091],[-0.00039100938326,-0.000877366487308],[-0.000376679847091,-0.000881384707104],[-0.000321464329363,-0.000896867977727],[-0.000307561544184,-0.000900766530058],[-0.000251542147638,-0.000916475220524],[-0.000237212611469,-0.00092049344032],[-0.000182742328868,-0.000935767735683],[-0.000168542712922,-0.000939749523874],[-0.000114969239042,-0.000954772340438],[-0.000098414824177,-0.000959414450046],[-0.000045127354379,-0.000974357066717],[-0.000030981871859,-0.000978323675072],[0.000023477584057,-0.000993594934468],[0.000039348565696,-0.000998045399009],[0.000092741144137,-0.001013017489741],[0.000107656673364,-0.0010172000309],[0.000165969066928,-0.001033551712589],[0.000176294091855,-0.001036447006552],[0.000234157077686,-0.001052672667481]]]}},
{"type":"Feature","properties":{"name":"Main Road","road_id":11.0},"geometry":{"type":"MultiLineString","coordinates":[[[-0.000404283495089,-0.000459889989941],[-0.00038801410393,-0.000411842938337],[-0.000380821361099,-0.000390601203928],[-0.000347058083309,-0.000294427018708],[-0.000293649307191,-0.000142292929163]]]}},
{"type":"Feature","properties":{"name":"Road - Block 9 & 10","road_id":12.0},"geometry":{"type":"MultiLineString","coordinates":[[[-0.000380821361099,-0.000390601203928],[-0.000304998133637,-0.000410152357893],[-0.000291815719349,-0.000413551466847],[-0.00016905260218,-0.000365254835713],[-0.000099993250404,-0.000338085974934],[-0.000035243784878,-0.00031261268031],[0.000023550078665,-0.000289482398138],[0.000051236178896,-0.000278590320768],[0.00008181033042,-0.000278762718045],[0.000086371553789,-0.000278788437237],[0.000144911741088,-0.000279118525511],[0.000202620893696,-0.000279443927863],[0.000217016198665,-0.000279525098108],[0.000291656937282,-0.000279945971934],[0.000294023013295,-0.000279959313434],[0.000361522618335,-0.000280339920828],[0.000407669196216,-0.000280600125739],[0.000453004820239,-0.000280855757957],[0.000508282991223,-0.000281167452826]]]}},
{"type":"Feature","properties":{"name":"Road - Block 8 & 9","road_id":13.0},"geometry":{"type":"MultiLineString","coordinates":[[[-0.000291815719349,-0.000413551466847],[-0.000232822777715,-0.000430003373472],[-0.000164231057977,-0.000449132180024],[-0.000118171002741,-0.000461977373142],[-0.000095536338634,-0.000468289711027],[-0.000026209356686,-0.000487623566943],[0.000042485362658,-0.000506781097946],[0.000057221506749,-0.000510890702585],[0.000111843244488,-0.000526123571197],[0.000145342042383,-0.000535465690437],[0.000182029088174,-0.000545696945821],[0.000231019892291,-0.000559359463955],[0.000251386970004,-0.000565039419072],[0.000322359575703,-0.000584832205287],[0.00039061360275,-0.000603866836357]]]}},
{"type":"Feature","properties":{"name":"Road - Block 11","road_id":14.0},"geometry":{"type":"MultiLineString","coordinates":[[[-0.000937994372474,-0.001965717080051],[-0.001008088648971,-0.001946110708365],[-0.001024406162946,-0.001941546466319],[-0.001077000469159,-0.001926835086621],[-0.001113076841441,-0.001916744009297],[-0.001145794222171,-0.001907592489954],[-0.001200667055896,-0.00189224377352],[-0.001214207715991,-0.001888456257221],[-0.001285719935616,-0.00186845326656],[-0.00135397111789,-0.001849362434689],[-0.001372421741896,-0.001844201531257],[-0.001423009535228,-0.00183005140191],[-0.001460011956351,-0.001819701295479],[-0.001492672876082,-0.001810565569085],[-0.001546145300111,-0.001795608567273],[-0.001560935807241,-0.001791471450881],[-0.001632297464205,-0.001771510574749],[-0.001700887412467,-0.001752324985184],[-0.001717881165779,-0.001747571589323],[-0.001804033329872,-0.001723473596798],[-0.00188764815923,-0.001700085333091],[-0.001914501617408,-0.001692574036755],[-0.001908377245807,-0.001679753258945],[-0.001877841425818,-0.001615829482133],[-0.001848011345263,-0.001553383102357],[-0.00181651115976,-0.001487440519892],[-0.001812709960379,-0.001479483077749],[-0.001785965355152,-0.001425406073791],[-0.001754160367971,-0.001361097088742],[-0.001726071493959,-0.001304302002843],[-0.001719400758673,-0.001290813922706],[-0.001708779729918,-0.001286967211899],[-0.001667009083338,-0.001271838771768],[-0.00165732095434,-0.001268329937419],[-0.00162370024202,-0.001277401791939],[-0.001618177261198,-0.001278892054193],[-0.001519070601766,-0.001305633938415],[-0.001451463809173,-0.001323876234447],[-0.001380529461747,-0.001343016402394],[-0.001310601404127,-0.001361885043829],[-0.00124253475027,-0.001380251423921],[-0.001172563620266,-0.001399131687549],[-0.001096045272808,-0.001419778582523],[-0.001023508554307,-0.001439351117194]]]}},
{"type":"Feature","properties":{"name":"Road - Block 14 & 15","road_id":15.0},"geometry":{"type":"MultiLineString","coordinates":[[[-0.000856992676342,-0.001741112266935],[-0.000937527076834,-0.001718111756227],[-0.001012268926248,-0.001696765589902],[-0.001083882780431,-0.001676312774584],[-0.001102849045588,-0.001670896036119],[-0.001103547264326,-0.001670696625837],[-0.001152902746083,-0.001657388767377],[-0.0011619938351,-0.001654937511274],[-0.001221350651303,-0.001638932964656],[-0.001236956400227,-0.001634725142334],[-0.001281800233818,-0.001622633772358],[-0.00130722593007,-0.001615778169801],[-0.001342262457447,-0.001606331171602],[-0.001377545234295,-0.00159681777646],[-0.001411526476063,-0.001587655317911],[-0.001446700665947,-0.001578171201381],[-0.001481240015798,-0.001568858258567],[-0.001517753221465,-0.001559013099415],[-0.001551054684437,-0.001550033931549],[-0.001583424146021,-0.001541306061861],[-0.001620831429737,-0.001531219829909],[-0.001655323722849,-0.001521919575138],[-0.001724392468167,-0.001503296373539],[-0.001732708463121,-0.001501054108246],[-0.001812709960379,-0.001479483077749]]]}},
{"type":"Feature","properties":{"name":"Road - Block 12 & 13","road_id":16.0},"geometry":{"type":"MultiLineString","coordinates":[[[-0.001102849045588,-0.001670896036119],[-0.001080093285183,-0.001604486440503],[-0.001053983598875,-0.001528288649627],[-0.001031340686601,-0.001462208196808],[-0.001023508554307,-0.001439351117194],[-0.00100787220005,-0.001394289793716],[-0.000984075295925,-0.001325711148279],[-0.000959634277924,-0.00125527627579],[-0.000938026227267,-0.001193005535151],[-0.000915408062774,-0.001127823817598],[-0.000890461408052,-0.00105593178575],[-0.000867432209855,-0.000989565538702],[-0.000843579191551,-0.000920825181699],[-0.000819217719397,-0.00085061954685],[-0.000795893065199,-0.00078340184567],[-0.000772980321054,-0.000717371199465],[-0.000738324295399,-0.000617498405771],[-0.00072658905474,-0.000583679430655],[-0.000698229829945,-0.000572787367296],[-0.000632691969359,-0.000547615927138],[-0.00056376495542,-0.000521142798611],[-0.000496553971266,-0.000495328753867],[-0.000404283495089,-0.000459889989941]]]}},
{"type":"Feature","properties":{"name":"Road - Block 10","road_id":17.0},"geometry":{"type":"MultiLineString","coordinates":[[[-0.000293649307191,-0.000142292929163],[-0.00025930812042,-0.00012949295113],[-0.000190828063986,-0.000103968404646],[-0.000125245793742,-0.000079523948953],[-0.000046669702025,-0.000050236310917],[0.0000032236027,-0.000031639597625],[0.0000616651501,-0.000031564389599],[0.000147583587473,-0.000031453821751],[0.000218945183945,-0.000031361987002],[0.000290988281491,-0.000031269275234],[0.000360288105574,-0.000031180093766],[0.000432028367867,-0.000031087771714],[0.000535313349841,-0.000030954854979],[0.000653274941947,-0.000030803051015],[0.000675086615527,-0.000030774981722]]]}},
{"type":"Feature","properties":{"name":"Road - Block 11","road_id":18.0},"geometry":{"type":"MultiLineString","coordinates":[[[-0.000293649307191,-0.000142292929163],[-0.000440785443421,-0.000199428081841],[-0.000519491144921,-0.000229990677727],[-0.000589109101639,-0.00025702436699],[-0.000657685756113,-0.000283653703086],[-0.000721614749257,-0.000308478283079],[-0.000790139509262,-0.000335087467779],[-0.000857337378424,-0.000361181401007]]]}},
{"type":"Feature","properties":{"name":null,"road_id":19.0},"geometry":{"type":"MultiLineString","coordinates":[[[-0.000938026227267,-0.001193005535151],[-0.000687912787699,-0.001275170602488]]]}},
{"type":"Feature","properties":{"name":null,"road_id":-9.2233720368547758e+18},"geometry":{"type":"MultiLineString","coordinates":[[[-0.000236037821379,-0.002158579944927],[-0.000255383653765,-0.00221912911433]]]}},
{"type":"Feature","properties":{"name":null,"road_id":-9.2233720368547758e+18},"geometry":{"type":"MultiLineString","coordinates":[[[-0.000324977220509,-0.002134143806695],[-0.000342937624912,-0.002195006973162]]]}},
{"type":"Feature","properties":{"name":null,"road_id":-9.2233720368547758e+18},"geometry":{"type":"MultiLineString","coordinates":[[[-0.000412162938299,-0.002110189493166],[-0.000428876519313,-0.002171125353206]]]}},
{"type":"Feature","properties":{"name":null,"road_id":-9.2233720368547758e+18},"geometry":{"type":"MultiLineString","coordinates":[[[-0.000497453371852,-0.002086755909797],[-0.000514677212622,-0.002147212458092]]]}},
{"type":"Feature","properties":{"name":null,"road_id":-9.2233720368547758e+18},"geometry":{"type":"MultiLineString","coordinates":[[[-0.000584007170716,-0.002062975216265],[-0.00060135056125,-0.002123274210121]]]}},
{"type":"Feature","properties":{"name":null,"road_id":-9.2233720368547758e+18},"geometry":{"type":"MultiLineString","coordinates":[[[-0.000670766662196,-0.002039138008597],[-0.000687920034288,-0.002099227042707]]]}},
{"type":"Feature","properties":{"name":null,"road_id":-9.2233720368547758e+18},"geometry":{"type":"MultiLineString","coordinates":[[[-0.000757494345086,-0.002015309540353],[-0.000774138518197,-0.002075312788358]]]}},
{"type":"Feature","properties":{"name":null,"road_id":-9.2233720368547758e+18},"geometry":{"type":"MultiLineString","coordinates":[[[-0.00085107818293,-0.001989597340581],[-0.000866273812561,-0.002049704449156]]]}},
{"type":"Feature","properties":{"name":null,"road_id":-9.2233720368547758e+18},"geometry":{"type":"MultiLineString","coordinates":[[[-0.00085107818293,-0.001989597340581],[-0.000831549526895,-0.001919539356821]]]}},
{"type":"Feature","properties":{"name":null,"road_id":-9.2233720368547758e+18},"geometry":{"type":"MultiLineString","coordinates":[[[-0.000774641358344,-0.002010598391072],[-0.000754254531084,-0.001940271881638]]]}},
{"type":"Feature","properties":{"name":null,"road_id":-9.2233720368547758e+18},"geometry":{"type":"MultiLineString","coordinates":[[[-0.000704200783272,-0.002029951969425],[-0.000685164303069,-0.001959359789873]]]}},
{"type":"Feature","properties":{"name":null,"road_id":-9.2233720368547758e+18},"geometry":{"type":"MultiLineString","coordinates":[[[-0.000634241922339,-0.002049173196611],[-0.000615694168275,-0.001978264370977]]]}},
{"type":"Feature","properties":{"name":null,"road_id":-9.2233720368547758e+18},"geometry":{"type":"MultiLineString","coordinates":[[[-0.000565128329757,-0.002068162185953],[-0.000546235814337,-0.001997479759735]]]}},
{"type":"Feature","properties":{"name":null,"road_id":-9.2233720368547758e+18},"geometry":{"type":"MultiLineString","coordinates":[[[-0.000497453371852,-0.002086755909797],[-0.000477408894589,-0.002016397585086]]]}},
{"type":"Feature","properties":{"name":null,"road_id":-9.2233720368547758e+18},"geometry":{"type":"MultiLineString","coordinates":[[[-0.000427643566635,-0.00210593618386],[-0.00040815617316,-0.002035503143168]]]}},
{"type":"Feature","properties":{"name":null,"road_id":-9.2233720368547758e+18},"geometry":{"type":"MultiLineString","coordinates":[[[-0.000358703621808,-0.002124877463406],[-0.00033871546905,-0.002054807966404]]]}},
{"type":"Feature","properties":{"name":null,"road_id":-9.2233720368547758e+18},"geometry":{"type":"MultiLineString","coordinates":[[[-0.000286367289959,-0.002144751901749],[-0.000268974515348,-0.002073846719116]]]}},
{"type":"Feature","properties":{"name":null,"road_id":-9.2233720368547758e+18},"geometry":{"type":"MultiLineString","coordinates":[[[-0.000220958150782,-0.00216272309092],[-0.000199468854011,-0.002091962524898]]]}},
{"type":"Feature","properties":{"name":null,"road_id":-9.2233720368547758e+18},"geometry":{"type":"MultiLineString","coordinates":[[[-0.000114747436741,-0.002263104148978],[-0.000185041310884,-0.002239796610785]]]}},
{"type":"Feature","properties":{"name":null,"road_id":-9.2233720368547758e+18},"geometry":{"type":"MultiLineString","coordinates":[[[-0.00009282247155,-0.002201967348105],[-0.000164838351231,-0.002178142030027]]]}},
{"type":"Feature","properties":{"name":null,"road_id":-9.2233720368547758e+18},"geometry":{"type":"MultiLineString","coordinates":[[[-0.000071705276187,-0.002142553064084],[-0.000142755935108,-0.002117510588056]]]}},
{"type":"Feature","properties":{"name":null,"road_id":-9.2233720368547758e+18},"geometry":{"type":"MultiLineString","coordinates":[[[-0.000050239953514,-0.002083066010872],[-0.000121384237479,-0.002058830557871]]]}},
{"type":"Feature","properties":{"name":null,"road_id":-9.2233720368547758e+18},"geometry":{"type":"MultiLineString","coordinates":[[[-0.000029287826193,-0.002024191130156],[-0.000100082620481,-0.002000342947286]]]}},
{"type":"Feature","properties":{"name":null,"road_id":-9.2233720368547758e+18},"geometry":{"type":"MultiLineString","coordinates":[[[-0.000008088990154,-0.001965230829921],[-0.000078149572442,-0.001939562657886]]]}},
{"type":"Feature","properties":{"name":null,"road_id":-9.2233720368547758e+18},"geometry":{"type":"MultiLineString","coordinates":[[[0.000012808994618,-0.001905990674573],[-0.000057340579908,-0.001879778017493]]]}},
{"type":"Feature","properties":{"name":null,"road_id":-9.2233720368547758e+18},"geometry":{"type":"MultiLineString","coordinates":[[[0.000033773097569,-0.001846954123437],[-0.000037015533693,-0.001821383764285]]]}},
{"type":"Feature","properties":{"name":null,"road_id":-9.2233720368547758e+18},"geometry":{"type":"MultiLineString","coordinates":[[[0.000054367697846,-0.001787975395589],[-0.000016082695216,-0.001761243312086]]]}},
{"type":"Feature","properties":{"name":null,"road_id":-9.2233720368547758e+18},"geometry":{"type":"MultiLineString","coordinates":[[[0.000075853204031,-0.001729477202947],[0.000004461986675,-0.001702950917023]]]}},
{"type":"Feature","properties":{"name":null,"road_id":-9.2233720368547758e+18},"geometry":{"type":"MultiLineString","coordinates":[[[0.000096080537529,-0.001670789728123],[0.000025129812051,-0.001645290939844]]]}},
{"type":"Feature","properties":{"name":null,"road_id":-9.2233720368547758e+18},"geometry":{"type":"MultiLineString","coordinates":[[[0.000117436034107,-0.001611087882663],[0.000046863333262,-0.001584657839152]]]}},
{"type":"Feature","properties":{"name":null,"road_id":-9.2233720368547758e+18},"geometry":{"type":"MultiLineString","coordinates":[[[0.000138832760485,-0.001550935459994],[0.000068753089979,-0.001523588866007]]]}},
{"type":"Feature","properties":{"name":null,"road_id":-9.2233720368547758e+18},"geometry":{"type":"MultiLineString","coordinates":[[[0.000159894623168,-0.001491573275711],[0.000089688034975,-0.00146476366025]]]}},
{"type":"Feature","properties":{"name":null,"road_id":-9.2233720368547758e+18},"geometry":{"type":"MultiLineString","coordinates":[[[0.000181200378055,-0.001432545706769],[0.000110634998442,-0.001405731308678]]]}},
{"type":"Feature","properties":{"name":null,"road_id":-9.2233720368547758e+18},"geometry":{"type":"MultiLineString","coordinates":[[[0.00020175766372,-0.00137476599689],[0.000131268022645,-0.001347583695033]]]}},
{"type":"Feature","properties":{"name":null,"road_id":-9.2233720368547758e+18},"geometry":{"type":"MultiLineString","coordinates":[[[0.000222176639133,-0.001315736611683],[0.000152169291222,-0.001288680119968]]]}},
{"type":"Feature","properties":{"name":null,"road_id":-9.2233720368547758e+18},"geometry":{"type":"MultiLineString","coordinates":[[[0.000243976783363,-0.001255886170596],[0.000173004981471,-0.001228822835377]]]}},
{"type":"Feature","properties":{"name":null,"road_id":-9.2233720368547758e+18},"geometry":{"type":"MultiLineString","coordinates":[[[0.000264355470576,-0.001197101713872],[0.000192891943018,-0.001171537937031]]]}},
{"type":"Feature","properties":{"name":null,"road_id":-9.2233720368547758e+18},"geometry":{"type":"MultiLineString","coordinates":[[[0.000284830810794,-0.001138292065348],[0.000212757344847,-0.001114315141999]]]}},
{"type":"Feature","properties":{"name":null,"road_id":-9.2233720368547758e+18},"geometry":{"type":"MultiLineString","coordinates":[[[0.000305695673196,-0.001078548936468],[0.000234157077686,-0.001052672667481]]]}},
{"type":"Feature","properties":{"name":null,"road_id":-9.2233720368547758e+18},"geometry":{"type":"MultiLineString","coordinates":[[[0.000326695448971,-0.001019031511449],[0.000255701995122,-0.000991925122942]]]}},
{"type":"Feature","properties":{"name":null,"road_id":-9.2233720368547758e+18},"geometry":{"type":"MultiLineString","coordinates":[[[0.000347939353282,-0.000960311096574],[0.000276733240329,-0.000932625916585]]]}},
{"type":"Feature","properties":{"name":null,"road_id":-9.2233720368547758e+18},"geometry":{"type":"MultiLineString","coordinates":[[[0.000368643648629,-0.000901167615887],[0.000297454921703,-0.000874199549164]]]}},
{"type":"Feature","properties":{"name":null,"road_id":-9.2233720368547758e+18},"geometry":{"type":"MultiLineString","coordinates":[[[0.000389466845288,-0.000841897215303],[0.000317460404796,-0.000817335072451]]]}},
{"type":"Feature","properties":{"name":null,"road_id":-9.2233720368547758e+18},"geometry":{"type":"MultiLineString","coordinates":[[[0.000410470127058,-0.000782734088943],[0.000338829235174,-0.000754978720908]]]}},
{"type":"Feature","properties":{"name":null,"road_id":-9.2233720368547758e+18},"geometry":{"type":"MultiLineString","coordinates":[[[0.000431663269694,-0.000722718578423],[0.00035906053302,-0.000695941801321]]]}},
{"type":"Feature","properties":{"name":null,"road_id":-9.2233720368547758e+18},"geometry":{"type":"MultiLineString","coordinates":[[[0.000452655119275,-0.000664048077126],[0.000379740249154,-0.000635596353009]]]}},
{"type":"Feature","properties":{"name":null,"road_id":-9.2233720368547758e+18},"geometry":{"type":"MultiLineString","coordinates":[[[0.000472608717052,-0.000605576873778],[0.000399531878552,-0.000579409140597]]]}},
{"type":"Feature","properties":{"name":null,"road_id":-9.2233720368547758e+18},"geometry":{"type":"MultiLineString","coordinates":[[[0.000494021864462,-0.000546519386589],[0.000421330498302,-0.000519628077348]]]}},
{"type":"Feature","properties":{"name":null,"road_id":-9.2233720368547758e+18},"geometry":{"type":"MultiLineString","coordinates":[[[0.000514739243945,-0.000486424060883],[0.0004433296194,-0.000459297154339]]]}},
{"type":"Feature","properties":{"name":null,"road_id":-9.2233720368547758e+18},"geometry":{"type":"MultiLineString","coordinates":[[[0.000536268079221,-0.000426405498776],[0.000465378087337,-0.000398830901362]]]}},
{"type":"Feature","properties":{"name":null,"road_id":-9.2233720368547758e+18},"geometry":{"type":"MultiLineString","coordinates":[[[0.000556870090408,-0.000367942135736],[0.000485940856846,-0.000342439063768]]]}},
{"type":"Feature","properties":{"name":null,"road_id":-9.2233720368547758e+18},"geometry":{"type":"MultiLineString","coordinates":[[[0.000577553383069,-0.000308915353042],[0.000507426890873,-0.000283515243182]]]}},
{"type":"Feature","properties":{"name":null,"road_id":-9.2233720368547758e+18},"geometry":{"type":"MultiLineString","coordinates":[[[0.000598442049846,-0.000249503905876],[0.000529267118477,-0.000225340097134]]]}},
{"type":"Feature","properties":{"name":null,"road_id":-9.2233720368547758e+18},"geometry":{"type":"MultiLineString","coordinates":[[[0.000619191853683,-0.000189425320898],[0.000550730614884,-0.00016823740071]]]}},
{"type":"Feature","properties":{"name":null,"road_id":-9.2233720368547758e+18},"geometry":{"type":"MultiLineString","coordinates":[[[-0.000171440487135,-0.002003604156848],[-0.000151985489288,-0.00193324864617]]]}},
{"type":"Feature","properties":{"name":null,"road_id":-9.2233720368547758e+18},"geometry":{"type":"MultiLineString","coordinates":[[[-0.000244810297375,-0.001984158013322],[-0.000225750224299,-0.001913145462316]]]}},
{"type":"Feature","properties":{"name":null,"road_id":-9.2233720368547758e+18},"geometry":{"type":"MultiLineString","coordinates":[[[-0.000313979388365,-0.001965506580557],[-0.000294853253047,-0.001894312738365]]]}},
{"type":"Feature","properties":{"name":null,"road_id":-9.2233720368547758e+18},"geometry":{"type":"MultiLineString","coordinates":[[[-0.000382620226163,-0.001946488748978],[-0.000363220262664,-0.001875680602512]]]}},
{"type":"Feature","properties":{"name":null,"road_id":-9.2233720368547758e+18},"geometry":{"type":"MultiLineString","coordinates":[[[-0.000452021043996,-0.001927417627533],[-0.000433102583572,-0.001856635497216]]]}},
{"type":"Feature","properties":{"name":null,"road_id":-9.2233720368547758e+18},"geometry":{"type":"MultiLineString","coordinates":[[[-0.00052096508385,-0.001908547960133],[-0.0005007479984,-0.001838200018379]]]}},
{"type":"Feature","properties":{"name":null,"road_id":-9.2233720368547758e+18},"geometry":{"type":"MultiLineString","coordinates":[[[-0.000590893523993,-0.001889281575652],[-0.000571077851583,-0.001819032946623]]]}},
{"type":"Feature","properties":{"name":null,"road_id":-9.2233720368547758e+18},"geometry":{"type":"MultiLineString","coordinates":[[[-0.000660395570904,-0.001870443671002],[-0.000641855048217,-0.001799743959867]]]}},
{"type":"Feature","properties":{"name":null,"road_id":-9.2233720368547758e+18},"geometry":{"type":"MultiLineString","coordinates":[[[-0.000728937739519,-0.001851581549758],[-0.000708583950805,-0.001781558259112]]]}},
{"type":"Feature","properties":{"name":null,"road_id":-9.2233720368547758e+18},"geometry":{"type":"MultiLineString","coordinates":[[[-0.00080315821332,-0.001831803941843],[-0.000783027007576,-0.001761270211486]]]}},
{"type":"Feature","properties":{"name":null,"road_id":-9.2233720368547758e+18},"geometry":{"type":"MultiLineString","coordinates":[[[-0.000119936420878,-0.001867076804735],[-0.000139075550512,-0.001936767005894]]]}},
{"type":"Feature","properties":{"name":null,"road_id":-9.2233720368547758e+18},"geometry":{"type":"MultiLineString","coordinates":[[[-0.000190248251135,-0.001848274938909],[-0.000209123940186,-0.001917676641697]]]}},
{"type":"Feature","properties":{"name":null,"road_id":-9.2233720368547758e+18},"geometry":{"type":"MultiLineString","coordinates":[[[-0.00026038761008,-0.001829248004522],[-0.000278783977055,-0.001898692115714]]]}},
{"type":"Feature","properties":{"name":null,"road_id":-9.2233720368547758e+18},"geometry":{"type":"MultiLineString","coordinates":[[[-0.000329909258524,-0.001809887103827],[-0.000348817942386,-0.001879605682598]]]}},
{"type":"Feature","properties":{"name":null,"road_id":-9.2233720368547758e+18},"geometry":{"type":"MultiLineString","coordinates":[[[-0.000398749087952,-0.001791027391646],[-0.000416311712791,-0.001861211531582]]]}},
{"type":"Feature","properties":{"name":null,"road_id":-9.2233720368547758e+18},"geometry":{"type":"MultiLineString","coordinates":[[[-0.000468232686223,-0.001771974088514],[-0.000487348736419,-0.001841851733892]]]}},
{"type":"Feature","properties":{"name":null,"road_id":-9.2233720368547758e+18},"geometry":{"type":"MultiLineString","coordinates":[[[-0.000538238100861,-0.001752815077905],[-0.00055670437999,-0.001822950164546]]]}},
{"type":"Feature","properties":{"name":null,"road_id":-9.2233720368547758e+18},"geometry":{"type":"MultiLineString","coordinates":[[[-0.000607521982375,-0.001733613189527],[-0.000627142415744,-0.001803753609675]]]}},
{"type":"Feature","properties":{"name":null,"road_id":-9.2233720368547758e+18},"geometry":{"type":"MultiLineString","coordinates":[[[-0.000677575055533,-0.001714720382335],[-0.000698576297624,-0.001784285655772]]]}},
{"type":"Feature","properties":{"name":null,"road_id":-9.2233720368547758e+18},"geometry":{"type":"MultiLineString","coordinates":[[[-0.000753266226258,-0.00169409303482],[-0.0007759491954,-0.001763199135374]]]}},
{"type":"Feature","properties":{"name":null,"road_id":-9.2233720368547758e+18},"geometry":{"type":"MultiLineString","coordinates":[[[-0.000092563767761,-0.001779398372976],[-0.000072590627716,-0.001708731948629]]]}},
{"type":"Feature","properties":{"name":null,"road_id":-9.2233720368547758e+18},"geometry":{"type":"MultiLineString","coordinates":[[[-0.000166182591565,-0.001759565332916],[-0.000146837472254,-0.001688277127805]]]}},
{"type":"Feature","properties":{"name":null,"road_id":-9.2233720368547758e+18},"geometry":{"type":"MultiLineString","coordinates":[[[-0.000236038889667,-0.001740539205988],[-0.00021660978648,-0.001669055028943]]]}},
{"type":"Feature","properties":{"name":null,"road_id":-9.2233720368547758e+18},"geometry":{"type":"MultiLineString","coordinates":[[[-0.000304738141772,-0.00172155848326],[-0.000285266859033,-0.001650140176384]]]}},
{"type":"Feature","properties":{"name":null,"road_id":-9.2233720368547758e+18},"geometry":{"type":"MultiLineString","coordinates":[[[-0.000374007104898,-0.00170193520694],[-0.000355250638303,-0.001630859819428]]]}},
{"type":"Feature","properties":{"name":null,"road_id":-9.2233720368547758e+18},"geometry":{"type":"MultiLineString","coordinates":[[[-0.000444178505419,-0.001682885968719],[-0.000424886497042,-0.001611675313712]]]}},
{"type":"Feature","properties":{"name":null,"road_id":-9.2233720368547758e+18},"geometry":{"type":"MultiLineString","coordinates":[[[-0.000513548551272,-0.001663816894079],[-0.000493236258696,-0.001592845124541]]]}},
{"type":"Feature","properties":{"name":null,"road_id":-9.2233720368547758e+18},"geometry":{"type":"MultiLineString","coordinates":[[[-0.000582983735935,-0.001644368765988],[-0.000562985824403,-0.001573629292838]]]}},
{"type":"Feature","properties":{"name":null,"road_id":-9.2233720368547758e+18},"geometry":{"type":"MultiLineString","coordinates":[[[-0.000652557310045,-0.001625537964361],[-0.000632654170847,-0.001554435836839]]]}},
{"type":"Feature","properties":{"name":null,"road_id":-9.2233720368547758e+18},"geometry":{"type":"MultiLineString","coordinates":[[[-0.000724521057225,-0.001605965089161],[-0.000705122125398,-0.001534471095777]]]}},
{"type":"Feature","properties":{"name":null,"road_id":-9.2233720368547758e+18},"geometry":{"type":"MultiLineString","coordinates":[[[-0.000670266123394,-0.001467528016],[-0.000691777899937,-0.00153814739667]]]}},
{"type":"Feature","properties":{"name":null,"road_id":-9.2233720368547758e+18},"geometry":{"type":"MultiLineString","coordinates":[[[-0.000594585801195,-0.001487867883533],[-0.000615156526124,-0.001559256394398]]]}},
{"type":"Feature","properties":{"name":null,"road_id":-9.2233720368547758e+18},"geometry":{"type":"MultiLineString","coordinates":[[[-0.000525259345664,-0.001507210901828],[-0.000546248996155,-0.001578240247352]]]}},
{"type":"Feature","properties":{"name":null,"road_id":-9.2233720368547758e+18},"geometry":{"type":"MultiLineString","coordinates":[[[-0.000455639296489,-0.001526543131497],[-0.000474735462009,-0.001597942047968]]]}},
{"type":"Feature","properties":{"name":null,"road_id":-9.2233720368547758e+18},"geometry":{"type":"MultiLineString","coordinates":[[[-0.000386958302231,-0.001545590196437],[-0.000406369456502,-0.001616776712281]]]}},
{"type":"Feature","properties":{"name":null,"road_id":-9.2233720368547758e+18},"geometry":{"type":"MultiLineString","coordinates":[[[-0.000317986349086,-0.001564846319995],[-0.000336660500426,-0.001635981356131]]]}},
{"type":"Feature","properties":{"name":null,"road_id":-9.2233720368547758e+18},"geometry":{"type":"MultiLineString","coordinates":[[[-0.000248540411675,-0.001584166733078],[-0.000267930330535,-0.001654916346824]]]}},
{"type":"Feature","properties":{"name":null,"road_id":-9.2233720368547758e+18},"geometry":{"type":"MultiLineString","coordinates":[[[-0.000179318883989,-0.001603452320465],[-0.000199289501834,-0.001673826724242]]]}},
{"type":"Feature","properties":{"name":null,"road_id":-9.2233720368547758e+18},"geometry":{"type":"MultiLineString","coordinates":[[[-0.000110123239805,-0.001622544072674],[-0.000130333240306,-0.001692824002617]]]}},
{"type":"Feature","properties":{"name":null,"road_id":-9.2233720368547758e+18},"geometry":{"type":"MultiLineString","coordinates":[[[-0.000040521460482,-0.001641281300371],[-0.000059273211735,-0.001712400863576]]]}},
{"type":"Feature","properties":{"name":null,"road_id":-9.2233720368547758e+18},"geometry":{"type":"MultiLineString","coordinates":[[[-0.000641409259899,-0.001378559263371],[-0.000620719393481,-0.001307931301116]]]}},
{"type":"Feature","properties":{"name":null,"road_id":-9.2233720368547758e+18},"geometry":{"type":"MultiLineString","coordinates":[[[-0.000569368982938,-0.0013982095501],[-0.000548755533576,-0.001328477972728]]]}},
{"type":"Feature","properties":{"name":null,"road_id":-9.2233720368547758e+18},"geometry":{"type":"MultiLineString","coordinates":[[[-0.000500429174338,-0.001417809729873],[-0.000481822955732,-0.001347588144123]]]}},
{"type":"Feature","properties":{"name":null,"road_id":-9.2233720368547758e+18},"geometry":{"type":"MultiLineString","coordinates":[[[-0.000431316774811,-0.001437345678962],[-0.000412710483663,-0.001367320705297]]]}},
{"type":"Feature","properties":{"name":null,"road_id":-9.2233720368547758e+18},"geometry":{"type":"MultiLineString","coordinates":[[[-0.000362731953086,-0.001456713180117],[-0.000344183492907,-0.001386886103505]]]}},
{"type":"Feature","properties":{"name":null,"road_id":-9.2233720368547758e+18},"geometry":{"type":"MultiLineString","coordinates":[[[-0.000293840164209,-0.001476293275438],[-0.000276525781243,-0.001406203310577]]]}},
{"type":"Feature","properties":{"name":null,"road_id":-9.2233720368547758e+18},"geometry":{"type":"MultiLineString","coordinates":[[[-0.000224561697987,-0.001495910126156],[-0.000204568651955,-0.001426748060505]]]}},
{"type":"Feature","properties":{"name":null,"road_id":-9.2233720368547758e+18},"geometry":{"type":"MultiLineString","coordinates":[[[-0.000155484658686,-0.001515500117684],[-0.000136075177801,-0.001446303889261]]]}},
{"type":"Feature","properties":{"name":null,"road_id":-9.2233720368547758e+18},"geometry":{"type":"MultiLineString","coordinates":[[[-0.000085980487181,-0.00153503423948],[-0.000066500152745,-0.001466168515673]]]}},
{"type":"Feature","properties":{"name":null,"road_id":-9.2233720368547758e+18},"geometry":{"type":"MultiLineString","coordinates":[[[-0.000013015076224,-0.001555213142808],[0.000007099426506,-0.00148718220765]]]}},
{"type":"Feature","properties":{"name":null,"road_id":-9.2233720368547758e+18},"geometry":{"type":"MultiLineString","coordinates":[[[-0.000589240102982,-0.001242031678569],[-0.000610963426321,-0.001310716763899]]]}},
{"type":"Feature","properties":{"name":null,"road_id":-9.2233720368547758e+18},"geometry":{"type":"MultiLineString","coordinates":[[[-0.000514259750699,-0.001262785404557],[-0.000533536202911,-0.001332823300921]]]}},
{"type":"Feature","properties":{"name":null,"road_id":-9.2233720368547758e+18},"geometry":{"type":"MultiLineString","coordinates":[[[-0.000444761984967,-0.001282229410853],[-0.000463102801895,-0.001352933005474]]]}},
{"type":"Feature","properties":{"name":null,"road_id":-9.2233720368547758e+18},"geometry":{"type":"MultiLineString","coordinates":[[[-0.000375456686942,-0.001301780840929],[-0.000395608214595,-0.001372203638297]]]}},
{"type":"Feature","properties":{"name":null,"road_id":-9.2233720368547758e+18},"geometry":{"type":"MultiLineString","coordinates":[[[-0.000306482705006,-0.001321165803566],[-0.000325760546901,-0.001392146107932]]]}},
{"type":"Feature","properties":{"name":null,"road_id":-9.2233720368547758e+18},"geometry":{"type":"MultiLineString","coordinates":[[[-0.000237629498335,-0.001340617030147],[-0.00025674627784,-0.001411850630796]]]}},
{"type":"Feature","properties":{"name":null,"road_id":-9.2233720368547758e+18},"geometry":{"type":"MultiLineString","coordinates":[[[-0.000169017942738,-0.00135989127148],[-0.000190641899073,-0.001430724339966]]]}},
{"type":"Feature","properties":{"name":null,"road_id":-9.2233720368547758e+18},"geometry":{"type":"MultiLineString","coordinates":[[[-0.000099835045058,-0.001379551664759],[-0.000118411016751,-0.001451347250149]]]}},
{"type":"Feature","properties":{"name":null,"road_id":-9.2233720368547758e+18},"geometry":{"type":"MultiLineString","coordinates":[[[-0.000030384785302,-0.001398955763409],[-0.000048980692164,-0.001471170562587]]]}},
{"type":"Feature","properties":{"name":null,"road_id":-9.2233720368547758e+18},"geometry":{"type":"MultiLineString","coordinates":[[[0.000039038495686,-0.001417821156842],[0.000018709997964,-0.001490497185464]]]}},
{"type":"Feature","properties":{"name":null,"road_id":-9.2233720368547758e+18},"geometry":{"type":"MultiLineString","coordinates":[[[-0.000561020201208,-0.001154251867047],[-0.000537452540193,-0.001083827279549]]]}},
{"type":"Feature","properties":{"name":null,"road_id":-9.2233720368547758e+18},"geometry":{"type":"MultiLineString","coordinates":[[[-0.000489413432985,-0.001173970508582],[-0.000468991662526,-0.001103370684532]]]}},
{"type":"Feature","properties":{"name":null,"road_id":-9.2233720368547758e+18},"geometry":{"type":"MultiLineString","coordinates":[[[-0.000420569029554,-0.001193272561942],[-0.000401224711982,-0.001122715995373]]]}},
{"type":"Feature","properties":{"name":null,"road_id":-9.2233720368547758e+18},"geometry":{"type":"MultiLineString","coordinates":[[[-0.000351346931526,-0.001212745276986],[-0.000331225341514,-0.001142698591159]]]}},
{"type":"Feature","properties":{"name":null,"road_id":-9.2233720368547758e+18},"geometry":{"type":"MultiLineString","coordinates":[[[-0.000282387093401,-0.001232165231011],[-0.000262513399588,-0.001162313667009]]]}},
{"type":"Feature","properties":{"name":null,"road_id":-9.2233720368547758e+18},"geometry":{"type":"MultiLineString","coordinates":[[[-0.000213336520047,-0.001251637110752],[-0.000194152947625,-0.001181828403644]]]}},
{"type":"Feature","properties":{"name":null,"road_id":-9.2233720368547758e+18},"geometry":{"type":"MultiLineString","coordinates":[[[-0.000144511561916,-0.001270971228563],[-0.000124822397854,-0.001201620072374]]]}},
{"type":"Feature","properties":{"name":null,"road_id":-9.2233720368547758e+18},"geometry":{"type":"MultiLineString","coordinates":[[[-0.000075532970083,-0.001290561217899],[-0.000056311307335,-0.00122117781153]]]}},
{"type":"Feature","properties":{"name":null,"road_id":-9.2233720368547758e+18},"geometry":{"type":"MultiLineString","coordinates":[[[-0.000006225630966,-0.001310036232405],[0.000013662956707,-0.001241153240228]]]}},
{"type":"Feature","properties":{"name":null,"road_id":-9.2233720368547758e+18},"geometry":{"type":"MultiLineString","coordinates":[[[0.000066652655503,-0.001329937738533],[0.00008594495995,-0.001261787455132]]]}},
{"type":"Feature","properties":{"name":null,"road_id":-9.2233720368547758e+18},"geometry":{"type":"MultiLineString","coordinates":[[[0.000118163105762,-0.001193180133016],[0.000097516789196,-0.001265090844645]]]}},
{"type":"Feature","properties":{"name":null,"road_id":-9.2233720368547758e+18},"geometry":{"type":"MultiLineString","coordinates":[[[0.000047600342789,-0.001174106437818],[0.00002824900549,-0.001245317093631]]]}},
{"type":"Feature","properties":{"name":null,"road_id":-9.2233720368547758e+18},"geometry":{"type":"MultiLineString","coordinates":[[[-0.000021872755586,-0.001154585632524],[-0.000041428507843,-0.00122542637783]]]}},
{"type":"Feature","properties":{"name":null,"road_id":-9.2233720368547758e+18},"geometry":{"type":"MultiLineString","coordinates":[[[-0.000090598868236,-0.001135145535503],[-0.000110859483317,-0.001205606040753]]]}},
{"type":"Feature","properties":{"name":null,"road_id":-9.2233720368547758e+18},"geometry":{"type":"MultiLineString","coordinates":[[[-0.000160802241646,-0.001115675751339],[-0.000181230923773,-0.00118551723081]]]}},
{"type":"Feature","properties":{"name":null,"road_id":-9.2233720368547758e+18},"geometry":{"type":"MultiLineString","coordinates":[[[-0.000229948926815,-0.001096002519453],[-0.000251305613518,-0.001165513133764]]]}},
{"type":"Feature","properties":{"name":null,"road_id":-9.2233720368547758e+18},"geometry":{"type":"MultiLineString","coordinates":[[[-0.000298037228719,-0.001076927626628],[-0.000318798656578,-0.001146246014805]]]}},
{"type":"Feature","properties":{"name":null,"road_id":-9.2233720368547758e+18},"geometry":{"type":"MultiLineString","coordinates":[[[-0.000367398729283,-0.001057456710979],[-0.000385871679999,-0.001127098798106]]]}},
{"type":"Feature","properties":{"name":null,"road_id":-9.2233720368547758e+18},"geometry":{"type":"MultiLineString","coordinates":[[[-0.000436147757732,-0.001038200019334],[-0.000457062579707,-0.001106776058587]]]}},
{"type":"Feature","properties":{"name":null,"road_id":-9.2233720368547758e+18},"geometry":{"type":"MultiLineString","coordinates":[[[-0.00050971679425,-0.001017937844706],[-0.000530744990409,-0.001085742071856]]]}},
{"type":"Feature","properties":{"name":null,"road_id":-9.2233720368547758e+18},"geometry":{"type":"MultiLineString","coordinates":[[[0.000145897985509,-0.001103652896968],[0.000165969066928,-0.001033551712589]]]}},
{"type":"Feature","properties":{"name":null,"road_id":-9.2233720368547758e+18},"geometry":{"type":"MultiLineString","coordinates":[[[0.000072531256612,-0.001083893032741],[0.000092741144137,-0.001013017489741]]]}},
{"type":"Feature","properties":{"name":null,"road_id":-9.2233720368547758e+18},"geometry":{"type":"MultiLineString","coordinates":[[[0.000003447333479,-0.001064663415981],[0.000023477584057,-0.000993594934468]]]}},
{"type":"Feature","properties":{"name":null,"road_id":-9.2233720368547758e+18},"geometry":{"type":"MultiLineString","coordinates":[[[-0.000065412656674,-0.001045354122092],[-0.000045127354379,-0.000974357066717]]]}},
{"type":"Feature","properties":{"name":null,"road_id":-9.2233720368547758e+18},"geometry":{"type":"MultiLineString","coordinates":[[[-0.000135195896769,-0.001026194221414],[-0.000114969239042,-0.000954772340438]]]}},
{"type":"Feature","properties":{"name":null,"road_id":-9.2233720368547758e+18},"geometry":{"type":"MultiLineString","coordinates":[[[-0.000203865819254,-0.00100681289031],[-0.000182742328868,-0.000935767735683]]]}},
{"type":"Feature","properties":{"name":null,"road_id":-9.2233720368547758e+18},"geometry":{"type":"MultiLineString","coordinates":[[[-0.000272365663479,-0.000987796775384],[-0.000251542147638,-0.000916475220524]]]}},
{"type":"Feature","properties":{"name":null,"road_id":-9.2233720368547758e+18},"geometry":{"type":"MultiLineString","coordinates":[[[-0.000341836840333,-0.000968471317084],[-0.000321464329363,-0.000896867977727]]]}},
{"type":"Feature","properties":{"name":null,"road_id":-9.2233720368547758e+18},"geometry":{"type":"MultiLineString","coordinates":[[[-0.000410360192342,-0.000949459925209],[-0.00039100938326,-0.000877366487308]]]}},
{"type":"Feature","properties":{"name":null,"road_id":-9.2233720368547758e+18},"geometry":{"type":"MultiLineString","coordinates":[[[-0.000481253936837,-0.000930237999857],[-0.000458717512975,-0.000858380098356]]]}},
{"type":"Feature","properties":{"name":null,"road_id":-9.2233720368547758e+18},"geometry":{"type":"MultiLineString","coordinates":[[[0.000197853397156,-0.000966281101657],[0.000176294091855,-0.001036447006552]]]}},
{"type":"Feature","properties":{"name":null,"road_id":-9.2233720368547758e+18},"geometry":{"type":"MultiLineString","coordinates":[[[0.000128249365325,-0.000947501976728],[0.000107656673364,-0.0010172000309]]]}},
{"type":"Feature","properties":{"name":null,"road_id":-9.2233720368547758e+18},"geometry":{"type":"MultiLineString","coordinates":[[[0.000058815553141,-0.000928233905131],[0.000039348565696,-0.000998045399009]]]}},
{"type":"Feature","properties":{"name":null,"road_id":-9.2233720368547758e+18},"geometry":{"type":"MultiLineString","coordinates":[[[-0.00001096262324,-0.000908802188941],[-0.000030981871859,-0.000978323675072]]]}},
{"type":"Feature","properties":{"name":null,"road_id":-9.2233720368547758e+18},"geometry":{"type":"MultiLineString","coordinates":[[[-0.000080166429731,-0.000889593797097],[-0.000098414824177,-0.000959414450046]]]}},
{"type":"Feature","properties":{"name":null,"road_id":-9.2233720368547758e+18},"geometry":{"type":"MultiLineString","coordinates":[[[-0.000149045063043,-0.000870381099785],[-0.000168542712922,-0.000939749523874]]]}},
{"type":"Feature","properties":{"name":null,"road_id":-9.2233720368547758e+18},"geometry":{"type":"MultiLineString","coordinates":[[[-0.000218248006874,-0.000851077650856],[-0.000237212611469,-0.00092049344032]]]}},
{"type":"Feature","properties":{"name":null,"road_id":-9.2233720368547758e+18},"geometry":{"type":"MultiLineString","coordinates":[[[-0.000287472660311,-0.000831771309146],[-0.000307561544184,-0.000900766530058]]]}},
{"type":"Feature","properties":{"name":null,"road_id":-9.2233720368547758e+18},"geometry":{"type":"MultiLineString","coordinates":[[[-0.000356703296948,-0.000812612792119],[-0.000376679847091,-0.000881384707104]]]}},
{"type":"Feature","properties":{"name":null,"road_id":-9.2233720368547758e+18},"geometry":{"type":"MultiLineString","coordinates":[[[-0.000430862661895,-0.000792290681484],[-0.000452267079067,-0.000860188898091]]]}},
{"type":"Feature","properties":{"name":null,"road_id":-9.2233720368547758e+18},"geometry":{"type":"MultiLineString","coordinates":[[[0.000225347946792,-0.00088013676707],[0.000246566763628,-0.000812213883559]]]}},
{"type":"Feature","properties":{"name":null,"road_id":-9.2233720368547758e+18},"geometry":{"type":"MultiLineString","coordinates":[[[0.000152803331944,-0.000860356912977],[0.00017335989452,-0.000791581925554]]]}},
{"type":"Feature","properties":{"name":null,"road_id":-9.2233720368547758e+18},"geometry":{"type":"MultiLineString","coordinates":[[[0.000083137156459,-0.00084097176176],[0.000102455687503,-0.000771598928884]]]}},
{"type":"Feature","properties":{"name":null,"road_id":-9.2233720368547758e+18},"geometry":{"type":"MultiLineString","coordinates":[[[0.000013381724555,-0.000821497162271],[0.000032996097497,-0.000752023069931]]]}},
{"type":"Feature","properties":{"name":null,"road_id":-9.2233720368547758e+18},"geometry":{"type":"MultiLineString","coordinates":[[[-0.000055571110591,-0.000802311255771],[-0.000037681881894,-0.000732103831197]]]}},
{"type":"Feature","properties":{"name":null,"road_id":-9.2233720368547758e+18},"geometry":{"type":"MultiLineString","coordinates":[[[-0.000124113113821,-0.000783144409698],[-0.000104116501304,-0.000713380502437]]]}},
{"type":"Feature","properties":{"name":null,"road_id":-9.2233720368547758e+18},"geometry":{"type":"MultiLineString","coordinates":[[[-0.000193307543253,-0.000763792963546],[-0.000174094794953,-0.000693658456768]]]}},
{"type":"Feature","properties":{"name":null,"road_id":-9.2233720368547758e+18},"geometry":{"type":"MultiLineString","coordinates":[[[-0.000262885651735,-0.000744336331616],[-0.000242854699217,-0.000674279790879]]]}},
{"type":"Feature","properties":{"name":null,"road_id":-9.2233720368547758e+18},"geometry":{"type":"MultiLineString","coordinates":[[[-0.000332128843609,-0.000725131918429],[-0.000311207393754,-0.000655015889274]]]}},
{"type":"Feature","properties":{"name":null,"road_id":-9.2233720368547758e+18},"geometry":{"type":"MultiLineString","coordinates":[[[-0.000404026952913,-0.000705444223467],[-0.000381411915029,-0.000635230085669]]]}},
{"type":"Feature","properties":{"name":null,"road_id":-9.2233720368547758e+18},"geometry":{"type":"MultiLineString","coordinates":[[[0.000277107513847,-0.000743217505125],[0.000254918556964,-0.000814567677014]]]}},
{"type":"Feature","properties":{"name":null,"road_id":-9.2233720368547758e+18},"geometry":{"type":"MultiLineString","coordinates":[[[0.000207663355838,-0.000724521571426],[0.000186644232147,-0.000795325862419]]]}},
{"type":"Feature","properties":{"name":null,"road_id":-9.2233720368547758e+18},"geometry":{"type":"MultiLineString","coordinates":[[[0.000137988683074,-0.000704931034877],[0.000118449086999,-0.000776106363101]]]}},
{"type":"Feature","properties":{"name":null,"road_id":-9.2233720368547758e+18},"geometry":{"type":"MultiLineString","coordinates":[[[0.000069146807352,-0.000685640735831],[0.000050547227816,-0.000756969520832]]]}},
{"type":"Feature","properties":{"name":null,"road_id":-9.2233720368547758e+18},"geometry":{"type":"MultiLineString","coordinates":[[[-0.000000404686449,-0.000666343437897],[-0.00002136126229,-0.000736703486153]]]}},
{"type":"Feature","properties":{"name":null,"road_id":-9.2233720368547758e+18},"geometry":{"type":"MultiLineString","coordinates":[[[-0.000069765605792,-0.000646827801724],[-0.000088913278602,-0.000717665240416]]]}},
{"type":"Feature","properties":{"name":null,"road_id":-9.2233720368547758e+18},"geometry":{"type":"MultiLineString","coordinates":[[[-0.000139139048275,-0.000627289860685],[-0.000159297972028,-0.00069782865873]]]}},
{"type":"Feature","properties":{"name":null,"road_id":-9.2233720368547758e+18},"geometry":{"type":"MultiLineString","coordinates":[[[-0.000208526157096,-0.00060802157801],[-0.000229039536618,-0.000678173330625]]]}},
{"type":"Feature","properties":{"name":null,"road_id":-9.2233720368547758e+18},"geometry":{"type":"MultiLineString","coordinates":[[[-0.000277654209848,-0.000588579081411],[-0.000298386012812,-0.000658629350639]]]}},
{"type":"Feature","properties":{"name":null,"road_id":-9.2233720368547758e+18},"geometry":{"type":"MultiLineString","coordinates":[[[-0.000353578248432,-0.00056775964951],[-0.000374493427322,-0.000637179929304]]]}},
{"type":"Feature","properties":{"name":null,"road_id":-9.2233720368547758e+18},"geometry":{"type":"MultiLineString","coordinates":[[[-0.000326355762252,-0.000480512629122],[-0.000304998133637,-0.000410152357893]]]}},
{"type":"Feature","properties":{"name":null,"road_id":-9.2233720368547758e+18},"geometry":{"type":"MultiLineString","coordinates":[[[-0.000252585742331,-0.000500548259358],[-0.000232822777715,-0.000430003373472]]]}},
{"type":"Feature","properties":{"name":null,"road_id":-9.2233720368547758e+18},"geometry":{"type":"MultiLineString","coordinates":[[[-0.000183742742069,-0.000519754571327],[-0.000164231057977,-0.000449132180024]]]}},
{"type":"Feature","properties":{"name":null,"road_id":-9.2233720368547758e+18},"geometry":{"type":"MultiLineString","coordinates":[[[-0.000114340498401,-0.000538876575838],[-0.000095536338634,-0.000468289711027]]]}},
{"type":"Feature","properties":{"name":null,"road_id":-9.2233720368547758e+18},"geometry":{"type":"MultiLineString","coordinates":[[[-0.000044738604858,-0.000558318094144],[-0.000026209356686,-0.000487623566943]]]}},
{"type":"Feature","properties":{"name":null,"road_id":-9.2233720368547758e+18},"geometry":{"type":"MultiLineString","coordinates":[[[0.000023994917737,-0.00057750124777],[0.000042485362658,-0.000506781097946]]]}},
{"type":"Feature","properties":{"name":null,"road_id":-9.2233720368547758e+18},"geometry":{"type":"MultiLineString","coordinates":[[[0.000093281583584,-0.00059657528177],[0.000111843244488,-0.000526123571197]]]}},
{"type":"Feature","properties":{"name":null,"road_id":-9.2233720368547758e+18},"geometry":{"type":"MultiLineString","coordinates":[[[0.000162512713322,-0.000615821811765],[0.000182029088174,-0.000545696945821]]]}},
{"type":"Feature","properties":{"name":null,"road_id":-9.2233720368547758e+18},"geometry":{"type":"MultiLineString","coordinates":[[[0.000232167232626,-0.000635240199635],[0.000251386970004,-0.000565039419072]]]}},
{"type":"Feature","properties":{"name":null,"road_id":-9.2233720368547758e+18},"geometry":{"type":"MultiLineString","coordinates":[[[0.000304308338905,-0.000654629911433],[0.000322359575703,-0.000584832205287]]]}},
{"type":"Feature","properties":{"name":null,"road_id":-9.2233720368547758e+18},"geometry":{"type":"MultiLineString","coordinates":[[[-0.000100635134726,-0.000399520982132],[-0.000118171002741,-0.000461977373142]]]}},
{"type":"Feature","properties":{"name":null,"road_id":-9.2233720368547758e+18},"geometry":{"type":"MultiLineString","coordinates":[[[-0.000005858958812,-0.000406207413685],[-0.000026209356686,-0.000487623566943]]]}},
{"type":"Feature","properties":{"name":null,"road_id":-9.2233720368547758e+18},"geometry":{"type":"MultiLineString","coordinates":[[[0.000078870327663,-0.000430112227434],[0.000057221506749,-0.000510890702585]]]}},
{"type":"Feature","properties":{"name":null,"road_id":-9.2233720368547758e+18},"geometry":{"type":"MultiLineString","coordinates":[[[0.000166380039425,-0.000453937119865],[0.000145342042383,-0.000535465690437]]]}},
{"type":"Feature","properties":{"name":null,"road_id":-9.2233720368547758e+18},"geometry":{"type":"MultiLineString","coordinates":[[[0.00025221470397,-0.000477603580293],[0.000231019892291,-0.000559359463955]]]}},
{"type":"Feature","properties":{"name":null,"road_id":-9.2233720368547758e+18},"geometry":{"type":"MultiLineString","coordinates":[[[0.000343945474701,-0.000502590048825],[0.000322359575703,-0.000584832205287]]]}},
{"type":"Feature","properties":{"name":null,"road_id":-9.2233720368547758e+18},"geometry":{"type":"MultiLineString","coordinates":[[[-0.000193594127936,-0.000295965384168],[-0.00016905260218,-0.000365254835713]]]}},
{"type":"Feature","properties":{"name":null,"road_id":-9.2233720368547758e+18},"geometry":{"type":"MultiLineString","coordinates":[[[-0.000127502906624,-0.0002698771784],[-0.000099993250404,-0.000338085974934]]]}},
{"type":"Feature","properties":{"name":null,"road_id":-9.2233720368547758e+18},"geometry":{"type":"MultiLineString","coordinates":[[[-0.000060933953132,-0.000244238421288],[-0.000035243784878,-0.00031261268031]]]}},
{"type":"Feature","properties":{"name":null,"road_id":-9.2233720368547758e+18},"geometry":{"type":"MultiLineString","coordinates":[[[0.000004890221679,-0.000216919487267],[0.000023550078665,-0.000289482398138]]]}},
{"type":"Feature","properties":{"name":null,"road_id":-9.2233720368547758e+18},"geometry":{"type":"MultiLineString","coordinates":[[[0.000074322300569,-0.00020420863975],[0.00008181033042,-0.000278762718045]]]}},
{"type":"Feature","properties":{"name":null,"road_id":-9.2233720368547758e+18},"geometry":{"type":"MultiLineString","coordinates":[[[0.000082812904409,-0.000338902515963],[0.000086371553789,-0.000278788437237]]]}},
{"type":"Feature","properties":{"name":null,"road_id":-9.2233720368547758e+18},"geometry":{"type":"MultiLineString","coordinates":[[[0.000146512450786,-0.00020596083898],[0.000144911741088,-0.000279118525511]]]}},
{"type":"Feature","properties":{"name":null,"road_id":-9.2233720368547758e+18},"geometry":{"type":"MultiLineString","coordinates":[[[0.000195139868234,-0.000353050111464],[0.000202620893696,-0.000279443927863]]]}},
{"type":"Feature","properties":{"name":null,"road_id":-9.2233720368547758e+18},"geometry":{"type":"MultiLineString","coordinates":[[[0.000218840200946,-0.000205996179911],[0.000217016198665,-0.000279525098108]]]}},
{"type":"Feature","properties":{"name":null,"road_id":-9.2233720368547758e+18},"geometry":{"type":"MultiLineString","coordinates":[[[0.000291104480846,-0.000206127216936],[0.000291656937282,-0.000279945971934]]]}},
{"type":"Feature","properties":{"name":null,"road_id":-9.2233720368547758e+18},"geometry":{"type":"MultiLineString","coordinates":[[[0.000284669099092,-0.000364730086785],[0.000294023013295,-0.000279959313434]]]}},
{"type":"Feature","properties":{"name":null,"road_id":-9.2233720368547758e+18},"geometry":{"type":"MultiLineString","coordinates":[[[0.000386953342297,-0.000377198679586],[0.000407669196216,-0.000280600125739]]]}},
{"type":"Feature","properties":{"name":null,"road_id":-9.2233720368547758e+18},"geometry":{"type":"MultiLineString","coordinates":[[[0.000362330133593,-0.000206152166189],[0.000361522618335,-0.000280339920828]]]}},
{"type":"Feature","properties":{"name":null,"road_id":-9.2233720368547758e+18},"geometry":{"type":"MultiLineString","coordinates":[[[0.00045337602041,-0.000203507342304],[0.000453004820239,-0.000280855757957]]]}},
{"type":"Feature","properties":{"name":null,"road_id":-9.2233720368547758e+18},"geometry":{"type":"MultiLineString","coordinates":[[[-0.000272070396362,-0.000318883514989],[-0.000347058083309,-0.000294427018708]]]}},
{"type":"Feature","properties":{"name":null,"road_id":-9.2233720368547758e+18},"geometry":{"type":"MultiLineString","coordinates":[[[-0.00025930812042,-0.00012949295113],[-0.000229494811731,-0.000209655849365]]]}},
{"type":"Feature","properties":{"name":null,"road_id":-9.2233720368547758e+18},"geometry":{"type":"MultiLineString","coordinates":[[[-0.000190828063986,-0.000103968404646],[-0.000160643999113,-0.000181777222372]]]}},
{"type":"Feature","properties":{"name":null,"road_id":-9.2233720368547758e+18},"geometry":{"type":"MultiLineString","coordinates":[[[-0.000125245793742,-0.000079523948953],[-0.000093917717,-0.000156777553383]]]}},
{"type":"Feature","properties":{"name":null,"road_id":-9.2233720368547758e+18},"geometry":{"type":"MultiLineString","coordinates":[[[-0.000046669702025,-0.000050236310917],[-0.000019504287164,-0.000126868152182]]]}},
{"type":"Feature","properties":{"name":null,"road_id":-9.2233720368547758e+18},"geometry":{"type":"MultiLineString","coordinates":[[[0.0000616651501,-0.000031564389599],[0.000066720022347,-0.000112467790826]]]}},
{"type":"Feature","properties":{"name":null,"road_id":-9.2233720368547758e+18},"geometry":{"type":"MultiLineString","coordinates":[[[0.000146570779475,-0.000113565507652],[0.000147583587473,-0.000031453821751]]]}},
{"type":"Feature","properties":{"name":null,"road_id":-9.2233720368547758e+18},"geometry":{"type":"MultiLineString","coordinates":[[[0.000219005086556,-0.000113352468954],[0.000218945183945,-0.000031361987002]]]}},
{"type":"Feature","properties":{"name":null,"road_id":-9.2233720368547758e+18},"geometry":{"type":"MultiLineString","coordinates":[[[0.000291255278891,-0.000113231512303],[0.000290988281491,-0.000031269275234]]]}},
{"type":"Feature","properties":{"name":null,"road_id":-9.2233720368547758e+18},"geometry":{"type":"MultiLineString","coordinates":[[[0.000362355044776,-0.00011301657021],[0.000360288105574,-0.000031180093766]]]}},
{"type":"Feature","properties":{"name":null,"road_id":-9.2233720368547758e+18},"geometry":{"type":"MultiLineString","coordinates":[[[0.00043380633357,-0.000112826017468],[0.000432028367867,-0.000031087771714]]]}},
{"type":"Feature","properties":{"name":null,"road_id":-9.2233720368547758e+18},"geometry":{"type":"MultiLineString","coordinates":[[[0.000533555010988,-0.000110165951834],[0.000535313349841,-0.000030954854979]]]}},
{"type":"Feature","properties":{"name":null,"road_id":-9.2233720368547758e+18},"geometry":{"type":"MultiLineString","coordinates":[[[0.000648300493117,-0.000113663938835],[0.000653274941947,-0.000030803051015]]]}},
{"type":"Feature","properties":{"name":null,"road_id":-9.2233720368547758e+18},"geometry":{"type":"MultiLineString","coordinates":[[[-0.000826015685163,-0.000441674106871],[-0.000857337378424,-0.000361181401007]]]}},
{"type":"Feature","properties":{"name":null,"road_id":-9.2233720368547758e+18},"geometry":{"type":"MultiLineString","coordinates":[[[-0.000756794317227,-0.000414421464369],[-0.000790139509262,-0.000335087467779]]]}},
{"type":"Feature","properties":{"name":null,"road_id":-9.2233720368547758e+18},"geometry":{"type":"MultiLineString","coordinates":[[[-0.000689894057404,-0.000388970662007],[-0.000721614749257,-0.000308478283079]]]}},
{"type":"Feature","properties":{"name":null,"road_id":-9.2233720368547758e+18},"geometry":{"type":"MultiLineString","coordinates":[[[-0.000623335923448,-0.000363337287464],[-0.000657685756113,-0.000283653703086]]]}},
{"type":"Feature","properties":{"name":null,"road_id":-9.2233720368547758e+18},"geometry":{"type":"MultiLineString","coordinates":[[[-0.000555996073989,-0.000337298526316],[-0.000589109101639,-0.00025702436699]]]}},
{"type":"Feature","properties":{"name":null,"road_id":-9.2233720368547758e+18},"geometry":{"type":"MultiLineString","coordinates":[[[-0.000489836656984,-0.00031145135115],[-0.000519491144921,-0.000229990677727]]]}},
{"type":"Feature","properties":{"name":null,"road_id":-9.2233720368547758e+18},"geometry":{"type":"MultiLineString","coordinates":[[[-0.000418867918274,-0.000275159754227],[-0.000440785443421,-0.000199428081841]]]}},
{"type":"Feature","properties":{"name":null,"road_id":-9.2233720368547758e+18},"geometry":{"type":"MultiLineString","coordinates":[[[-0.000455016794664,-0.000393148621384],[-0.00038801410393,-0.000411842938337]]]}},
{"type":"Feature","properties":{"name":null,"road_id":-9.2233720368547758e+18},"geometry":{"type":"MultiLineString","coordinates":[[[-0.00052147592625,-0.000427303512006],[-0.000496553971266,-0.000495328753867]]]}},
{"type":"Feature","properties":{"name":null,"road_id":-9.2233720368547758e+18},"geometry":{"type":"MultiLineString","coordinates":[[[-0.000588936376915,-0.000453215420448],[-0.00056376495542,-0.000521142798611]]]}},
{"type":"Feature","properties":{"name":null,"road_id":-9.2233720368547758e+18},"geometry":{"type":"MultiLineString","coordinates":[[[-0.000656332066536,-0.000479020933246],[-0.000632691969359,-0.000547615927138]]]}},
{"type":"Feature","properties":{"name":null,"road_id":-9.2233720368547758e+18},"geometry":{"type":"MultiLineString","coordinates":[[[-0.000723302130549,-0.000504415273177],[-0.000698229829945,-0.000572787367296]]]}},
{"type":"Feature","properties":{"name":null,"road_id":-9.2233720368547758e+18},"geometry":{"type":"MultiLineString","coordinates":[[[-0.000791594170339,-0.0005319942619],[-0.00072658905474,-0.000583679430655]]]}},
{"type":"Feature","properties":{"name":null,"road_id":-9.2233720368547758e+18},"geometry":{"type":"MultiLineString","coordinates":[[[-0.001040369794765,-0.00200115469357],[-0.001024406162946,-0.001941546466319]]]}},
{"type":"Feature","properties":{"name":null,"road_id":-9.2233720368547758e+18},"geometry":{"type":"MultiLineString","coordinates":[[[-0.001130118431351,-0.00197659514815],[-0.001113076841441,-0.001916744009297]]]}},
{"type":"Feature","properties":{"name":null,"road_id":-9.2233720368547758e+18},"geometry":{"type":"MultiLineString","coordinates":[[[-0.001215932727393,-0.001952942838663],[-0.001200667055896,-0.00189224377352]]]}},
{"type":"Feature","properties":{"name":null,"road_id":-9.2233720368547758e+18},"geometry":{"type":"MultiLineString","coordinates":[[[-0.001302221982026,-0.001929301980035],[-0.001285719935616,-0.00186845326656]]]}},
{"type":"Feature","properties":{"name":null,"road_id":-9.2233720368547758e+18},"geometry":{"type":"MultiLineString","coordinates":[[[-0.001388315901226,-0.001905538078384],[-0.001372421741896,-0.001844201531257]]]}},
{"type":"Feature","properties":{"name":null,"road_id":-9.2233720368547758e+18},"geometry":{"type":"MultiLineString","coordinates":[[[-0.001474948277806,-0.001881806841922],[-0.001460011956351,-0.001819701295479]]]}},
{"type":"Feature","properties":{"name":null,"road_id":-9.2233720368547758e+18},"geometry":{"type":"MultiLineString","coordinates":[[[-0.001562282789743,-0.001857926782509],[-0.001546145300111,-0.001795608567273]]]}},
{"type":"Feature","properties":{"name":null,"road_id":-9.2233720368547758e+18},"geometry":{"type":"MultiLineString","coordinates":[[[-0.00164840189587,-0.001834168763949],[-0.001632297464205,-0.001771510574749]]]}},
{"type":"Feature","properties":{"name":null,"road_id":-9.2233720368547758e+18},"geometry":{"type":"MultiLineString","coordinates":[[[-0.001734089311358,-0.001810733102408],[-0.001717881165779,-0.001747571589323]]]}},
{"type":"Feature","properties":{"name":null,"road_id":-9.2233720368547758e+18},"geometry":{"type":"MultiLineString","coordinates":[[[-0.001820571626498,-0.001786854541692],[-0.001804033329872,-0.001723473596798]]]}},
{"type":"Feature","properties":{"name":null,"road_id":-9.2233720368547758e+18},"geometry":{"type":"MultiLineString","coordinates":[[[-0.001906605468971,-0.001763526580477],[-0.00188764815923,-0.001700085333091]]]}},
{"type":"Feature","properties":{"name":null,"road_id":-9.2233720368547758e+18},"geometry":{"type":"MultiLineString","coordinates":[[[-0.00200852210946,-0.001735951445478],[-0.001914501617408,-0.001692574036755]]]}},
{"type":"Feature","properties":{"name":null,"road_id":-9.2233720368547758e+18},"geometry":{"type":"MultiLineString","coordinates":[[[-0.000986834039113,-0.001873704029711],[-0.001008088648971,-0.001946110708365]]]}},
{"type":"Feature","properties":{"name":null,"road_id":-9.2233720368547758e+18},"geometry":{"type":"MultiLineString","coordinates":[[[-0.001056951622427,-0.001854968447571],[-0.001077000469159,-0.001926835086621]]]}},
{"type":"Feature","properties":{"name":null,"road_id":-9.2233720368547758e+18},"geometry":{"type":"MultiLineString","coordinates":[[[-0.001126305555466,-0.001835935414507],[-0.001145794222171,-0.001907592489954]]]}},
{"type":"Feature","properties":{"name":null,"road_id":-9.2233720368547758e+18},"geometry":{"type":"MultiLineString","coordinates":[[[-0.001196196755401,-0.001816239269272],[-0.001214207715991,-0.001888456257221]]]}},
{"type":"Feature","properties":{"name":null,"road_id":-9.2233720368547758e+18},"geometry":{"type":"MultiLineString","coordinates":[[[-0.001264907552506,-0.001797203032191],[-0.001285719935616,-0.00186845326656]]]}},
{"type":"Feature","properties":{"name":null,"road_id":-9.2233720368547758e+18},"geometry":{"type":"MultiLineString","coordinates":[[[-0.001333362727069,-0.001778083163794],[-0.00135397111789,-0.001849362434689]]]}},
{"type":"Feature","properties":{"name":null,"road_id":-9.2233720368547758e+18},"geometry":{"type":"MultiLineString","coordinates":[[[-0.001403084415339,-0.00175848128854],[-0.001423009535228,-0.00183005140191]]]}},
{"type":"Feature","properties":{"name":null,"road_id":-9.2233720368547758e+18},"geometry":{"type":"MultiLineString","coordinates":[[[-0.001472494635966,-0.001738995012586],[-0.001492672876082,-0.001810565569085]]]}},
{"type":"Feature","properties":{"name":null,"road_id":-9.2233720368547758e+18},"geometry":{"type":"MultiLineString","coordinates":[[[-0.001541424902091,-0.001720383218226],[-0.001560935807241,-0.001791471450881]]]}},
{"type":"Feature","properties":{"name":null,"road_id":-9.2233720368547758e+18},"geometry":{"type":"MultiLineString","coordinates":[[[-0.001609867314979,-0.001700833880074],[-0.001632297464205,-0.001771510574749]]]}},
{"type":"Feature","properties":{"name":null,"road_id":-9.2233720368547758e+18},"geometry":{"type":"MultiLineString","coordinates":[[[-0.001680155764818,-0.001681278110116],[-0.001700887412467,-0.001752324985184]]]}},
{"type":"Feature","properties":{"name":null,"road_id":-9.2233720368547758e+18},"geometry":{"type":"MultiLineString","coordinates":[[[-0.001786308599454,-0.001652626089944],[-0.001804033329872,-0.001723473596798]]]}},
{"type":"Feature","properties":{"name":null,"road_id":-9.2233720368547758e+18},"geometry":{"type":"MultiLineString","coordinates":[[[-0.000959000423163,-0.001785749422673],[-0.000937527076834,-0.001718111756227]]]}},
{"type":"Feature","properties":{"name":null,"road_id":-9.2233720368547758e+18},"geometry":{"type":"MultiLineString","coordinates":[[[-0.001032715799616,-0.001765713618062],[-0.001012268926248,-0.001696765589902]]]}},
{"type":"Feature","properties":{"name":null,"road_id":-9.2233720368547758e+18},"geometry":{"type":"MultiLineString","coordinates":[[[-0.001101801106424,-0.001746479618988],[-0.001083882780431,-0.001676312774584]]]}},
{"type":"Feature","properties":{"name":null,"road_id":-9.2233720368547758e+18},"geometry":{"type":"MultiLineString","coordinates":[[[-0.001171394501008,-0.001727037909218],[-0.001152902746083,-0.001657388767377]]]}},
{"type":"Feature","properties":{"name":null,"road_id":-9.2233720368547758e+18},"geometry":{"type":"MultiLineString","coordinates":[[[-0.001240017109789,-0.00170839176729],[-0.001221350651303,-0.001638932964656]]]}},
{"type":"Feature","properties":{"name":null,"road_id":-9.2233720368547758e+18},"geometry":{"type":"MultiLineString","coordinates":[[[-0.001300250957455,-0.001691847546656],[-0.001281800233818,-0.001622633772358]]]}},
{"type":"Feature","properties":{"name":null,"road_id":-9.2233720368547758e+18},"geometry":{"type":"MultiLineString","coordinates":[[[-0.001361987073031,-0.001674907297152],[-0.001342262457447,-0.001606331171602]]]}},
{"type":"Feature","properties":{"name":null,"road_id":-9.2233720368547758e+18},"geometry":{"type":"MultiLineString","coordinates":[[[-0.001431339937527,-0.001655935323221],[-0.001411526476063,-0.001587655317911]]]}},
{"type":"Feature","properties":{"name":null,"road_id":-9.2233720368547758e+18},"geometry":{"type":"MultiLineString","coordinates":[[[-0.001500390242984,-0.001636994521535],[-0.001481240015798,-0.001568858258567]]]}},
{"type":"Feature","properties":{"name":null,"road_id":-9.2233720368547758e+18},"geometry":{"type":"MultiLineString","coordinates":[[[-0.001569568019784,-0.001617867571413],[-0.001551054684437,-0.001550033931549]]]}},
{"type":"Feature","properties":{"name":null,"road_id":-9.2233720368547758e+18},"geometry":{"type":"MultiLineString","coordinates":[[[-0.00163963593088,-0.001599231017235],[-0.001620831429737,-0.001531219829909]]]}},
{"type":"Feature","properties":{"name":null,"road_id":-9.2233720368547758e+18},"geometry":{"type":"MultiLineString","coordinates":[[[-0.001745796251835,-0.00157041140613],[-0.001724392468167,-0.001503296373539]]]}},
{"type":"Feature","properties":{"name":null,"road_id":null},"geometry":{"type":"MultiLineString","coordinates":[[[-0.001711761166784,-0.001430862975896],[-0.001732708463121,-0.001501054108246]]]}},
{"type":"Feature","properties":{"name":null,"road_id":null},"geometry":{"type":"MultiLineString","coordinates":[[[-0.001634826003031,-0.001449742605061],[-0.001655323722849,-0.001521919575138]]]}},
{"type":"Feature","properties":{"name":null,"road_id":null},"geometry":{"type":"MultiLineString","coordinates":[[[-0.001565643750204,-0.001468790650459],[-0.001583424146021,-0.001541306061861]]]}},
{"type":"Feature","properties":{"name":null,"road_id":null},"geometry":{"type":"MultiLineString","coordinates":[[[-0.001496904162586,-0.001487442730392],[-0.001517753221465,-0.001559013099415]]]}},
{"type":"Feature","properties":{"name":null,"road_id":null},"geometry":{"type":"MultiLineString","coordinates":[[[-0.001426744438801,-0.001506547198665],[-0.001446700665947,-0.001578171201381]]]}},
{"type":"Feature","properties":{"name":null,"road_id":null},"geometry":{"type":"MultiLineString","coordinates":[[[-0.001357124860057,-0.001525357122752],[-0.001377545234295,-0.00159681777646]]]}},
{"type":"Feature","properties":{"name":null,"road_id":null},"geometry":{"type":"MultiLineString","coordinates":[[[-0.001288139375637,-0.001544245484525],[-0.00130722593007,-0.001615778169801]]]}},
{"type":"Feature","properties":{"name":null,"road_id":null},"geometry":{"type":"MultiLineString","coordinates":[[[-0.001217571373762,-0.001563352580627],[-0.001236956400227,-0.001634725142334]]]}},
{"type":"Feature","properties":{"name":null,"road_id":null},"geometry":{"type":"MultiLineString","coordinates":[[[-0.001143332394657,-0.001582866514228],[-0.0011619938351,-0.001654937511274]]]}},
{"type":"Feature","properties":{"name":null,"road_id":null},"geometry":{"type":"MultiLineString","coordinates":[[[-0.001639889605174,-0.001352237616596],[-0.001618177261198,-0.001278892054193]]]}},
{"type":"Feature","properties":{"name":null,"road_id":null},"geometry":{"type":"MultiLineString","coordinates":[[[-0.001538750177826,-0.001377441848671],[-0.001519070601766,-0.001305633938415]]]}},
{"type":"Feature","properties":{"name":null,"road_id":null},"geometry":{"type":"MultiLineString","coordinates":[[[-0.00147027249187,-0.001396030336838],[-0.001451463809173,-0.001323876234447]]]}},
{"type":"Feature","properties":{"name":null,"road_id":null},"geometry":{"type":"MultiLineString","coordinates":[[[-0.00140047814809,-0.001415044315955],[-0.001380529461747,-0.001343016402394]]]}},
{"type":"Feature","properties":{"name":null,"road_id":null},"geometry":{"type":"MultiLineString","coordinates":[[[-0.00133097147015,-0.001433828688815],[-0.001310601404127,-0.001361885043829]]]}},
{"type":"Feature","properties":{"name":null,"road_id":null},"geometry":{"type":"MultiLineString","coordinates":[[[-0.001262281404909,-0.001452649939375],[-0.00124253475027,-0.001380251423921]]]}},
{"type":"Feature","properties":{"name":null,"road_id":null},"geometry":{"type":"MultiLineString","coordinates":[[[-0.001192363568147,-0.001471585693192],[-0.001172563620266,-0.001399131687549]]]}},
{"type":"Feature","properties":{"name":null,"road_id":null},"geometry":{"type":"MultiLineString","coordinates":[[[-0.001115344883397,-0.001491865035317],[-0.001096045272808,-0.001419778582523]]]}},
{"type":"Feature","properties":{"name":null,"road_id":null},"geometry":{"type":"MultiLineString","coordinates":[[[-0.001982750618653,-0.001654569440932],[-0.001908377245807,-0.001679753258945]]]}},
{"type":"Feature","properties":{"name":null,"road_id":null},"geometry":{"type":"MultiLineString","coordinates":[[[-0.001945731083718,-0.001581715988758],[-0.001877841425818,-0.001615829482133]]]}},
{"type":"Feature","properties":{"name":null,"road_id":null},"geometry":{"type":"MultiLineString","coordinates":[[[-0.001914305712249,-0.001517192416017],[-0.001848011345263,-0.001553383102357]]]}},
{"type":"Feature","properties":{"name":null,"road_id":null},"geometry":{"type":"MultiLineString","coordinates":[[[-0.001882784442151,-0.001452398747902],[-0.00181651115976,-0.001487440519892]]]}},
{"type":"Feature","properties":{"name":null,"road_id":null},"geometry":{"type":"MultiLineString","coordinates":[[[-0.001851475223053,-0.001387990789218],[-0.001785965355152,-0.001425406073791]]]}},
{"type":"Feature","properties":{"name":null,"road_id":null},"geometry":{"type":"MultiLineString","coordinates":[[[-0.001820162534226,-0.001324581328927],[-0.001754160367971,-0.001361097088742]]]}},
{"type":"Feature","properties":{"name":null,"road_id":null},"geometry":{"type":"MultiLineString","coordinates":[[[-0.001792696019288,-0.001259467532068],[-0.001726071493959,-0.001304302002843]]]}},
{"type":"Feature","properties":{"name":null,"road_id":null},"geometry":{"type":"MultiLineString","coordinates":[[[-0.001745799408131,-0.001216672077038],[-0.001708779729918,-0.001286967211899]]]}},
{"type":"Feature","properties":{"name":null,"road_id":null},"geometry":{"type":"MultiLineString","coordinates":[[[-0.001671917735649,-0.001193607212656],[-0.001667009083338,-0.001271838771768]]]}},
{"type":"Feature","properties":{"name":null,"road_id":null},"geometry":{"type":"MultiLineString","coordinates":[[[-0.001597158453873,-0.001187356500793],[-0.00162370024202,-0.001277401791939]]]}},
{"type":"Feature","properties":{"name":null,"road_id":null},"geometry":{"type":"MultiLineString","coordinates":[[[-0.00091987687131,-0.001654715712419],[-0.000836644403171,-0.001683319316546]]]}},
{"type":"Feature","properties":{"name":null,"road_id":null},"geometry":{"type":"MultiLineString","coordinates":[[[-0.000894382514066,-0.001584853764095],[-0.000811468367477,-0.001613313788665]]]}},
{"type":"Feature","properties":{"name":null,"road_id":null},"geometry":{"type":"MultiLineString","coordinates":[[[-0.00087058873054,-0.00151824931971],[-0.000787072601975,-0.001545626181121]]]}},
{"type":"Feature","properties":{"name":null,"road_id":null},"geometry":{"type":"MultiLineString","coordinates":[[[-0.000846208467119,-0.001450644341742],[-0.000762620549128,-0.001478550132957]]]}},
{"type":"Feature","properties":{"name":null,"road_id":null},"geometry":{"type":"MultiLineString","coordinates":[[[-0.000821628631407,-0.001382263610385],[-0.000738386844736,-0.001412701381728]]]}},
{"type":"Feature","properties":{"name":null,"road_id":null},"geometry":{"type":"MultiLineString","coordinates":[[[-0.000795355504419,-0.001310529247952],[-0.000711439602704,-0.001339479301925]]]}},
{"type":"Feature","properties":{"name":null,"road_id":null},"geometry":{"type":"MultiLineString","coordinates":[[[-0.001009635605015,-0.001625874620225],[-0.001080093285183,-0.001604486440503]]]}},
{"type":"Feature","properties":{"name":null,"road_id":null},"geometry":{"type":"MultiLineString","coordinates":[[[-0.000983577901132,-0.001552961053588],[-0.001053983598875,-0.001528288649627]]]}},
{"type":"Feature","properties":{"name":null,"road_id":null},"geometry":{"type":"MultiLineString","coordinates":[[[-0.000960120373728,-0.001485939080013],[-0.001031340686601,-0.001462208196808]]]}},
{"type":"Feature","properties":{"name":null,"road_id":null},"geometry":{"type":"MultiLineString","coordinates":[[[-0.000936341029576,-0.001418188926519],[-0.00100787220005,-0.001394289793716]]]}},
{"type":"Feature","properties":{"name":null,"road_id":null},"geometry":{"type":"MultiLineString","coordinates":[[[-0.000912477269781,-0.001349611769607],[-0.000984075295925,-0.001325711148279]]]}},
{"type":"Feature","properties":{"name":null,"road_id":null},"geometry":{"type":"MultiLineString","coordinates":[[[-0.00088741725846,-0.001278824895579],[-0.000959634277924,-0.00125527627579]]]}},
{"type":"Feature","properties":{"name":null,"road_id":null},"geometry":{"type":"MultiLineString","coordinates":[[[-0.000666228172035,-0.001214422172575],[-0.000750809497532,-0.001185830821282]]]}},
{"type":"Feature","properties":{"name":null,"road_id":null},"geometry":{"type":"MultiLineString","coordinates":[[[-0.000915408062774,-0.001127823817598],[-0.000843637900134,-0.001153759218142]]]}},
{"type":"Feature","properties":{"name":null,"road_id":null},"geometry":{"type":"MultiLineString","coordinates":[[[-0.000725755510338,-0.00111587501544],[-0.000641596238897,-0.00114541697151]]]}},
{"type":"Feature","properties":{"name":null,"road_id":null},"geometry":{"type":"MultiLineString","coordinates":[[[-0.00081830457118,-0.001082018471757],[-0.000890461408052,-0.00105593178575]]]}},
{"type":"Feature","properties":{"name":null,"road_id":null},"geometry":{"type":"MultiLineString","coordinates":[[[-0.000701794831908,-0.001048575547143],[-0.000618246733637,-0.001080004431771]]]}},
{"type":"Feature","properties":{"name":null,"road_id":null},"geometry":{"type":"MultiLineString","coordinates":[[[-0.000794603578051,-0.001014496264502],[-0.000867432209855,-0.000989565538702]]]}},
{"type":"Feature","properties":{"name":null,"road_id":null},"geometry":{"type":"MultiLineString","coordinates":[[[-0.000678074401567,-0.000981272970373],[-0.00059377278058,-0.001011427962802]]]}},
{"type":"Feature","properties":{"name":null,"road_id":null},"geometry":{"type":"MultiLineString","coordinates":[[[-0.000771108008901,-0.000946886225683],[-0.000843579191551,-0.000920825181699]]]}},
{"type":"Feature","properties":{"name":null,"road_id":null},"geometry":{"type":"MultiLineString","coordinates":[[[-0.00065395922541,-0.000913542594793],[-0.000570310615546,-0.000945682008194]]]}},
{"type":"Feature","properties":{"name":null,"road_id":null},"geometry":{"type":"MultiLineString","coordinates":[[[-0.000747018963561,-0.000877832060383],[-0.000819217719397,-0.00085061954685]]]}},
{"type":"Feature","properties":{"name":null,"road_id":null},"geometry":{"type":"MultiLineString","coordinates":[[[-0.00062946072969,-0.000844801114319],[-0.000545918048868,-0.000877328871162]]]}},
{"type":"Feature","properties":{"name":null,"road_id":null},"geometry":{"type":"MultiLineString","coordinates":[[[-0.000722829909695,-0.000809484470222],[-0.000795893065199,-0.00078340184567]]]}},
{"type":"Feature","properties":{"name":null,"road_id":null},"geometry":{"type":"MultiLineString","coordinates":[[[-0.000699475918494,-0.000742199784511],[-0.000772980321054,-0.000717371199465]]]}},
{"type":"Feature","properties":{"name":null,"road_id":null},"geometry":{"type":"MultiLineString","coordinates":[[[-0.000605875652159,-0.00077688660264],[-0.000521157136461,-0.000806003132131]]]}},
{"type":"Feature","properties":{"name":null,"road_id":null},"geometry":{"type":"MultiLineString","coordinates":[[[-0.000582609740598,-0.00070912616789],[-0.000498681283252,-0.000738938086274]]]}},
{"type":"Feature","properties":{"name":null,"road_id":null},"geometry":{"type":"MultiLineString","coordinates":[[[-0.000659364632622,-0.000644129595281],[-0.000738324295399,-0.000617498405771]]]}},
{"type":"Feature","properties":{"name":null,"road_id":null},"geometry":{"type":"MultiLineString","coordinates":[[[-0.00054204521756,-0.000604536062811],[-0.000462676192658,-0.000631503541768]]]}}
]
}
